<?xml version="1.0" encoding="UTF-8"?>
<gpx version="1.1" creator="lgrs-site-migration" xmlns="http://www.topografix.com/GPX/1/1">
  <trk><name>alpes-ligures-traversee-ski-randonnee</name>
    <trkseg>
      <trkpt lat="44.155708" lon="7.5961169"></trkpt>
      <trkpt lat="44.1559028" lon="7.5966363"></trkpt>
      <trkpt lat="44.1558664" lon="7.5970758"></trkpt>
      <trkpt lat="44.1560027" lon="7.5973402"></trkpt>
      <trkpt lat="44.1558966" lon="7.5974555"></trkpt>
      <trkpt lat="44.1558939" lon="7.5976921"></trkpt>
      <trkpt lat="44.1560293" lon="7.5976757"></trkpt>
      <trkpt lat="44.15627" lon="7.5978244"></trkpt>
      <trkpt lat="44.1564313" lon="7.5982086"></trkpt>
      <trkpt lat="44.1560431" lon="7.5983337"></trkpt>
      <trkpt lat="44.15601" lon="7.5983782"></trkpt>
      <trkpt lat="44.1561823" lon="7.5984392"></trkpt>
      <trkpt lat="44.1562153" lon="7.598535"></trkpt>
      <trkpt lat="44.1558244" lon="7.5988341"></trkpt>
      <trkpt lat="44.1555873" lon="7.5988114"></trkpt>
      <trkpt lat="44.1555126" lon="7.5989783"></trkpt>
      <trkpt lat="44.1554393" lon="7.6007809"></trkpt>
      <trkpt lat="44.1551953" lon="7.6016328"></trkpt>
      <trkpt lat="44.1551824" lon="7.6021635"></trkpt>
      <trkpt lat="44.1552823" lon="7.6026134"></trkpt>
      <trkpt lat="44.1552288" lon="7.6033387"></trkpt>
      <trkpt lat="44.1550141" lon="7.6038393"></trkpt>
      <trkpt lat="44.154982" lon="7.6042144"></trkpt>
      <trkpt lat="44.1548396" lon="7.6043872"></trkpt>
      <trkpt lat="44.154742" lon="7.6050733"></trkpt>
      <trkpt lat="44.154449" lon="7.6059745"></trkpt>
      <trkpt lat="44.1535875" lon="7.6079653"></trkpt>
      <trkpt lat="44.1535195" lon="7.6084874"></trkpt>
      <trkpt lat="44.1537675" lon="7.6086365"></trkpt>
      <trkpt lat="44.1534826" lon="7.6091103"></trkpt>
      <trkpt lat="44.1535611" lon="7.6095077"></trkpt>
      <trkpt lat="44.1540713" lon="7.6101612"></trkpt>
      <trkpt lat="44.1551311" lon="7.6107517"></trkpt>
      <trkpt lat="44.1551212" lon="7.6110105"></trkpt>
      <trkpt lat="44.1555887" lon="7.6116864"></trkpt>
      <trkpt lat="44.1558985" lon="7.6119851"></trkpt>
      <trkpt lat="44.1556762" lon="7.6120698"></trkpt>
      <trkpt lat="44.1558244" lon="7.6122649"></trkpt>
      <trkpt lat="44.1552349" lon="7.6122265"></trkpt>
      <trkpt lat="44.1548022" lon="7.6124501"></trkpt>
      <trkpt lat="44.1544086" lon="7.6127712"></trkpt>
      <trkpt lat="44.1538479" lon="7.6135822"></trkpt>
      <trkpt lat="44.1535711" lon="7.613811"></trkpt>
      <trkpt lat="44.15286" lon="7.6141821"></trkpt>
      <trkpt lat="44.1524163" lon="7.6142364"></trkpt>
      <trkpt lat="44.1514214" lon="7.6149192"></trkpt>
      <trkpt lat="44.1512983" lon="7.6144907"></trkpt>
      <trkpt lat="44.1509269" lon="7.6152412"></trkpt>
      <trkpt lat="44.1506453" lon="7.6151906"></trkpt>
      <trkpt lat="44.1507746" lon="7.6149432"></trkpt>
      <trkpt lat="44.1507637" lon="7.614509"></trkpt>
      <trkpt lat="44.1503456" lon="7.6146695"></trkpt>
      <trkpt lat="44.1503079" lon="7.6146207"></trkpt>
      <trkpt lat="44.1504263" lon="7.6143944"></trkpt>
      <trkpt lat="44.1503694" lon="7.6142461"></trkpt>
      <trkpt lat="44.1498784" lon="7.6145444"></trkpt>
      <trkpt lat="44.1497026" lon="7.6147501"></trkpt>
      <trkpt lat="44.1495914" lon="7.6150735"></trkpt>
      <trkpt lat="44.1494824" lon="7.6148701"></trkpt>
      <trkpt lat="44.1495119" lon="7.6145641"></trkpt>
      <trkpt lat="44.1494467" lon="7.6146229"></trkpt>
      <trkpt lat="44.149153" lon="7.6170774"></trkpt>
      <trkpt lat="44.1493146" lon="7.6170228"></trkpt>
      <trkpt lat="44.1491866" lon="7.6176015"></trkpt>
      <trkpt lat="44.1487842" lon="7.6180358"></trkpt>
      <trkpt lat="44.1482386" lon="7.618993"></trkpt>
      <trkpt lat="44.1476005" lon="7.6198793"></trkpt>
      <trkpt lat="44.1472846" lon="7.6206765"></trkpt>
      <trkpt lat="44.1472166" lon="7.6210887"></trkpt>
      <trkpt lat="44.146973" lon="7.6238581"></trkpt>
      <trkpt lat="44.1472016" lon="7.624339"></trkpt>
      <trkpt lat="44.1475602" lon="7.6247755"></trkpt>
      <trkpt lat="44.148279" lon="7.6252242"></trkpt>
      <trkpt lat="44.1489908" lon="7.6270905"></trkpt>
      <trkpt lat="44.1494122" lon="7.6275647"></trkpt>
      <trkpt lat="44.1494517" lon="7.6276968"></trkpt>
      <trkpt lat="44.1491911" lon="7.6277679"></trkpt>
      <trkpt lat="44.1491413" lon="7.6283455"></trkpt>
      <trkpt lat="44.1492199" lon="7.6285925"></trkpt>
      <trkpt lat="44.1491341" lon="7.6290938"></trkpt>
      <trkpt lat="44.149278" lon="7.6294179"></trkpt>
      <trkpt lat="44.1490436" lon="7.6294515"></trkpt>
      <trkpt lat="44.1490757" lon="7.6295415"></trkpt>
      <trkpt lat="44.1494021" lon="7.6298808"></trkpt>
      <trkpt lat="44.1496504" lon="7.6305398"></trkpt>
      <trkpt lat="44.1502832" lon="7.6301528"></trkpt>
      <trkpt lat="44.1512653" lon="7.6298783"></trkpt>
      <trkpt lat="44.1516145" lon="7.6296078"></trkpt>
      <trkpt lat="44.1519883" lon="7.6301968"></trkpt>
      <trkpt lat="44.1522352" lon="7.6303596"></trkpt>
      <trkpt lat="44.1522642" lon="7.6306051"></trkpt>
      <trkpt lat="44.1522605" lon="7.6328223"></trkpt>
      <trkpt lat="44.1521021" lon="7.6332815"></trkpt>
      <trkpt lat="44.1515874" lon="7.6339804"></trkpt>
      <trkpt lat="44.1511374" lon="7.6349796"></trkpt>
      <trkpt lat="44.15068" lon="7.6365033"></trkpt>
      <trkpt lat="44.1506516" lon="7.6373931"></trkpt>
      <trkpt lat="44.1500474" lon="7.6386951"></trkpt>
      <trkpt lat="44.1501668" lon="7.6388384"></trkpt>
      <trkpt lat="44.1503878" lon="7.6388194"></trkpt>
      <trkpt lat="44.1506734" lon="7.6390746"></trkpt>
      <trkpt lat="44.1503556" lon="7.6392336"></trkpt>
      <trkpt lat="44.1503149" lon="7.6393842"></trkpt>
      <trkpt lat="44.1504338" lon="7.6409159"></trkpt>
      <trkpt lat="44.1503123" lon="7.6414738"></trkpt>
      <trkpt lat="44.1503593" lon="7.6416164"></trkpt>
      <trkpt lat="44.1505473" lon="7.6415457"></trkpt>
      <trkpt lat="44.1505251" lon="7.642177"></trkpt>
      <trkpt lat="44.1506438" lon="7.6424781"></trkpt>
      <trkpt lat="44.1505888" lon="7.6432346"></trkpt>
      <trkpt lat="44.1504665" lon="7.6436894"></trkpt>
      <trkpt lat="44.150301" lon="7.6439251"></trkpt>
      <trkpt lat="44.150671" lon="7.6439484"></trkpt>
      <trkpt lat="44.1508381" lon="7.6438217"></trkpt>
      <trkpt lat="44.1508288" lon="7.6442608"></trkpt>
      <trkpt lat="44.150598" lon="7.6447667"></trkpt>
      <trkpt lat="44.1506877" lon="7.6451037"></trkpt>
      <trkpt lat="44.1507436" lon="7.6463827"></trkpt>
      <trkpt lat="44.1506449" lon="7.6469675"></trkpt>
      <trkpt lat="44.150198" lon="7.6479457"></trkpt>
      <trkpt lat="44.1500877" lon="7.6480652"></trkpt>
      <trkpt lat="44.1496146" lon="7.6479302"></trkpt>
      <trkpt lat="44.1493922" lon="7.6482047"></trkpt>
      <trkpt lat="44.1496154" lon="7.6484686"></trkpt>
      <trkpt lat="44.149439" lon="7.6489441"></trkpt>
      <trkpt lat="44.1495841" lon="7.6492141"></trkpt>
      <trkpt lat="44.1494931" lon="7.649513"></trkpt>
      <trkpt lat="44.1497719" lon="7.6496586"></trkpt>
      <trkpt lat="44.1498469" lon="7.6498622"></trkpt>
      <trkpt lat="44.1499685" lon="7.6498217"></trkpt>
      <trkpt lat="44.1500681" lon="7.6499483"></trkpt>
      <trkpt lat="44.1502359" lon="7.6497518"></trkpt>
      <trkpt lat="44.1504103" lon="7.6500421"></trkpt>
      <trkpt lat="44.1506087" lon="7.6493355"></trkpt>
      <trkpt lat="44.1508994" lon="7.6494763"></trkpt>
      <trkpt lat="44.1514026" lon="7.649458"></trkpt>
      <trkpt lat="44.1515504" lon="7.6496215"></trkpt>
      <trkpt lat="44.1520288" lon="7.6498233"></trkpt>
      <trkpt lat="44.1519154" lon="7.6500565"></trkpt>
      <trkpt lat="44.1516636" lon="7.6501403"></trkpt>
      <trkpt lat="44.1517216" lon="7.6502367"></trkpt>
      <trkpt lat="44.1526368" lon="7.6504957"></trkpt>
      <trkpt lat="44.1530045" lon="7.651092"></trkpt>
      <trkpt lat="44.152751" lon="7.6510898"></trkpt>
      <trkpt lat="44.1529627" lon="7.6514623"></trkpt>
      <trkpt lat="44.1528194" lon="7.6515334"></trkpt>
      <trkpt lat="44.1526894" lon="7.6514878"></trkpt>
      <trkpt lat="44.1528766" lon="7.651807"></trkpt>
      <trkpt lat="44.1527613" lon="7.6519027"></trkpt>
      <trkpt lat="44.1528292" lon="7.6520231"></trkpt>
      <trkpt lat="44.1527809" lon="7.6521782"></trkpt>
      <trkpt lat="44.1525459" lon="7.6521472"></trkpt>
      <trkpt lat="44.1527845" lon="7.6525748"></trkpt>
      <trkpt lat="44.1526034" lon="7.6526605"></trkpt>
      <trkpt lat="44.1526259" lon="7.6527173"></trkpt>
      <trkpt lat="44.1532387" lon="7.6536768"></trkpt>
      <trkpt lat="44.1537722" lon="7.6540876"></trkpt>
      <trkpt lat="44.1541442" lon="7.6547427"></trkpt>
      <trkpt lat="44.1544994" lon="7.6550642"></trkpt>
      <trkpt lat="44.1553432" lon="7.6549317"></trkpt>
      <trkpt lat="44.1566391" lon="7.654406"></trkpt>
      <trkpt lat="44.1568265" lon="7.654413"></trkpt>
      <trkpt lat="44.1572692" lon="7.6541301"></trkpt>
      <trkpt lat="44.1577311" lon="7.6543659"></trkpt>
      <trkpt lat="44.158092" lon="7.6542738"></trkpt>
      <trkpt lat="44.1587507" lon="7.6538696"></trkpt>
      <trkpt lat="44.1593358" lon="7.6536576"></trkpt>
      <trkpt lat="44.1594765" lon="7.6532925"></trkpt>
      <trkpt lat="44.1601713" lon="7.6526684"></trkpt>
      <trkpt lat="44.1604181" lon="7.6527383"></trkpt>
      <trkpt lat="44.1604556" lon="7.6524944"></trkpt>
      <trkpt lat="44.160699" lon="7.6530907"></trkpt>
      <trkpt lat="44.1608134" lon="7.6542455"></trkpt>
      <trkpt lat="44.1611901" lon="7.6536117"></trkpt>
      <trkpt lat="44.1612013" lon="7.6543667"></trkpt>
      <trkpt lat="44.1614557" lon="7.6539954"></trkpt>
      <trkpt lat="44.1614972" lon="7.6545995"></trkpt>
      <trkpt lat="44.1616082" lon="7.6542125"></trkpt>
      <trkpt lat="44.1614104" lon="7.6545706"></trkpt>
      <trkpt lat="44.1615204" lon="7.6548507"></trkpt>
      <trkpt lat="44.1616652" lon="7.6547989"></trkpt>
      <trkpt lat="44.161671" lon="7.6551732"></trkpt>
      <trkpt lat="44.1614643" lon="7.6553803"></trkpt>
      <trkpt lat="44.1614517" lon="7.6556236"></trkpt>
      <trkpt lat="44.1610919" lon="7.6558964"></trkpt>
      <trkpt lat="44.160557" lon="7.6568023"></trkpt>
      <trkpt lat="44.1601439" lon="7.6571016"></trkpt>
      <trkpt lat="44.159998" lon="7.6570408"></trkpt>
      <trkpt lat="44.1598659" lon="7.6572099"></trkpt>
      <trkpt lat="44.1598168" lon="7.6574109"></trkpt>
      <trkpt lat="44.1600227" lon="7.6576177"></trkpt>
      <trkpt lat="44.1598245" lon="7.6577252"></trkpt>
      <trkpt lat="44.1589081" lon="7.6597033"></trkpt>
      <trkpt lat="44.1585386" lon="7.6610498"></trkpt>
      <trkpt lat="44.1583469" lon="7.6614515"></trkpt>
      <trkpt lat="44.1583833" lon="7.6617127"></trkpt>
      <trkpt lat="44.1577459" lon="7.6642456"></trkpt>
      <trkpt lat="44.1573645" lon="7.6662951"></trkpt>
      <trkpt lat="44.1576811" lon="7.6672226"></trkpt>
      <trkpt lat="44.1578072" lon="7.6681446"></trkpt>
      <trkpt lat="44.1578702" lon="7.6682302"></trkpt>
      <trkpt lat="44.1581839" lon="7.6682091"></trkpt>
      <trkpt lat="44.157929" lon="7.6686355"></trkpt>
      <trkpt lat="44.1579478" lon="7.6691345"></trkpt>
      <trkpt lat="44.1580695" lon="7.6689725"></trkpt>
      <trkpt lat="44.1583763" lon="7.6690813"></trkpt>
      <trkpt lat="44.1584484" lon="7.6688834"></trkpt>
      <trkpt lat="44.1586511" lon="7.6688895"></trkpt>
      <trkpt lat="44.1585625" lon="7.6696903"></trkpt>
      <trkpt lat="44.1584962" lon="7.6697774"></trkpt>
      <trkpt lat="44.1583216" lon="7.6697418"></trkpt>
      <trkpt lat="44.1585397" lon="7.6697465"></trkpt>
      <trkpt lat="44.1584889" lon="7.6699102"></trkpt>
      <trkpt lat="44.1586419" lon="7.6700445"></trkpt>
      <trkpt lat="44.158684" lon="7.6702237"></trkpt>
      <trkpt lat="44.1585743" lon="7.6703131"></trkpt>
      <trkpt lat="44.1585994" lon="7.670541"></trkpt>
      <trkpt lat="44.1586911" lon="7.6705638"></trkpt>
      <trkpt lat="44.1587116" lon="7.670671"></trkpt>
      <trkpt lat="44.1588837" lon="7.6707096"></trkpt>
      <trkpt lat="44.1586372" lon="7.6711524"></trkpt>
      <trkpt lat="44.1582029" lon="7.6713733"></trkpt>
      <trkpt lat="44.1578022" lon="7.6717937"></trkpt>
      <trkpt lat="44.1576566" lon="7.6720843"></trkpt>
      <trkpt lat="44.1577282" lon="7.6722732"></trkpt>
      <trkpt lat="44.1582139" lon="7.6726446"></trkpt>
      <trkpt lat="44.1582035" lon="7.673706"></trkpt>
      <trkpt lat="44.1588729" lon="7.6736778"></trkpt>
      <trkpt lat="44.15904" lon="7.6739296"></trkpt>
      <trkpt lat="44.159143" lon="7.6738047"></trkpt>
      <trkpt lat="44.1596114" lon="7.6745136"></trkpt>
      <trkpt lat="44.1595769" lon="7.6747659"></trkpt>
      <trkpt lat="44.1597698" lon="7.6746569"></trkpt>
      <trkpt lat="44.1597614" lon="7.6749649"></trkpt>
      <trkpt lat="44.1598979" lon="7.6751052"></trkpt>
      <trkpt lat="44.160186" lon="7.6763111"></trkpt>
      <trkpt lat="44.1602761" lon="7.6770692"></trkpt>
      <trkpt lat="44.1604515" lon="7.6768592"></trkpt>
      <trkpt lat="44.1604289" lon="7.6769849"></trkpt>
      <trkpt lat="44.1659368" lon="7.6812489"></trkpt>
      <trkpt lat="44.1656793" lon="7.6812358"></trkpt>
      <trkpt lat="44.165666" lon="7.6813594"></trkpt>
      <trkpt lat="44.1660463" lon="7.681797"></trkpt>
      <trkpt lat="44.1665939" lon="7.6822175"></trkpt>
      <trkpt lat="44.1668296" lon="7.6827051"></trkpt>
      <trkpt lat="44.1669095" lon="7.6833002"></trkpt>
      <trkpt lat="44.1671498" lon="7.6831103"></trkpt>
      <trkpt lat="44.1672387" lon="7.6833767"></trkpt>
      <trkpt lat="44.1673147" lon="7.6832106"></trkpt>
      <trkpt lat="44.1673845" lon="7.6833779"></trkpt>
      <trkpt lat="44.1674883" lon="7.6833803"></trkpt>
      <trkpt lat="44.1675257" lon="7.683191"></trkpt>
      <trkpt lat="44.1677112" lon="7.6831885"></trkpt>
      <trkpt lat="44.1682514" lon="7.6837383"></trkpt>
      <trkpt lat="44.1689103" lon="7.6840118"></trkpt>
      <trkpt lat="44.1691942" lon="7.6846121"></trkpt>
      <trkpt lat="44.1693569" lon="7.6853369"></trkpt>
      <trkpt lat="44.1696077" lon="7.6857253"></trkpt>
      <trkpt lat="44.1699015" lon="7.6854714"></trkpt>
      <trkpt lat="44.170025" lon="7.6857812"></trkpt>
      <trkpt lat="44.1701805" lon="7.6854532"></trkpt>
      <trkpt lat="44.1703485" lon="7.6859395"></trkpt>
      <trkpt lat="44.170653" lon="7.6860728"></trkpt>
      <trkpt lat="44.1709852" lon="7.6858904"></trkpt>
      <trkpt lat="44.1708717" lon="7.6857395"></trkpt>
      <trkpt lat="44.1714369" lon="7.6855971"></trkpt>
      <trkpt lat="44.1712257" lon="7.6852999"></trkpt>
      <trkpt lat="44.1712681" lon="7.6851169"></trkpt>
      <trkpt lat="44.1711701" lon="7.6847378"></trkpt>
      <trkpt lat="44.1711792" lon="7.6846844"></trkpt>
      <trkpt lat="44.1714485" lon="7.684769"></trkpt>
      <trkpt lat="44.1711996" lon="7.6842753"></trkpt>
      <trkpt lat="44.171344" lon="7.6843078"></trkpt>
      <trkpt lat="44.1713306" lon="7.6842465"></trkpt>
      <trkpt lat="44.1710375" lon="7.6836287"></trkpt>
      <trkpt lat="44.1708006" lon="7.6833504"></trkpt>
      <trkpt lat="44.1708375" lon="7.6832968"></trkpt>
      <trkpt lat="44.1712857" lon="7.6834656"></trkpt>
      <trkpt lat="44.1718211" lon="7.6838749"></trkpt>
      <trkpt lat="44.1720861" lon="7.683866"></trkpt>
      <trkpt lat="44.1724383" lon="7.6836925"></trkpt>
      <trkpt lat="44.1725206" lon="7.6838769"></trkpt>
      <trkpt lat="44.1732771" lon="7.6838356"></trkpt>
      <trkpt lat="44.1732789" lon="7.6840763"></trkpt>
      <trkpt lat="44.1737491" lon="7.6839805"></trkpt>
      <trkpt lat="44.173701" lon="7.6842924"></trkpt>
      <trkpt lat="44.1739678" lon="7.6844495"></trkpt>
      <trkpt lat="44.1738938" lon="7.6844784"></trkpt>
      <trkpt lat="44.1738969" lon="7.6846934"></trkpt>
      <trkpt lat="44.1740822" lon="7.6848418"></trkpt>
      <trkpt lat="44.1739002" lon="7.6850668"></trkpt>
      <trkpt lat="44.1740292" lon="7.686296"></trkpt>
      <trkpt lat="44.1738923" lon="7.6867766"></trkpt>
      <trkpt lat="44.1737143" lon="7.6869445"></trkpt>
      <trkpt lat="44.1739689" lon="7.6875685"></trkpt>
      <trkpt lat="44.173763" lon="7.6886019"></trkpt>
      <trkpt lat="44.1739652" lon="7.6890449"></trkpt>
      <trkpt lat="44.1738549" lon="7.6894759"></trkpt>
      <trkpt lat="44.1739617" lon="7.6894879"></trkpt>
      <trkpt lat="44.173976" lon="7.6895703"></trkpt>
      <trkpt lat="44.1738379" lon="7.6897083"></trkpt>
      <trkpt lat="44.1737742" lon="7.6905124"></trkpt>
      <trkpt lat="44.1743964" lon="7.6908223"></trkpt>
      <trkpt lat="44.1741326" lon="7.6911915"></trkpt>
      <trkpt lat="44.174123" lon="7.6913479"></trkpt>
      <trkpt lat="44.1742709" lon="7.6914293"></trkpt>
      <trkpt lat="44.1743508" lon="7.6912206"></trkpt>
      <trkpt lat="44.1746048" lon="7.6916572"></trkpt>
      <trkpt lat="44.1748259" lon="7.6918325"></trkpt>
      <trkpt lat="44.1749196" lon="7.691796"></trkpt>
      <trkpt lat="44.1749869" lon="7.6919489"></trkpt>
      <trkpt lat="44.1756545" lon="7.6924535"></trkpt>
      <trkpt lat="44.175585" lon="7.6926578"></trkpt>
      <trkpt lat="44.1755235" lon="7.692585"></trkpt>
      <trkpt lat="44.1755952" lon="7.6925579"></trkpt>
      <trkpt lat="44.1757105" lon="7.6926816"></trkpt>
      <trkpt lat="44.1757931" lon="7.6925224"></trkpt>
      <trkpt lat="44.1758001" lon="7.6927739"></trkpt>
      <trkpt lat="44.17629" lon="7.6933107"></trkpt>
      <trkpt lat="44.1772668" lon="7.6939266"></trkpt>
      <trkpt lat="44.1773518" lon="7.694124"></trkpt>
      <trkpt lat="44.1770538" lon="7.6940806"></trkpt>
      <trkpt lat="44.1772037" lon="7.6940754"></trkpt>
      <trkpt lat="44.1773894" lon="7.6932893"></trkpt>
      <trkpt lat="44.1774941" lon="7.6932241"></trkpt>
      <trkpt lat="44.1782479" lon="7.6929528"></trkpt>
      <trkpt lat="44.1787578" lon="7.6925999"></trkpt>
      <trkpt lat="44.1789652" lon="7.6927375"></trkpt>
      <trkpt lat="44.1795024" lon="7.692735"></trkpt>
      <trkpt lat="44.1797539" lon="7.6921172"></trkpt>
      <trkpt lat="44.1798806" lon="7.6923385"></trkpt>
      <trkpt lat="44.1804133" lon="7.6920898"></trkpt>
      <trkpt lat="44.1807997" lon="7.6914546"></trkpt>
      <trkpt lat="44.1807943" lon="7.691246"></trkpt>
      <trkpt lat="44.1809509" lon="7.6908713"></trkpt>
      <trkpt lat="44.1811013" lon="7.6909183"></trkpt>
      <trkpt lat="44.1815403" lon="7.6907765"></trkpt>
      <trkpt lat="44.1815661" lon="7.6904737"></trkpt>
      <trkpt lat="44.181695" lon="7.6904517"></trkpt>
      <trkpt lat="44.181762" lon="7.6905289"></trkpt>
      <trkpt lat="44.1818123" lon="7.6904326"></trkpt>
      <trkpt lat="44.1818865" lon="7.6908539"></trkpt>
      <trkpt lat="44.1822989" lon="7.6916608"></trkpt>
      <trkpt lat="44.1823665" lon="7.6921439"></trkpt>
      <trkpt lat="44.1823341" lon="7.6930483"></trkpt>
      <trkpt lat="44.1822586" lon="7.6931213"></trkpt>
      <trkpt lat="44.1823573" lon="7.6934196"></trkpt>
      <trkpt lat="44.1821507" lon="7.6936343"></trkpt>
      <trkpt lat="44.1823116" lon="7.6939793"></trkpt>
      <trkpt lat="44.1820245" lon="7.6941327"></trkpt>
      <trkpt lat="44.1820978" lon="7.6944128"></trkpt>
      <trkpt lat="44.1817081" lon="7.6945206"></trkpt>
      <trkpt lat="44.1816531" lon="7.694828"></trkpt>
      <trkpt lat="44.1817721" lon="7.6950733"></trkpt>
      <trkpt lat="44.1815358" lon="7.6952633"></trkpt>
      <trkpt lat="44.1816407" lon="7.695461"></trkpt>
      <trkpt lat="44.1812486" lon="7.695571"></trkpt>
      <trkpt lat="44.18131" lon="7.6958691"></trkpt>
      <trkpt lat="44.1811708" lon="7.696252"></trkpt>
      <trkpt lat="44.1809983" lon="7.6961912"></trkpt>
      <trkpt lat="44.1810319" lon="7.6963855"></trkpt>
      <trkpt lat="44.1809595" lon="7.6965214"></trkpt>
      <trkpt lat="44.1808348" lon="7.6964459"></trkpt>
      <trkpt lat="44.1808837" lon="7.6966469"></trkpt>
      <trkpt lat="44.1807335" lon="7.6965977"></trkpt>
      <trkpt lat="44.1807382" lon="7.6968083"></trkpt>
      <trkpt lat="44.1806055" lon="7.6967749"></trkpt>
      <trkpt lat="44.1806245" lon="7.6969573"></trkpt>
      <trkpt lat="44.1804911" lon="7.6969812"></trkpt>
      <trkpt lat="44.180518" lon="7.6971832"></trkpt>
      <trkpt lat="44.1802884" lon="7.6971466"></trkpt>
      <trkpt lat="44.180383" lon="7.6974412"></trkpt>
      <trkpt lat="44.180071" lon="7.6975372"></trkpt>
      <trkpt lat="44.1801372" lon="7.6978214"></trkpt>
      <trkpt lat="44.18001" lon="7.6977314"></trkpt>
      <trkpt lat="44.1799898" lon="7.6979813"></trkpt>
      <trkpt lat="44.1798847" lon="7.6979149"></trkpt>
      <trkpt lat="44.1796002" lon="7.6983816"></trkpt>
      <trkpt lat="44.1793541" lon="7.6986182"></trkpt>
      <trkpt lat="44.1789205" lon="7.6988665"></trkpt>
      <trkpt lat="44.1786769" lon="7.6988457"></trkpt>
      <trkpt lat="44.1787347" lon="7.6990908"></trkpt>
      <trkpt lat="44.1785734" lon="7.6990123"></trkpt>
      <trkpt lat="44.1785253" lon="7.6992173"></trkpt>
      <trkpt lat="44.1783882" lon="7.6991696"></trkpt>
      <trkpt lat="44.1785445" lon="7.6995356"></trkpt>
      <trkpt lat="44.1782499" lon="7.6995755"></trkpt>
      <trkpt lat="44.1783334" lon="7.6998151"></trkpt>
      <trkpt lat="44.1781428" lon="7.6997522"></trkpt>
      <trkpt lat="44.1781214" lon="7.6998683"></trkpt>
      <trkpt lat="44.1777266" lon="7.7002072"></trkpt>
      <trkpt lat="44.1769471" lon="7.7006904"></trkpt>
      <trkpt lat="44.1766334" lon="7.7007027"></trkpt>
      <trkpt lat="44.1763772" lon="7.7008456"></trkpt>
      <trkpt lat="44.1759213" lon="7.7009312"></trkpt>
      <trkpt lat="44.1759855" lon="7.7011578"></trkpt>
      <trkpt lat="44.1762125" lon="7.7012521"></trkpt>
      <trkpt lat="44.176208" lon="7.701453"></trkpt>
      <trkpt lat="44.1764169" lon="7.7016196"></trkpt>
      <trkpt lat="44.1763804" lon="7.7018258"></trkpt>
      <trkpt lat="44.1764719" lon="7.7018799"></trkpt>
      <trkpt lat="44.1765914" lon="7.7017896"></trkpt>
      <trkpt lat="44.176815" lon="7.7018203"></trkpt>
      <trkpt lat="44.1768823" lon="7.7017344"></trkpt>
      <trkpt lat="44.1772864" lon="7.702273"></trkpt>
      <trkpt lat="44.1774528" lon="7.7021945"></trkpt>
      <trkpt lat="44.1774423" lon="7.702585"></trkpt>
      <trkpt lat="44.1775552" lon="7.7024576"></trkpt>
      <trkpt lat="44.1775615" lon="7.7025211"></trkpt>
      <trkpt lat="44.1773756" lon="7.7036634"></trkpt>
      <trkpt lat="44.1766749" lon="7.7042392"></trkpt>
      <trkpt lat="44.1761638" lon="7.7055396"></trkpt>
      <trkpt lat="44.1751364" lon="7.7063935"></trkpt>
      <trkpt lat="44.1741684" lon="7.706915"></trkpt>
      <trkpt lat="44.1737867" lon="7.7070249"></trkpt>
      <trkpt lat="44.1737002" lon="7.7073708"></trkpt>
      <trkpt lat="44.173577" lon="7.7073589"></trkpt>
      <trkpt lat="44.1735178" lon="7.7074496"></trkpt>
      <trkpt lat="44.1734391" lon="7.7079306"></trkpt>
      <trkpt lat="44.1732737" lon="7.708305"></trkpt>
      <trkpt lat="44.1731386" lon="7.7081409"></trkpt>
      <trkpt lat="44.1730165" lon="7.7081662"></trkpt>
      <trkpt lat="44.1728994" lon="7.7086104"></trkpt>
      <trkpt lat="44.1726799" lon="7.7071625"></trkpt>
      <trkpt lat="44.1724558" lon="7.7066639"></trkpt>
      <trkpt lat="44.1724448" lon="7.7063349"></trkpt>
      <trkpt lat="44.1724069" lon="7.7064715"></trkpt>
      <trkpt lat="44.1721561" lon="7.7066626"></trkpt>
      <trkpt lat="44.1714832" lon="7.7065633"></trkpt>
      <trkpt lat="44.171264" lon="7.7066955"></trkpt>
      <trkpt lat="44.1712051" lon="7.7068979"></trkpt>
      <trkpt lat="44.1710424" lon="7.7069266"></trkpt>
      <trkpt lat="44.1706873" lon="7.7072435"></trkpt>
      <trkpt lat="44.1702988" lon="7.7073753"></trkpt>
      <trkpt lat="44.1699386" lon="7.7073043"></trkpt>
      <trkpt lat="44.1697459" lon="7.7074691"></trkpt>
      <trkpt lat="44.1692483" lon="7.7074496"></trkpt>
      <trkpt lat="44.1686373" lon="7.7077159"></trkpt>
      <trkpt lat="44.1685108" lon="7.7076608"></trkpt>
      <trkpt lat="44.1682128" lon="7.7081035"></trkpt>
      <trkpt lat="44.1683018" lon="7.7081434"></trkpt>
      <trkpt lat="44.1683023" lon="7.7085451"></trkpt>
      <trkpt lat="44.1684417" lon="7.7089163"></trkpt>
      <trkpt lat="44.1682831" lon="7.7092434"></trkpt>
      <trkpt lat="44.1681998" lon="7.7091906"></trkpt>
      <trkpt lat="44.1678072" lon="7.7106509"></trkpt>
      <trkpt lat="44.1679976" lon="7.7106803"></trkpt>
      <trkpt lat="44.1683259" lon="7.7104575"></trkpt>
      <trkpt lat="44.1683092" lon="7.7109868"></trkpt>
      <trkpt lat="44.1686168" lon="7.7108472"></trkpt>
      <trkpt lat="44.168661" lon="7.7110062"></trkpt>
      <trkpt lat="44.1690373" lon="7.7112328"></trkpt>
      <trkpt lat="44.1691401" lon="7.7114499"></trkpt>
      <trkpt lat="44.1693479" lon="7.7126956"></trkpt>
      <trkpt lat="44.1698027" lon="7.7136953"></trkpt>
      <trkpt lat="44.1698735" lon="7.7144933"></trkpt>
      <trkpt lat="44.169969" lon="7.7145024"></trkpt>
      <trkpt lat="44.1700147" lon="7.7143667"></trkpt>
      <trkpt lat="44.1702031" lon="7.714285"></trkpt>
      <trkpt lat="44.1704196" lon="7.7143251"></trkpt>
      <trkpt lat="44.1701986" lon="7.714893"></trkpt>
      <trkpt lat="44.1707228" lon="7.7150212"></trkpt>
      <trkpt lat="44.1705342" lon="7.7153791"></trkpt>
      <trkpt lat="44.1710783" lon="7.7154576"></trkpt>
      <trkpt lat="44.1714312" lon="7.7153563"></trkpt>
      <trkpt lat="44.1710268" lon="7.7159434"></trkpt>
      <trkpt lat="44.1708248" lon="7.7160992"></trkpt>
      <trkpt lat="44.17069" lon="7.7164424"></trkpt>
      <trkpt lat="44.1711553" lon="7.71657"></trkpt>
      <trkpt lat="44.1716712" lon="7.7163233"></trkpt>
      <trkpt lat="44.1715786" lon="7.7167527"></trkpt>
      <trkpt lat="44.1718771" lon="7.7166363"></trkpt>
      <trkpt lat="44.1717943" lon="7.7172064"></trkpt>
      <trkpt lat="44.1720332" lon="7.7171827"></trkpt>
      <trkpt lat="44.1721454" lon="7.7169767"></trkpt>
      <trkpt lat="44.1721099" lon="7.7174859"></trkpt>
      <trkpt lat="44.1723038" lon="7.7173973"></trkpt>
      <trkpt lat="44.1723123" lon="7.7174566"></trkpt>
      <trkpt lat="44.1722227" lon="7.7176858"></trkpt>
      <trkpt lat="44.1718527" lon="7.7177667"></trkpt>
      <trkpt lat="44.1716609" lon="7.7179391"></trkpt>
      <trkpt lat="44.172019" lon="7.7180569"></trkpt>
      <trkpt lat="44.1717779" lon="7.7182216"></trkpt>
      <trkpt lat="44.1724064" lon="7.7184088"></trkpt>
      <trkpt lat="44.1727593" lon="7.7186548"></trkpt>
      <trkpt lat="44.1729839" lon="7.7193607"></trkpt>
      <trkpt lat="44.1728059" lon="7.7195581"></trkpt>
      <trkpt lat="44.1733078" lon="7.7195691"></trkpt>
      <trkpt lat="44.1735146" lon="7.7196802"></trkpt>
      <trkpt lat="44.1736634" lon="7.7199964"></trkpt>
      <trkpt lat="44.1736323" lon="7.7202761"></trkpt>
      <trkpt lat="44.1727077" lon="7.7216612"></trkpt>
      <trkpt lat="44.172528" lon="7.7221327"></trkpt>
      <trkpt lat="44.1720054" lon="7.7223328"></trkpt>
      <trkpt lat="44.1716473" lon="7.7221458"></trkpt>
      <trkpt lat="44.1714888" lon="7.7221504"></trkpt>
      <trkpt lat="44.1706061" lon="7.7216423"></trkpt>
      <trkpt lat="44.1698056" lon="7.7215315"></trkpt>
      <trkpt lat="44.1683009" lon="7.7221608"></trkpt>
      <trkpt lat="44.1676904" lon="7.7221385"></trkpt>
      <trkpt lat="44.1674341" lon="7.7219234"></trkpt>
      <trkpt lat="44.1670019" lon="7.7220231"></trkpt>
      <trkpt lat="44.1668635" lon="7.721883"></trkpt>
      <trkpt lat="44.1667018" lon="7.7219629"></trkpt>
      <trkpt lat="44.1662823" lon="7.7218685"></trkpt>
      <trkpt lat="44.1659945" lon="7.7220003"></trkpt>
      <trkpt lat="44.1657266" lon="7.7220019"></trkpt>
      <trkpt lat="44.1656886" lon="7.7221305"></trkpt>
      <trkpt lat="44.1655645" lon="7.7221024"></trkpt>
      <trkpt lat="44.1652958" lon="7.722219"></trkpt>
      <trkpt lat="44.1648983" lon="7.7227777"></trkpt>
      <trkpt lat="44.1646843" lon="7.7229111"></trkpt>
      <trkpt lat="44.1646457" lon="7.7231705"></trkpt>
      <trkpt lat="44.1642437" lon="7.7229581"></trkpt>
      <trkpt lat="44.1642625" lon="7.7230421"></trkpt>
      <trkpt lat="44.1641033" lon="7.7231907"></trkpt>
      <trkpt lat="44.1635326" lon="7.7229327"></trkpt>
      <trkpt lat="44.1632498" lon="7.7226462"></trkpt>
      <trkpt lat="44.1630636" lon="7.7228849"></trkpt>
      <trkpt lat="44.1628306" lon="7.7225732"></trkpt>
      <trkpt lat="44.1625776" lon="7.7226295"></trkpt>
      <trkpt lat="44.1624602" lon="7.7227743"></trkpt>
      <trkpt lat="44.1626173" lon="7.7231032"></trkpt>
      <trkpt lat="44.1623956" lon="7.7234414"></trkpt>
      <trkpt lat="44.1623125" lon="7.7238169"></trkpt>
      <trkpt lat="44.1626511" lon="7.7243267"></trkpt>
      <trkpt lat="44.1622101" lon="7.7254802"></trkpt>
      <trkpt lat="44.1622577" lon="7.7259096"></trkpt>
      <trkpt lat="44.162183" lon="7.7263127"></trkpt>
      <trkpt lat="44.1618376" lon="7.7268261"></trkpt>
      <trkpt lat="44.1619194" lon="7.7276575"></trkpt>
      <trkpt lat="44.1622777" lon="7.7272131"></trkpt>
      <trkpt lat="44.1623134" lon="7.7274373"></trkpt>
      <trkpt lat="44.1622473" lon="7.7279395"></trkpt>
      <trkpt lat="44.162039" lon="7.7282944"></trkpt>
      <trkpt lat="44.1619035" lon="7.72891"></trkpt>
      <trkpt lat="44.1619274" lon="7.7297458"></trkpt>
      <trkpt lat="44.1621055" lon="7.730779"></trkpt>
      <trkpt lat="44.1622153" lon="7.7308903"></trkpt>
      <trkpt lat="44.1624283" lon="7.7304734"></trkpt>
      <trkpt lat="44.1627373" lon="7.7301638"></trkpt>
      <trkpt lat="44.1629644" lon="7.7293825"></trkpt>
      <trkpt lat="44.1630825" lon="7.7297273"></trkpt>
      <trkpt lat="44.1633449" lon="7.7289909"></trkpt>
      <trkpt lat="44.1634305" lon="7.7292997"></trkpt>
      <trkpt lat="44.1635181" lon="7.7289498"></trkpt>
      <trkpt lat="44.163674" lon="7.7288263"></trkpt>
      <trkpt lat="44.1637242" lon="7.7296022"></trkpt>
      <trkpt lat="44.164004" lon="7.7301162"></trkpt>
      <trkpt lat="44.1642211" lon="7.7301859"></trkpt>
      <trkpt lat="44.1643935" lon="7.7294429"></trkpt>
      <trkpt lat="44.1646459" lon="7.7299862"></trkpt>
      <trkpt lat="44.1652555" lon="7.7303753"></trkpt>
      <trkpt lat="44.1649193" lon="7.7296009"></trkpt>
      <trkpt lat="44.1654368" lon="7.7299713"></trkpt>
      <trkpt lat="44.1653513" lon="7.7296823"></trkpt>
      <trkpt lat="44.1655201" lon="7.7297682"></trkpt>
      <trkpt lat="44.1653976" lon="7.7294734"></trkpt>
      <trkpt lat="44.1656906" lon="7.7296414"></trkpt>
      <trkpt lat="44.1654893" lon="7.7292902"></trkpt>
      <trkpt lat="44.1656301" lon="7.7291937"></trkpt>
      <trkpt lat="44.1656704" lon="7.7290469"></trkpt>
      <trkpt lat="44.1660241" lon="7.7290049"></trkpt>
      <trkpt lat="44.1659021" lon="7.7287802"></trkpt>
      <trkpt lat="44.1661231" lon="7.72892"></trkpt>
      <trkpt lat="44.1662129" lon="7.728854"></trkpt>
      <trkpt lat="44.1663354" lon="7.7289098"></trkpt>
      <trkpt lat="44.1665104" lon="7.7287506"></trkpt>
      <trkpt lat="44.166464" lon="7.7285782"></trkpt>
      <trkpt lat="44.1669925" lon="7.7283515"></trkpt>
      <trkpt lat="44.1675455" lon="7.7273777"></trkpt>
      <trkpt lat="44.1676483" lon="7.7276484"></trkpt>
      <trkpt lat="44.1678499" lon="7.7278141"></trkpt>
      <trkpt lat="44.1689396" lon="7.7281331"></trkpt>
      <trkpt lat="44.1695709" lon="7.72899"></trkpt>
      <trkpt lat="44.1696008" lon="7.7292415"></trkpt>
      <trkpt lat="44.169898" lon="7.729825"></trkpt>
      <trkpt lat="44.1705351" lon="7.7302905"></trkpt>
      <trkpt lat="44.1709124" lon="7.7303608"></trkpt>
      <trkpt lat="44.1710253" lon="7.7304965"></trkpt>
      <trkpt lat="44.171257" lon="7.7304027"></trkpt>
      <trkpt lat="44.171351" lon="7.730597"></trkpt>
      <trkpt lat="44.1713181" lon="7.7307154"></trkpt>
      <trkpt lat="44.1715237" lon="7.7304711"></trkpt>
      <trkpt lat="44.1716333" lon="7.73062"></trkpt>
      <trkpt lat="44.171721" lon="7.7305162"></trkpt>
      <trkpt lat="44.1718247" lon="7.7307285"></trkpt>
      <trkpt lat="44.1725569" lon="7.7309504"></trkpt>
      <trkpt lat="44.1723976" lon="7.7311905"></trkpt>
      <trkpt lat="44.1734755" lon="7.7314106"></trkpt>
      <trkpt lat="44.1730525" lon="7.7320088"></trkpt>
      <trkpt lat="44.1735149" lon="7.73211"></trkpt>
      <trkpt lat="44.1730697" lon="7.7326368"></trkpt>
      <trkpt lat="44.1735643" lon="7.7326373"></trkpt>
      <trkpt lat="44.1734996" lon="7.7328764"></trkpt>
      <trkpt lat="44.173663" lon="7.7328627"></trkpt>
      <trkpt lat="44.1739546" lon="7.7330564"></trkpt>
      <trkpt lat="44.1743784" lon="7.733036"></trkpt>
      <trkpt lat="44.1747353" lon="7.7331802"></trkpt>
      <trkpt lat="44.1747453" lon="7.7333378"></trkpt>
      <trkpt lat="44.1760196" lon="7.733891"></trkpt>
      <trkpt lat="44.1757235" lon="7.7340235"></trkpt>
      <trkpt lat="44.1761697" lon="7.7343117"></trkpt>
      <trkpt lat="44.1760881" lon="7.7344478"></trkpt>
      <trkpt lat="44.1759304" lon="7.7343568"></trkpt>
      <trkpt lat="44.1758697" lon="7.7344116"></trkpt>
      <trkpt lat="44.1757477" lon="7.7350625"></trkpt>
      <trkpt lat="44.1756429" lon="7.7351858"></trkpt>
      <trkpt lat="44.1758686" lon="7.7356313"></trkpt>
      <trkpt lat="44.1757316" lon="7.7355557"></trkpt>
      <trkpt lat="44.1755758" lon="7.7357677"></trkpt>
      <trkpt lat="44.1753759" lon="7.7356684"></trkpt>
      <trkpt lat="44.1753966" lon="7.7364573"></trkpt>
      <trkpt lat="44.1756413" lon="7.7368194"></trkpt>
      <trkpt lat="44.1760967" lon="7.7372097"></trkpt>
      <trkpt lat="44.176103" lon="7.7372914"></trkpt>
      <trkpt lat="44.1758111" lon="7.7373519"></trkpt>
      <trkpt lat="44.176109" lon="7.7385703"></trkpt>
      <trkpt lat="44.1762747" lon="7.7385545"></trkpt>
      <trkpt lat="44.1760576" lon="7.7386446"></trkpt>
      <trkpt lat="44.1758016" lon="7.7386268"></trkpt>
      <trkpt lat="44.1753033" lon="7.7382987"></trkpt>
      <trkpt lat="44.1752143" lon="7.7384715"></trkpt>
      <trkpt lat="44.1751053" lon="7.7393739"></trkpt>
      <trkpt lat="44.1751366" lon="7.7399204"></trkpt>
      <trkpt lat="44.1747716" lon="7.7405848"></trkpt>
      <trkpt lat="44.1745674" lon="7.7402863"></trkpt>
      <trkpt lat="44.1743291" lon="7.7403408"></trkpt>
      <trkpt lat="44.1735357" lon="7.740868"></trkpt>
      <trkpt lat="44.1734059" lon="7.7410867"></trkpt>
      <trkpt lat="44.1734929" lon="7.7413676"></trkpt>
      <trkpt lat="44.1732451" lon="7.7428928"></trkpt>
      <trkpt lat="44.1732827" lon="7.7431381"></trkpt>
      <trkpt lat="44.1734122" lon="7.7432973"></trkpt>
      <trkpt lat="44.1737358" lon="7.743108"></trkpt>
      <trkpt lat="44.1747634" lon="7.7428875"></trkpt>
      <trkpt lat="44.1759114" lon="7.7436134"></trkpt>
      <trkpt lat="44.1769328" lon="7.7438238"></trkpt>
      <trkpt lat="44.1771743" lon="7.7439456"></trkpt>
      <trkpt lat="44.1778747" lon="7.7446313"></trkpt>
      <trkpt lat="44.1781061" lon="7.7445383"></trkpt>
      <trkpt lat="44.1787568" lon="7.7446649"></trkpt>
      <trkpt lat="44.1790886" lon="7.7448404"></trkpt>
      <trkpt lat="44.1793742" lon="7.7446903"></trkpt>
      <trkpt lat="44.179524" lon="7.7444973"></trkpt>
      <trkpt lat="44.1800319" lon="7.7446985"></trkpt>
      <trkpt lat="44.1802719" lon="7.7446103"></trkpt>
      <trkpt lat="44.1808487" lon="7.744939"></trkpt>
      <trkpt lat="44.1819062" lon="7.7451146"></trkpt>
      <trkpt lat="44.1829214" lon="7.7448204"></trkpt>
      <trkpt lat="44.1834355" lon="7.7441842"></trkpt>
      <trkpt lat="44.1836119" lon="7.7436703"></trkpt>
      <trkpt lat="44.1836029" lon="7.7431942"></trkpt>
      <trkpt lat="44.1845876" lon="7.7423373"></trkpt>
      <trkpt lat="44.1849988" lon="7.741709"></trkpt>
      <trkpt lat="44.1860633" lon="7.7396177"></trkpt>
      <trkpt lat="44.186759" lon="7.7385521"></trkpt>
      <trkpt lat="44.1868439" lon="7.7384589"></trkpt>
      <trkpt lat="44.1874935" lon="7.7386889"></trkpt>
      <trkpt lat="44.1876823" lon="7.7386144"></trkpt>
      <trkpt lat="44.1883656" lon="7.7378874"></trkpt>
      <trkpt lat="44.1890825" lon="7.7362096"></trkpt>
      <trkpt lat="44.1891672" lon="7.7360723"></trkpt>
      <trkpt lat="44.1893203" lon="7.7360278"></trkpt>
      <trkpt lat="44.1893606" lon="7.7354301"></trkpt>
      <trkpt lat="44.1895697" lon="7.7348568"></trkpt>
      <trkpt lat="44.1895674" lon="7.7344269"></trkpt>
      <trkpt lat="44.1896778" lon="7.7340365"></trkpt>
      <trkpt lat="44.1898088" lon="7.7339401"></trkpt>
      <trkpt lat="44.1899498" lon="7.7332877"></trkpt>
      <trkpt lat="44.1909856" lon="7.7319312"></trkpt>
      <trkpt lat="44.1913784" lon="7.7315987"></trkpt>
      <trkpt lat="44.1914498" lon="7.7315748"></trkpt>
      <trkpt lat="44.1915729" lon="7.7317058"></trkpt>
      <trkpt lat="44.1914536" lon="7.7320033"></trkpt>
      <trkpt lat="44.1913356" lon="7.7316189"></trkpt>
      <trkpt lat="44.1912063" lon="7.7317664"></trkpt>
      <trkpt lat="44.1912405" lon="7.7319212"></trkpt>
      <trkpt lat="44.1912269" lon="7.7318407"></trkpt>
      <trkpt lat="44.1910275" lon="7.7318685"></trkpt>
      <trkpt lat="44.1909193" lon="7.732105"></trkpt>
      <trkpt lat="44.1899577" lon="7.7332746"></trkpt>
      <trkpt lat="44.189919" lon="7.7335354"></trkpt>
      <trkpt lat="44.1901375" lon="7.7334327"></trkpt>
      <trkpt lat="44.1900755" lon="7.7350367"></trkpt>
      <trkpt lat="44.1901504" lon="7.735204"></trkpt>
      <trkpt lat="44.190474" lon="7.7353886"></trkpt>
      <trkpt lat="44.1904838" lon="7.7355134"></trkpt>
      <trkpt lat="44.1908641" lon="7.7360005"></trkpt>
      <trkpt lat="44.1909538" lon="7.7364852"></trkpt>
      <trkpt lat="44.1907119" lon="7.7374321"></trkpt>
      <trkpt lat="44.190812" lon="7.7376255"></trkpt>
      <trkpt lat="44.1905368" lon="7.7377669"></trkpt>
      <trkpt lat="44.190297" lon="7.738419"></trkpt>
      <trkpt lat="44.1900851" lon="7.7396795"></trkpt>
      <trkpt lat="44.1896484" lon="7.7407686"></trkpt>
      <trkpt lat="44.1894369" lon="7.7409489"></trkpt>
      <trkpt lat="44.1891794" lon="7.741582"></trkpt>
      <trkpt lat="44.1876062" lon="7.7431685"></trkpt>
      <trkpt lat="44.1872627" lon="7.744039"></trkpt>
      <trkpt lat="44.1865841" lon="7.7450808"></trkpt>
      <trkpt lat="44.186209" lon="7.7458557"></trkpt>
      <trkpt lat="44.1857343" lon="7.7472086"></trkpt>
      <trkpt lat="44.1857817" lon="7.7474703"></trkpt>
      <trkpt lat="44.185972" lon="7.747738"></trkpt>
      <trkpt lat="44.1854828" lon="7.7477653"></trkpt>
      <trkpt lat="44.1858684" lon="7.74852"></trkpt>
      <trkpt lat="44.1861227" lon="7.7488274"></trkpt>
      <trkpt lat="44.1862291" lon="7.7492419"></trkpt>
      <trkpt lat="44.1860041" lon="7.74949"></trkpt>
      <trkpt lat="44.185453" lon="7.7496348"></trkpt>
      <trkpt lat="44.1850961" lon="7.7498515"></trkpt>
      <trkpt lat="44.1849067" lon="7.7497936"></trkpt>
      <trkpt lat="44.1844512" lon="7.7500228"></trkpt>
      <trkpt lat="44.1838314" lon="7.7505324"></trkpt>
      <trkpt lat="44.1833873" lon="7.7510588"></trkpt>
      <trkpt lat="44.1831556" lon="7.751182"></trkpt>
      <trkpt lat="44.1830204" lon="7.7514012"></trkpt>
      <trkpt lat="44.1827432" lon="7.7514893"></trkpt>
      <trkpt lat="44.1824737" lon="7.7517386"></trkpt>
      <trkpt lat="44.1820511" lon="7.7526599"></trkpt>
      <trkpt lat="44.1817818" lon="7.7538079"></trkpt>
      <trkpt lat="44.1817921" lon="7.7539321"></trkpt>
      <trkpt lat="44.181955" lon="7.7540317"></trkpt>
      <trkpt lat="44.1817717" lon="7.7539383"></trkpt>
      <trkpt lat="44.1816949" lon="7.7544601"></trkpt>
      <trkpt lat="44.1813549" lon="7.7548193"></trkpt>
      <trkpt lat="44.1806225" lon="7.7559492"></trkpt>
      <trkpt lat="44.1803268" lon="7.7569363"></trkpt>
      <trkpt lat="44.1803311" lon="7.7572727"></trkpt>
      <trkpt lat="44.1801805" lon="7.7575097"></trkpt>
      <trkpt lat="44.1802049" lon="7.7578781"></trkpt>
      <trkpt lat="44.1800671" lon="7.7582078"></trkpt>
      <trkpt lat="44.1797863" lon="7.7585804"></trkpt>
      <trkpt lat="44.1796061" lon="7.7586719"></trkpt>
      <trkpt lat="44.179315" lon="7.7591697"></trkpt>
      <trkpt lat="44.1792385" lon="7.7598152"></trkpt>
      <trkpt lat="44.1786307" lon="7.7604307"></trkpt>
      <trkpt lat="44.1781983" lon="7.761046"></trkpt>
      <trkpt lat="44.1781197" lon="7.761207"></trkpt>
      <trkpt lat="44.1781741" lon="7.7614216"></trkpt>
      <trkpt lat="44.1778285" lon="7.7616305"></trkpt>
      <trkpt lat="44.1779451" lon="7.7623605"></trkpt>
      <trkpt lat="44.1778061" lon="7.7628703"></trkpt>
      <trkpt lat="44.1781166" lon="7.7634141"></trkpt>
      <trkpt lat="44.1779955" lon="7.7634415"></trkpt>
      <trkpt lat="44.1779092" lon="7.7635831"></trkpt>
      <trkpt lat="44.1779986" lon="7.7637297"></trkpt>
      <trkpt lat="44.1781317" lon="7.7637138"></trkpt>
      <trkpt lat="44.1782781" lon="7.76389"></trkpt>
      <trkpt lat="44.1784616" lon="7.7638453"></trkpt>
      <trkpt lat="44.1786078" lon="7.7639772"></trkpt>
      <trkpt lat="44.1785759" lon="7.7646777"></trkpt>
      <trkpt lat="44.1788836" lon="7.7657788"></trkpt>
      <trkpt lat="44.1789997" lon="7.7658726"></trkpt>
      <trkpt lat="44.1791075" lon="7.7657718"></trkpt>
      <trkpt lat="44.1792782" lon="7.7658416"></trkpt>
      <trkpt lat="44.1794035" lon="7.7657969"></trkpt>
      <trkpt lat="44.1796334" lon="7.7660352"></trkpt>
      <trkpt lat="44.1795316" lon="7.7665888"></trkpt>
      <trkpt lat="44.1796275" lon="7.7673427"></trkpt>
      <trkpt lat="44.1795503" lon="7.7678617"></trkpt>
      <trkpt lat="44.1794492" lon="7.767974"></trkpt>
      <trkpt lat="44.1792583" lon="7.7679989"></trkpt>
      <trkpt lat="44.1786034" lon="7.7677906"></trkpt>
      <trkpt lat="44.1785866" lon="7.7680961"></trkpt>
      <trkpt lat="44.1789296" lon="7.7683587"></trkpt>
      <trkpt lat="44.1785724" lon="7.769006"></trkpt>
      <trkpt lat="44.178385" lon="7.7690519"></trkpt>
      <trkpt lat="44.1778593" lon="7.7689025"></trkpt>
      <trkpt lat="44.1776097" lon="7.7690103"></trkpt>
      <trkpt lat="44.1779874" lon="7.7699742"></trkpt>
      <trkpt lat="44.1775262" lon="7.770028"></trkpt>
      <trkpt lat="44.177513" lon="7.7706378"></trkpt>
      <trkpt lat="44.1769507" lon="7.7707433"></trkpt>
      <trkpt lat="44.1766777" lon="7.7706369"></trkpt>
      <trkpt lat="44.1764646" lon="7.7704163"></trkpt>
      <trkpt lat="44.1764019" lon="7.7706205"></trkpt>
      <trkpt lat="44.1763148" lon="7.7704059"></trkpt>
      <trkpt lat="44.1762366" lon="7.7705574"></trkpt>
      <trkpt lat="44.1763231" lon="7.7710334"></trkpt>
      <trkpt lat="44.1759712" lon="7.7706896"></trkpt>
      <trkpt lat="44.1758607" lon="7.7708781"></trkpt>
      <trkpt lat="44.1757017" lon="7.7705497"></trkpt>
      <trkpt lat="44.175561" lon="7.7710223"></trkpt>
      <trkpt lat="44.1757976" lon="7.7714136"></trkpt>
      <trkpt lat="44.1757415" lon="7.7715492"></trkpt>
      <trkpt lat="44.1750342" lon="7.7713293"></trkpt>
      <trkpt lat="44.1748067" lon="7.7713752"></trkpt>
      <trkpt lat="44.1740762" lon="7.7709384"></trkpt>
      <trkpt lat="44.1740099" lon="7.7707787"></trkpt>
      <trkpt lat="44.1738137" lon="7.7706505"></trkpt>
      <trkpt lat="44.1731722" lon="7.7707282"></trkpt>
      <trkpt lat="44.1727599" lon="7.7708779"></trkpt>
      <trkpt lat="44.1726323" lon="7.7706407"></trkpt>
      <trkpt lat="44.1724872" lon="7.7707567"></trkpt>
      <trkpt lat="44.1724717" lon="7.7706428"></trkpt>
      <trkpt lat="44.1723394" lon="7.7706919"></trkpt>
      <trkpt lat="44.1723373" lon="7.7702655"></trkpt>
      <trkpt lat="44.172236" lon="7.7703851"></trkpt>
      <trkpt lat="44.1721193" lon="7.7703791"></trkpt>
      <trkpt lat="44.1721503" lon="7.7701264"></trkpt>
      <trkpt lat="44.1720281" lon="7.7700668"></trkpt>
      <trkpt lat="44.1719844" lon="7.769688"></trkpt>
      <trkpt lat="44.1718911" lon="7.7697785"></trkpt>
      <trkpt lat="44.1717874" lon="7.7695657"></trkpt>
      <trkpt lat="44.1716036" lon="7.7696045"></trkpt>
      <trkpt lat="44.1714087" lon="7.7693738"></trkpt>
      <trkpt lat="44.1711899" lon="7.7694421"></trkpt>
      <trkpt lat="44.1703693" lon="7.7700242"></trkpt>
      <trkpt lat="44.1697292" lon="7.7708089"></trkpt>
      <trkpt lat="44.1695161" lon="7.7714794"></trkpt>
      <trkpt lat="44.1689662" lon="7.7725761"></trkpt>
      <trkpt lat="44.1689456" lon="7.7734957"></trkpt>
      <trkpt lat="44.1687705" lon="7.774721"></trkpt>
      <trkpt lat="44.1689722" lon="7.7751592"></trkpt>
      <trkpt lat="44.1689663" lon="7.7756692"></trkpt>
      <trkpt lat="44.1685397" lon="7.7759478"></trkpt>
      <trkpt lat="44.1685176" lon="7.7762231"></trkpt>
      <trkpt lat="44.1682651" lon="7.7763237"></trkpt>
      <trkpt lat="44.1682658" lon="7.7764372"></trkpt>
      <trkpt lat="44.168538" lon="7.7768006"></trkpt>
      <trkpt lat="44.1677276" lon="7.7770416"></trkpt>
      <trkpt lat="44.1685466" lon="7.7781706"></trkpt>
      <trkpt lat="44.1677954" lon="7.7779826"></trkpt>
      <trkpt lat="44.1670518" lon="7.778181"></trkpt>
      <trkpt lat="44.1664374" lon="7.7781717"></trkpt>
      <trkpt lat="44.1663124" lon="7.7782569"></trkpt>
      <trkpt lat="44.1664412" lon="7.7787011"></trkpt>
      <trkpt lat="44.1666584" lon="7.7788526"></trkpt>
      <trkpt lat="44.166791" lon="7.7791793"></trkpt>
      <trkpt lat="44.1671256" lon="7.7794631"></trkpt>
      <trkpt lat="44.1672843" lon="7.7797742"></trkpt>
      <trkpt lat="44.1674954" lon="7.7799"></trkpt>
      <trkpt lat="44.1676858" lon="7.7801963"></trkpt>
      <trkpt lat="44.1677096" lon="7.7804212"></trkpt>
      <trkpt lat="44.1681691" lon="7.7807262"></trkpt>
      <trkpt lat="44.1690832" lon="7.7816379"></trkpt>
      <trkpt lat="44.1698251" lon="7.7818467"></trkpt>
      <trkpt lat="44.1702175" lon="7.7818707"></trkpt>
      <trkpt lat="44.1703627" lon="7.7820423"></trkpt>
      <trkpt lat="44.1703968" lon="7.7823644"></trkpt>
      <trkpt lat="44.1708047" lon="7.7822276"></trkpt>
      <trkpt lat="44.1717129" lon="7.7825922"></trkpt>
      <trkpt lat="44.1713724" lon="7.7829797"></trkpt>
      <trkpt lat="44.1718473" lon="7.7830949"></trkpt>
      <trkpt lat="44.1717462" lon="7.7833171"></trkpt>
      <trkpt lat="44.1721006" lon="7.7832255"></trkpt>
      <trkpt lat="44.1719143" lon="7.7836138"></trkpt>
      <trkpt lat="44.1725393" lon="7.7835476"></trkpt>
      <trkpt lat="44.1722815" lon="7.7839455"></trkpt>
      <trkpt lat="44.17227" lon="7.7841109"></trkpt>
      <trkpt lat="44.1730448" lon="7.7842535"></trkpt>
      <trkpt lat="44.1733562" lon="7.7844124"></trkpt>
      <trkpt lat="44.1732179" lon="7.7847076"></trkpt>
      <trkpt lat="44.1742106" lon="7.7853419"></trkpt>
      <trkpt lat="44.1739811" lon="7.7852299"></trkpt>
      <trkpt lat="44.1736085" lon="7.7853795"></trkpt>
      <trkpt lat="44.1741774" lon="7.7865095"></trkpt>
      <trkpt lat="44.174035" lon="7.7865022"></trkpt>
      <trkpt lat="44.1735229" lon="7.787166"></trkpt>
      <trkpt lat="44.1734119" lon="7.787454"></trkpt>
      <trkpt lat="44.1740452" lon="7.7892778"></trkpt>
      <trkpt lat="44.1747592" lon="7.7903034"></trkpt>
      <trkpt lat="44.1746509" lon="7.7903734"></trkpt>
      <trkpt lat="44.1745695" lon="7.7907468"></trkpt>
      <trkpt lat="44.174111" lon="7.7916851"></trkpt>
      <trkpt lat="44.1742768" lon="7.7919819"></trkpt>
      <trkpt lat="44.174914" lon="7.792227"></trkpt>
      <trkpt lat="44.1748054" lon="7.7926703"></trkpt>
      <trkpt lat="44.1744564" lon="7.7932739"></trkpt>
      <trkpt lat="44.1748402" lon="7.7937281"></trkpt>
      <trkpt lat="44.1754863" lon="7.7941814"></trkpt>
      <trkpt lat="44.1754227" lon="7.7943212"></trkpt>
      <trkpt lat="44.1757303" lon="7.7948963"></trkpt>
      <trkpt lat="44.1762311" lon="7.7952174"></trkpt>
      <trkpt lat="44.1765622" lon="7.7955603"></trkpt>
      <trkpt lat="44.1766731" lon="7.7954226"></trkpt>
      <trkpt lat="44.1767451" lon="7.7955415"></trkpt>
      <trkpt lat="44.1769888" lon="7.795526"></trkpt>
      <trkpt lat="44.1776069" lon="7.7964921"></trkpt>
      <trkpt lat="44.1792197" lon="7.7974477"></trkpt>
      <trkpt lat="44.1792556" lon="7.7982712"></trkpt>
      <trkpt lat="44.179607" lon="7.7988511"></trkpt>
      <trkpt lat="44.1798537" lon="7.7990342"></trkpt>
      <trkpt lat="44.1799199" lon="7.7992685"></trkpt>
      <trkpt lat="44.1802133" lon="7.7995828"></trkpt>
      <trkpt lat="44.1803559" lon="7.7999975"></trkpt>
      <trkpt lat="44.180677" lon="7.8002703"></trkpt>
      <trkpt lat="44.1807379" lon="7.8005873"></trkpt>
      <trkpt lat="44.1807226" lon="7.8010117"></trkpt>
      <trkpt lat="44.1804372" lon="7.8008091"></trkpt>
      <trkpt lat="44.1800197" lon="7.8008224"></trkpt>
      <trkpt lat="44.1793025" lon="7.8005888"></trkpt>
      <trkpt lat="44.17985" lon="7.801786"></trkpt>
      <trkpt lat="44.1800773" lon="7.8020987"></trkpt>
      <trkpt lat="44.1799306" lon="7.8022089"></trkpt>
      <trkpt lat="44.1796317" lon="7.8019991"></trkpt>
      <trkpt lat="44.1797469" lon="7.8029751"></trkpt>
      <trkpt lat="44.1798847" lon="7.8032215"></trkpt>
      <trkpt lat="44.1801174" lon="7.8032692"></trkpt>
      <trkpt lat="44.1798029" lon="7.8035951"></trkpt>
      <trkpt lat="44.1796124" lon="7.8035406"></trkpt>
      <trkpt lat="44.1797215" lon="7.8038699"></trkpt>
      <trkpt lat="44.1795984" lon="7.8039256"></trkpt>
      <trkpt lat="44.1792819" lon="7.8038504"></trkpt>
      <trkpt lat="44.1791626" lon="7.8031962"></trkpt>
      <trkpt lat="44.1792198" lon="7.8031123"></trkpt>
      <trkpt lat="44.1787753" lon="7.802814"></trkpt>
      <trkpt lat="44.1786706" lon="7.8025682"></trkpt>
      <trkpt lat="44.1782336" lon="7.8023752"></trkpt>
      <trkpt lat="44.1785209" lon="7.8010727"></trkpt>
      <trkpt lat="44.1787909" lon="7.8012403"></trkpt>
      <trkpt lat="44.1786211" lon="7.8006849"></trkpt>
      <trkpt lat="44.1786939" lon="7.8004792"></trkpt>
      <trkpt lat="44.1786234" lon="7.800278"></trkpt>
      <trkpt lat="44.1788004" lon="7.8000359"></trkpt>
      <trkpt lat="44.1794509" lon="7.800679"></trkpt>
      <trkpt lat="44.179593" lon="7.8011364"></trkpt>
      <trkpt lat="44.1800661" lon="7.8020556"></trkpt>
      <trkpt lat="44.1799921" lon="7.8022038"></trkpt>
      <trkpt lat="44.1796385" lon="7.801996"></trkpt>
      <trkpt lat="44.1797251" lon="7.8028174"></trkpt>
      <trkpt lat="44.1798856" lon="7.8032156"></trkpt>
      <trkpt lat="44.1801518" lon="7.8033184"></trkpt>
      <trkpt lat="44.1797669" lon="7.8036154"></trkpt>
      <trkpt lat="44.1795871" lon="7.8035369"></trkpt>
      <trkpt lat="44.1797649" lon="7.8038929"></trkpt>
      <trkpt lat="44.1796327" lon="7.8040749"></trkpt>
      <trkpt lat="44.1794083" lon="7.8041255"></trkpt>
      <trkpt lat="44.1792975" lon="7.8038747"></trkpt>
      <trkpt lat="44.1792583" lon="7.8039517"></trkpt>
      <trkpt lat="44.1789021" lon="7.8055577"></trkpt>
      <trkpt lat="44.1788343" lon="7.8055337"></trkpt>
      <trkpt lat="44.1787377" lon="7.8057536"></trkpt>
      <trkpt lat="44.1785111" lon="7.8072256"></trkpt>
      <trkpt lat="44.1782419" lon="7.8078564"></trkpt>
      <trkpt lat="44.1781713" lon="7.8083444"></trkpt>
      <trkpt lat="44.1784078" lon="7.8083868"></trkpt>
      <trkpt lat="44.1788256" lon="7.8087933"></trkpt>
      <trkpt lat="44.1792401" lon="7.8097281"></trkpt>
      <trkpt lat="44.1792652" lon="7.8099956"></trkpt>
      <trkpt lat="44.1795349" lon="7.8099922"></trkpt>
      <trkpt lat="44.1794089" lon="7.8104551"></trkpt>
      <trkpt lat="44.1794377" lon="7.8105661"></trkpt>
      <trkpt lat="44.1794763" lon="7.8103418"></trkpt>
      <trkpt lat="44.1794612" lon="7.8105765"></trkpt>
      <trkpt lat="44.1796934" lon="7.81062"></trkpt>
      <trkpt lat="44.1796802" lon="7.810758"></trkpt>
      <trkpt lat="44.1794792" lon="7.8110184"></trkpt>
      <trkpt lat="44.1794188" lon="7.8114449"></trkpt>
      <trkpt lat="44.1792882" lon="7.8115302"></trkpt>
      <trkpt lat="44.1789752" lon="7.8122952"></trkpt>
      <trkpt lat="44.1787087" lon="7.8135153"></trkpt>
      <trkpt lat="44.1785665" lon="7.8134998"></trkpt>
      <trkpt lat="44.1783066" lon="7.813728"></trkpt>
      <trkpt lat="44.1781786" lon="7.8136442"></trkpt>
      <trkpt lat="44.1780711" lon="7.8137171"></trkpt>
      <trkpt lat="44.1776869" lon="7.8134778"></trkpt>
      <trkpt lat="44.1772623" lon="7.814153"></trkpt>
      <trkpt lat="44.1772369" lon="7.814375"></trkpt>
      <trkpt lat="44.1766549" lon="7.8149991"></trkpt>
      <trkpt lat="44.176267" lon="7.8168819"></trkpt>
      <trkpt lat="44.1763535" lon="7.8174579"></trkpt>
      <trkpt lat="44.1763081" lon="7.8179136"></trkpt>
      <trkpt lat="44.1747534" lon="7.8205549"></trkpt>
      <trkpt lat="44.1747418" lon="7.8208902"></trkpt>
      <trkpt lat="44.1744006" lon="7.821477"></trkpt>
      <trkpt lat="44.1741727" lon="7.822373"></trkpt>
      <trkpt lat="44.1737178" lon="7.8228168"></trkpt>
      <trkpt lat="44.1733543" lon="7.8240448"></trkpt>
      <trkpt lat="44.1732998" lon="7.8248647"></trkpt>
      <trkpt lat="44.1734709" lon="7.8265401"></trkpt>
      <trkpt lat="44.1734375" lon="7.8271744"></trkpt>
      <trkpt lat="44.1736168" lon="7.8276557"></trkpt>
      <trkpt lat="44.173466" lon="7.8279763"></trkpt>
      <trkpt lat="44.1736032" lon="7.82827"></trkpt>
      <trkpt lat="44.1733779" lon="7.828455"></trkpt>
      <trkpt lat="44.1733998" lon="7.8289701"></trkpt>
      <trkpt lat="44.1732707" lon="7.8291662"></trkpt>
      <trkpt lat="44.1733512" lon="7.8294572"></trkpt>
      <trkpt lat="44.173222" lon="7.8297782"></trkpt>
      <trkpt lat="44.1734158" lon="7.8299244"></trkpt>
      <trkpt lat="44.1731927" lon="7.830134"></trkpt>
      <trkpt lat="44.173498" lon="7.8302685"></trkpt>
      <trkpt lat="44.1733428" lon="7.830496"></trkpt>
      <trkpt lat="44.1735995" lon="7.8305698"></trkpt>
      <trkpt lat="44.1734547" lon="7.830818"></trkpt>
      <trkpt lat="44.1736273" lon="7.830879"></trkpt>
      <trkpt lat="44.1734625" lon="7.8310421"></trkpt>
      <trkpt lat="44.1735985" lon="7.8311197"></trkpt>
      <trkpt lat="44.1734498" lon="7.8311677"></trkpt>
      <trkpt lat="44.1736111" lon="7.8312758"></trkpt>
      <trkpt lat="44.1735279" lon="7.8316072"></trkpt>
      <trkpt lat="44.1736443" lon="7.8323557"></trkpt>
      <trkpt lat="44.1735971" lon="7.8325329"></trkpt>
      <trkpt lat="44.1737699" lon="7.8328156"></trkpt>
      <trkpt lat="44.1743252" lon="7.8329228"></trkpt>
      <trkpt lat="44.1750602" lon="7.8333674"></trkpt>
      <trkpt lat="44.1757227" lon="7.8342018"></trkpt>
      <trkpt lat="44.1758097" lon="7.8341648"></trkpt>
      <trkpt lat="44.1759733" lon="7.8344771"></trkpt>
      <trkpt lat="44.176071" lon="7.8344458"></trkpt>
      <trkpt lat="44.176312" lon="7.8348989"></trkpt>
      <trkpt lat="44.1765851" lon="7.83507"></trkpt>
      <trkpt lat="44.1767993" lon="7.8350976"></trkpt>
      <trkpt lat="44.177623" lon="7.837078"></trkpt>
      <trkpt lat="44.1777316" lon="7.8379799"></trkpt>
      <trkpt lat="44.1781436" lon="7.8384673"></trkpt>
      <trkpt lat="44.1783037" lon="7.8389536"></trkpt>
      <trkpt lat="44.1786499" lon="7.8394153"></trkpt>
      <trkpt lat="44.1789063" lon="7.8401598"></trkpt>
      <trkpt lat="44.1792074" lon="7.8406117"></trkpt>
      <trkpt lat="44.179225" lon="7.8408101"></trkpt>
      <trkpt lat="44.1796183" lon="7.8410387"></trkpt>
      <trkpt lat="44.180009" lon="7.8414211"></trkpt>
      <trkpt lat="44.1805318" lon="7.8425474"></trkpt>
      <trkpt lat="44.1807848" lon="7.8433771"></trkpt>
      <trkpt lat="44.180785" lon="7.8437335"></trkpt>
      <trkpt lat="44.1804849" lon="7.8459683"></trkpt>
      <trkpt lat="44.1804049" lon="7.8483676"></trkpt>
      <trkpt lat="44.1798655" lon="7.8505307"></trkpt>
      <trkpt lat="44.1797934" lon="7.8509891"></trkpt>
      <trkpt lat="44.1798455" lon="7.8512995"></trkpt>
      <trkpt lat="44.1803226" lon="7.8521165"></trkpt>
      <trkpt lat="44.1812652" lon="7.8528744"></trkpt>
      <trkpt lat="44.1816911" lon="7.8534759"></trkpt>
      <trkpt lat="44.1819042" lon="7.8536219"></trkpt>
      <trkpt lat="44.1821914" lon="7.8541467"></trkpt>
      <trkpt lat="44.1823578" lon="7.8550192"></trkpt>
      <trkpt lat="44.1822742" lon="7.8575367"></trkpt>
      <trkpt lat="44.1824601" lon="7.8599162"></trkpt>
      <trkpt lat="44.1831535" lon="7.8619408"></trkpt>
      <trkpt lat="44.1835786" lon="7.8625685"></trkpt>
      <trkpt lat="44.1845251" lon="7.8643827"></trkpt>
      <trkpt lat="44.1846889" lon="7.8649292"></trkpt>
      <trkpt lat="44.1846862" lon="7.8652609"></trkpt>
      <trkpt lat="44.1846019" lon="7.8656955"></trkpt>
      <trkpt lat="44.184458" lon="7.8659435"></trkpt>
      <trkpt lat="44.1846469" lon="7.866644"></trkpt>
      <trkpt lat="44.1853291" lon="7.8665363"></trkpt>
      <trkpt lat="44.1854635" lon="7.8667674"></trkpt>
      <trkpt lat="44.1855632" lon="7.8673474"></trkpt>
      <trkpt lat="44.185648" lon="7.8673684"></trkpt>
      <trkpt lat="44.1863206" lon="7.8674026"></trkpt>
      <trkpt lat="44.1865273" lon="7.8673158"></trkpt>
      <trkpt lat="44.1866406" lon="7.8671134"></trkpt>
      <trkpt lat="44.1867607" lon="7.8671321"></trkpt>
      <trkpt lat="44.1868288" lon="7.8675662"></trkpt>
      <trkpt lat="44.187396" lon="7.868179"></trkpt>
      <trkpt lat="44.1874644" lon="7.8684191"></trkpt>
      <trkpt lat="44.1878609" lon="7.8687777"></trkpt>
      <trkpt lat="44.188119" lon="7.8692212"></trkpt>
      <trkpt lat="44.1882805" lon="7.8692379"></trkpt>
      <trkpt lat="44.1885325" lon="7.8690031"></trkpt>
      <trkpt lat="44.1890044" lon="7.8690517"></trkpt>
      <trkpt lat="44.1891105" lon="7.8688561"></trkpt>
      <trkpt lat="44.1896763" lon="7.8693508"></trkpt>
      <trkpt lat="44.1900622" lon="7.8699948"></trkpt>
      <trkpt lat="44.1899201" lon="7.8704231"></trkpt>
      <trkpt lat="44.189327" lon="7.871233"></trkpt>
      <trkpt lat="44.1888609" lon="7.8722633"></trkpt>
      <trkpt lat="44.1884668" lon="7.8732669"></trkpt>
      <trkpt lat="44.1882331" lon="7.8745931"></trkpt>
      <trkpt lat="44.187895" lon="7.8753256"></trkpt>
      <trkpt lat="44.1875197" lon="7.8756738"></trkpt>
      <trkpt lat="44.1873612" lon="7.87602"></trkpt>
      <trkpt lat="44.1870413" lon="7.8772668"></trkpt>
      <trkpt lat="44.1872951" lon="7.8780581"></trkpt>
      <trkpt lat="44.1877138" lon="7.8789691"></trkpt>
      <trkpt lat="44.1881664" lon="7.8796454"></trkpt>
      <trkpt lat="44.1883159" lon="7.8796158"></trkpt>
      <trkpt lat="44.1884081" lon="7.8796922"></trkpt>
      <trkpt lat="44.1885041" lon="7.8801938"></trkpt>
      <trkpt lat="44.1892106" lon="7.882292"></trkpt>
      <trkpt lat="44.1894254" lon="7.8824693"></trkpt>
      <trkpt lat="44.1904954" lon="7.8822191"></trkpt>
      <trkpt lat="44.190551" lon="7.8833817"></trkpt>
      <trkpt lat="44.1911747" lon="7.8828902"></trkpt>
      <trkpt lat="44.1915134" lon="7.8823814"></trkpt>
      <trkpt lat="44.1916394" lon="7.8825511"></trkpt>
      <trkpt lat="44.1916347" lon="7.8828528"></trkpt>
      <trkpt lat="44.191374" lon="7.8837918"></trkpt>
      <trkpt lat="44.190975" lon="7.8846806"></trkpt>
      <trkpt lat="44.1908171" lon="7.8847192"></trkpt>
      <trkpt lat="44.1905056" lon="7.8852856"></trkpt>
      <trkpt lat="44.19014" lon="7.885526"></trkpt>
      <trkpt lat="44.1899003" lon="7.88582"></trkpt>
      <trkpt lat="44.1895763" lon="7.886595"></trkpt>
      <trkpt lat="44.189533" lon="7.8871187"></trkpt>
      <trkpt lat="44.1897092" lon="7.8876144"></trkpt>
      <trkpt lat="44.1897352" lon="7.8880045"></trkpt>
      <trkpt lat="44.189969" lon="7.8883941"></trkpt>
      <trkpt lat="44.1899637" lon="7.8884986"></trkpt>
      <trkpt lat="44.189945" lon="7.88838"></trkpt>
      <trkpt lat="44.1898242" lon="7.8884041"></trkpt>
      <trkpt lat="44.1900894" lon="7.8883814"></trkpt>
      <trkpt lat="44.1904793" lon="7.8886265"></trkpt>
      <trkpt lat="44.1901883" lon="7.8892213"></trkpt>
      <trkpt lat="44.1902805" lon="7.8900233"></trkpt>
      <trkpt lat="44.1901011" lon="7.8902182"></trkpt>
      <trkpt lat="44.1898795" lon="7.8902961"></trkpt>
      <trkpt lat="44.1898996" lon="7.8906977"></trkpt>
      <trkpt lat="44.1898281" lon="7.8908131"></trkpt>
      <trkpt lat="44.1899376" lon="7.8906956"></trkpt>
      <trkpt lat="44.1900416" lon="7.8909618"></trkpt>
      <trkpt lat="44.1901862" lon="7.8909641"></trkpt>
      <trkpt lat="44.1901643" lon="7.8916691"></trkpt>
      <trkpt lat="44.1907739" lon="7.8909574"></trkpt>
      <trkpt lat="44.191399" lon="7.8907409"></trkpt>
      <trkpt lat="44.1914176" lon="7.8926892"></trkpt>
      <trkpt lat="44.1922599" lon="7.8937582"></trkpt>
      <trkpt lat="44.1923152" lon="7.8939588"></trkpt>
      <trkpt lat="44.1921334" lon="7.8947277"></trkpt>
      <trkpt lat="44.1918738" lon="7.8950334"></trkpt>
      <trkpt lat="44.1920061" lon="7.8951987"></trkpt>
      <trkpt lat="44.1931022" lon="7.8959655"></trkpt>
      <trkpt lat="44.1936035" lon="7.8965524"></trkpt>
      <trkpt lat="44.193749" lon="7.8969849"></trkpt>
      <trkpt lat="44.1942355" lon="7.8968334"></trkpt>
      <trkpt lat="44.1948034" lon="7.8977876"></trkpt>
      <trkpt lat="44.1960649" lon="7.8985924"></trkpt>
      <trkpt lat="44.1961877" lon="7.8990809"></trkpt>
      <trkpt lat="44.1966295" lon="7.8993118"></trkpt>
      <trkpt lat="44.1966746" lon="7.8991076"></trkpt>
      <trkpt lat="44.1970002" lon="7.8992872"></trkpt>
      <trkpt lat="44.1977176" lon="7.899423"></trkpt>
      <trkpt lat="44.197841" lon="7.8996344"></trkpt>
      <trkpt lat="44.1979246" lon="7.8996212"></trkpt>
      <trkpt lat="44.1978364" lon="7.8994177"></trkpt>
      <trkpt lat="44.1976785" lon="7.8995051"></trkpt>
      <trkpt lat="44.1976076" lon="7.9000294"></trkpt>
      <trkpt lat="44.1976587" lon="7.9001714"></trkpt>
      <trkpt lat="44.197466" lon="7.9003726"></trkpt>
      <trkpt lat="44.1973472" lon="7.900808"></trkpt>
      <trkpt lat="44.1973168" lon="7.9015307"></trkpt>
      <trkpt lat="44.1971714" lon="7.9019998"></trkpt>
      <trkpt lat="44.1966765" lon="7.9023342"></trkpt>
      <trkpt lat="44.1973586" lon="7.902985"></trkpt>
      <trkpt lat="44.1973246" lon="7.9038162"></trkpt>
      <trkpt lat="44.1974179" lon="7.9044736"></trkpt>
      <trkpt lat="44.1975958" lon="7.904753"></trkpt>
      <trkpt lat="44.1977188" lon="7.9047523"></trkpt>
      <trkpt lat="44.1976954" lon="7.9048466"></trkpt>
      <trkpt lat="44.1980925" lon="7.9050236"></trkpt>
      <trkpt lat="44.1983783" lon="7.9062029"></trkpt>
      <trkpt lat="44.1986253" lon="7.9064175"></trkpt>
      <trkpt lat="44.1986308" lon="7.906518"></trkpt>
      <trkpt lat="44.1983727" lon="7.9068507"></trkpt>
      <trkpt lat="44.1985485" lon="7.9071115"></trkpt>
      <trkpt lat="44.1984419" lon="7.9072517"></trkpt>
      <trkpt lat="44.1987753" lon="7.90736"></trkpt>
      <trkpt lat="44.1986275" lon="7.9077727"></trkpt>
      <trkpt lat="44.198379" lon="7.9079662"></trkpt>
      <trkpt lat="44.1985718" lon="7.908131"></trkpt>
      <trkpt lat="44.1982542" lon="7.9084023"></trkpt>
      <trkpt lat="44.1986821" lon="7.9087132"></trkpt>
      <trkpt lat="44.1981346" lon="7.9091202"></trkpt>
      <trkpt lat="44.1984847" lon="7.9093634"></trkpt>
      <trkpt lat="44.1988317" lon="7.9094258"></trkpt>
      <trkpt lat="44.1995983" lon="7.9104036"></trkpt>
      <trkpt lat="44.1999327" lon="7.9105827"></trkpt>
      <trkpt lat="44.200103" lon="7.9108063"></trkpt>
      <trkpt lat="44.2004203" lon="7.91093"></trkpt>
      <trkpt lat="44.2005081" lon="7.9111601"></trkpt>
      <trkpt lat="44.1998138" lon="7.9119824"></trkpt>
      <trkpt lat="44.2003735" lon="7.9125896"></trkpt>
      <trkpt lat="44.2008218" lon="7.9128514"></trkpt>
      <trkpt lat="44.2008372" lon="7.9129632"></trkpt>
      <trkpt lat="44.2004" lon="7.9132807"></trkpt>
      <trkpt lat="44.2011264" lon="7.9137263"></trkpt>
      <trkpt lat="44.2001214" lon="7.9142239"></trkpt>
      <trkpt lat="44.2011938" lon="7.914959"></trkpt>
      <trkpt lat="44.2009208" lon="7.9152383"></trkpt>
      <trkpt lat="44.2005544" lon="7.9153363"></trkpt>
      <trkpt lat="44.2008801" lon="7.9156184"></trkpt>
      <trkpt lat="44.2010042" lon="7.9159209"></trkpt>
      <trkpt lat="44.2011871" lon="7.9160184"></trkpt>
      <trkpt lat="44.2012262" lon="7.9162141"></trkpt>
      <trkpt lat="44.2010551" lon="7.916543"></trkpt>
      <trkpt lat="44.2011469" lon="7.9169849"></trkpt>
      <trkpt lat="44.2004278" lon="7.9184651"></trkpt>
      <trkpt lat="44.2003213" lon="7.9185508"></trkpt>
      <trkpt lat="44.2015773" lon="7.9218197"></trkpt>
      <trkpt lat="44.2020631" lon="7.9241659"></trkpt>
      <trkpt lat="44.2024865" lon="7.9250999"></trkpt>
      <trkpt lat="44.2027765" lon="7.9263494"></trkpt>
      <trkpt lat="44.2029114" lon="7.9266786"></trkpt>
      <trkpt lat="44.2036291" lon="7.9275151"></trkpt>
      <trkpt lat="44.2037175" lon="7.9294038"></trkpt>
      <trkpt lat="44.2041751" lon="7.9312312"></trkpt>
      <trkpt lat="44.2050068" lon="7.9323019"></trkpt>
      <trkpt lat="44.2053465" lon="7.9305473"></trkpt>
      <trkpt lat="44.2059973" lon="7.9291446"></trkpt>
      <trkpt lat="44.2063374" lon="7.9289042"></trkpt>
      <trkpt lat="44.2065033" lon="7.9286302"></trkpt>
      <trkpt lat="44.2067029" lon="7.9286001"></trkpt>
      <trkpt lat="44.2069953" lon="7.9281199"></trkpt>
      <trkpt lat="44.2072108" lon="7.9279792"></trkpt>
      <trkpt lat="44.2073028" lon="7.9279596"></trkpt>
      <trkpt lat="44.2076274" lon="7.928383"></trkpt>
      <trkpt lat="44.2079127" lon="7.9285373"></trkpt>
      <trkpt lat="44.2085021" lon="7.928126"></trkpt>
      <trkpt lat="44.2089315" lon="7.9280431"></trkpt>
      <trkpt lat="44.2090323" lon="7.9281163"></trkpt>
      <trkpt lat="44.208749" lon="7.9289526"></trkpt>
      <trkpt lat="44.2088761" lon="7.929381"></trkpt>
      <trkpt lat="44.2116384" lon="7.9318447"></trkpt>
      <trkpt lat="44.2119178" lon="7.9322925"></trkpt>
      <trkpt lat="44.2123526" lon="7.933755"></trkpt>
      <trkpt lat="44.2122886" lon="7.934357"></trkpt>
      <trkpt lat="44.2124523" lon="7.9351357"></trkpt>
      <trkpt lat="44.2131063" lon="7.9354358"></trkpt>
      <trkpt lat="44.2136979" lon="7.9354744"></trkpt>
      <trkpt lat="44.2143003" lon="7.9356368"></trkpt>
      <trkpt lat="44.2148853" lon="7.9356149"></trkpt>
      <trkpt lat="44.2152091" lon="7.935834"></trkpt>
      <trkpt lat="44.2151951" lon="7.9361412"></trkpt>
      <trkpt lat="44.215277" lon="7.936094"></trkpt>
      <trkpt lat="44.2150323" lon="7.9369191"></trkpt>
      <trkpt lat="44.2150752" lon="7.937217"></trkpt>
      <trkpt lat="44.2153135" lon="7.9378057"></trkpt>
      <trkpt lat="44.215447" lon="7.937902"></trkpt>
      <trkpt lat="44.2158371" lon="7.9385829"></trkpt>
      <trkpt lat="44.2157932" lon="7.9391039"></trkpt>
      <trkpt lat="44.2159516" lon="7.939267"></trkpt>
      <trkpt lat="44.216235" lon="7.9401019"></trkpt>
      <trkpt lat="44.2164985" lon="7.9405948"></trkpt>
      <trkpt lat="44.2164136" lon="7.9409835"></trkpt>
      <trkpt lat="44.2164682" lon="7.9411046"></trkpt>
      <trkpt lat="44.2165687" lon="7.9410418"></trkpt>
      <trkpt lat="44.2166589" lon="7.9413697"></trkpt>
      <trkpt lat="44.2165121" lon="7.9426303"></trkpt>
      <trkpt lat="44.2161676" lon="7.9437881"></trkpt>
      <trkpt lat="44.216506" lon="7.9443363"></trkpt>
      <trkpt lat="44.2164964" lon="7.9446857"></trkpt>
    </trkseg>
  </trk>
</gpx>