<?xml version="1.0" encoding="UTF-8"?>
<gpx xmlns="http://www.topografix.com/GPX/1/1" version="1.1" creator="AlpineQuest 2.4.1.r10260" xmlns:xsi="http://www.w3.org/2001/XMLSchema-instance" xsi:schemaLocation="http://www.topografix.com/GPX/1/1 http://www.topografix.com/GPX/1/1/gpx.xsd">
<metadata>
<link href="https://www.alpinequest.net/fr" />
<time>2026-09-27T07:42:39Z</time>
</metadata>
<trk>
<name>Arménie #2</name>
<extensions>
	<line xmlns="http://www.topografix.com/GPX/gpx_style/0/2">
		<color>FF00FF</color>
	</line>
</extensions>
<trkseg>
<trkpt lat="40.6310539" lon="44.9797492">
<ele>1918.0</ele>
</trkpt>
<trkpt lat="40.6337601" lon="44.9783791">
<ele>1967.774</ele>
</trkpt>
<trkpt lat="40.6363009" lon="44.9770168">
<ele>2052.353</ele>
</trkpt>
<trkpt lat="40.640288" lon="44.9748919">
<ele>2160.736</ele>
</trkpt>
<trkpt lat="40.6433603" lon="44.9731081">
<ele>2209.619</ele>
</trkpt>
<trkpt lat="40.6460228" lon="44.9714215">
<ele>2275.698</ele>
</trkpt>
<trkpt lat="40.6482791" lon="44.969653">
<ele>2370.826</ele>
</trkpt>
<trkpt lat="40.6507504" lon="44.9673611">
<ele>2459.261</ele>
</trkpt>
<trkpt lat="40.6529541" lon="44.9650339">
<ele>2531.974</ele>
</trkpt>
<trkpt lat="40.6539158" lon="44.9616755">
<ele>2520.292</ele>
</trkpt>
<trkpt lat="40.6555526" lon="44.9589953">
<ele>2483.064</ele>
</trkpt>
<trkpt lat="40.6567387" lon="44.9560693">
<ele>2524.274</ele>
</trkpt>
<trkpt lat="40.6576783" lon="44.953061">
<ele>2586.225</ele>
</trkpt>
<trkpt lat="40.6586707" lon="44.9500741">
<ele>2568.397</ele>
</trkpt>
<trkpt lat="40.6581748" lon="44.9468674">
<ele>2494.49</ele>
</trkpt>
<trkpt lat="40.6581768" lon="44.9436105">
<ele>2416.337</ele>
</trkpt>
<trkpt lat="40.6591712" lon="44.9406486">
<ele>2335.373</ele>
</trkpt>
<trkpt lat="40.6607592" lon="44.9379628">
<ele>2303.93</ele>
</trkpt>
<trkpt lat="40.6622939" lon="44.9353996">
<ele>2272.574</ele>
</trkpt>
<trkpt lat="40.6631343" lon="44.9322957">
<ele>2245.752</ele>
</trkpt>
<trkpt lat="40.6638286" lon="44.9308877">
<ele>2234.153</ele>
</trkpt>
<trkpt lat="40.6647232" lon="44.9277413">
<ele>2207.378</ele>
</trkpt>
<trkpt lat="40.6660119" lon="44.924815">
<ele>2192.479</ele>
</trkpt>
<trkpt lat="40.6675008" lon="44.9220974">
<ele>2173.872</ele>
</trkpt>
<trkpt lat="40.6690866" lon="44.9195937">
<ele>2148.491</ele>
</trkpt>
<trkpt lat="40.6707228" lon="44.9171185">
<ele>2112.981</ele>
</trkpt>
<trkpt lat="40.6731537" lon="44.9167548">
<ele>2096.362</ele>
</trkpt>
<trkpt lat="40.6753899" lon="44.9182367">
<ele>2085.585</ele>
</trkpt>
<trkpt lat="40.6775222" lon="44.9198359">
<ele>2121.859</ele>
</trkpt>
<trkpt lat="40.6795578" lon="44.9216209">
<ele>2130.835</ele>
</trkpt>
<trkpt lat="40.6819363" lon="44.9225152">
<ele>2182.764</ele>
</trkpt>
<trkpt lat="40.6842186" lon="44.9211578">
<ele>2230.532</ele>
</trkpt>
<trkpt lat="40.6863975" lon="44.9194635">
<ele>2317.418</ele>
</trkpt>
<trkpt lat="40.6884279" lon="44.9175391">
<ele>2392.549</ele>
</trkpt>
<trkpt lat="40.6907118" lon="44.9160906">
<ele>2472.163</ele>
</trkpt>
<trkpt lat="40.6932433" lon="44.9161807">
<ele>2547.765</ele>
</trkpt>
<trkpt lat="40.6956629" lon="44.9155181">
<ele>2603.801</ele>
</trkpt>
<trkpt lat="40.6957616" lon="44.9154261">
<ele>2602.635</ele>
</trkpt>
<trkpt lat="40.6979057" lon="44.9137842">
<ele>2588.776</ele>
</trkpt>
<trkpt lat="40.7003346" lon="44.9126369">
<ele>2489.499</ele>
</trkpt>
<trkpt lat="40.702763" lon="44.9119128">
<ele>2442.24</ele>
</trkpt>
<trkpt lat="40.7051425" lon="44.9110072">
<ele>2381.706</ele>
</trkpt>
<trkpt lat="40.7075226" lon="44.909921">
<ele>2391.078</ele>
</trkpt>
<trkpt lat="40.7099022" lon="44.9091356">
<ele>2404.318</ele>
</trkpt>
<trkpt lat="40.7124794" lon="44.909377">
<ele>2424.857</ele>
</trkpt>
<trkpt lat="40.715006" lon="44.9094973">
<ele>2430.445</ele>
</trkpt>
<trkpt lat="40.7172861" lon="44.9080501">
<ele>2320.667</ele>
</trkpt>
<trkpt lat="40.7187232" lon="44.9053653">
<ele>2257.874</ele>
</trkpt>
<trkpt lat="40.7193679" lon="44.9049111">
<ele>2237.649</ele>
</trkpt>
<trkpt lat="40.721503" lon="44.9028852">
<ele>2182.384</ele>
</trkpt>
<trkpt lat="40.7238285" lon="44.9012575">
<ele>2184.324</ele>
</trkpt>
<trkpt lat="40.7258209" lon="44.8991974">
<ele>2110.859</ele>
</trkpt>
<trkpt lat="40.7271516" lon="44.89646">
<ele>2034.575</ele>
</trkpt>
<trkpt lat="40.7286388" lon="44.8938023">
<ele>1966.85</ele>
</trkpt>
<trkpt lat="40.730472" lon="44.8915388">
<ele>1854.298</ele>
</trkpt>
<trkpt lat="40.7322554" lon="44.8892162">
<ele>1773.688</ele>
</trkpt>
<trkpt lat="40.7339396" lon="44.8868327">
<ele>1693.124</ele>
</trkpt>
<trkpt lat="40.7354748" lon="44.8843273">
<ele>1619.14</ele>
</trkpt>
<trkpt lat="40.7356742" lon="44.8841756">
<ele>1609.876</ele>
</trkpt>
<trkpt lat="40.7375075" lon="44.8815755">
<ele>1547.711</ele>
</trkpt>
<trkpt lat="40.7394414" lon="44.879462">
<ele>1504.504</ele>
</trkpt>
<trkpt lat="40.7410785" lon="44.8770454">
<ele>1383.238</ele>
</trkpt>
<trkpt lat="40.7422674" lon="44.8759889">
<ele>1340.903</ele>
</trkpt>
</trkseg>
<trkseg>
<trkpt lat="40.7559114" lon="44.8011635">
<ele>1454.963</ele>
</trkpt>
<trkpt lat="40.7542803" lon="44.7987563">
<ele>1479.567</ele>
</trkpt>
<trkpt lat="40.7524996" lon="44.7965562">
<ele>1555.82</ele>
</trkpt>
<trkpt lat="40.7515615" lon="44.7935724">
<ele>1593.943</ele>
</trkpt>
<trkpt lat="40.7514625" lon="44.7903073">
<ele>1692.601</ele>
</trkpt>
<trkpt lat="40.751512" lon="44.7869968">
<ele>1744.083</ele>
</trkpt>
<trkpt lat="40.7510173" lon="44.7838278">
<ele>1789.989</ele>
</trkpt>
<trkpt lat="40.7504729" lon="44.7806895">
<ele>1847.018</ele>
</trkpt>
<trkpt lat="40.7502738" lon="44.7798127">
<ele>1884.007</ele>
</trkpt>
<trkpt lat="40.7485405" lon="44.7773986">
<ele>1878.455</ele>
</trkpt>
<trkpt lat="40.7469073" lon="44.774957">
<ele>1960.894</ele>
</trkpt>
<trkpt lat="40.7449256" lon="44.7730554">
<ele>2093.146</ele>
</trkpt>
<trkpt lat="40.7435886" lon="44.7703375">
<ele>2156.726</ele>
</trkpt>
<trkpt lat="40.7423006" lon="44.76756">
<ele>2140.913</ele>
</trkpt>
<trkpt lat="40.7410653" lon="44.7647318">
<ele>2074.74</ele>
</trkpt>
<trkpt lat="40.7409647" lon="44.7615027">
<ele>2098.764</ele>
</trkpt>
<trkpt lat="40.7421047" lon="44.7586352">
<ele>2178.387</ele>
</trkpt>
<trkpt lat="40.7417925" lon="44.7590363">
<ele>2162.32</ele>
</trkpt>
<trkpt lat="40.7408509" lon="44.7560545">
<ele>2237.426</ele>
</trkpt>
<trkpt lat="40.7409053" lon="44.7528236">
<ele>2144.262</ele>
</trkpt>
<trkpt lat="40.7424938" lon="44.7503197">
<ele>2050.204</ele>
</trkpt>
<trkpt lat="40.7440234" lon="44.7477016">
<ele>1957.578</ele>
</trkpt>
<trkpt lat="40.7427284" lon="44.7448886">
<ele>1943.078</ele>
</trkpt>
<trkpt lat="40.7422902" lon="44.7439308">
<ele>1966.798</ele>
</trkpt>
<trkpt lat="40.7421277" lon="44.7406937">
<ele>2004.197</ele>
</trkpt>
<trkpt lat="40.7415342" lon="44.7375574">
<ele>2054.186</ele>
</trkpt>
<trkpt lat="40.7415342" lon="44.7375574">
<ele>2054.186</ele>
</trkpt>
<trkpt lat="40.7415985" lon="44.7376555">
<ele>2056.0</ele>
</trkpt>
<trkpt lat="40.7416155" lon="44.7376365">
<ele>2055.5</ele>
</trkpt>
<trkpt lat="40.7419265" lon="44.7371085">
<ele>2055.5</ele>
</trkpt>
<trkpt lat="40.7418515" lon="44.7364695">
<ele>2054.5</ele>
</trkpt>
<trkpt lat="40.7414265" lon="44.7359925">
<ele>2051.25</ele>
</trkpt>
<trkpt lat="40.7407135" lon="44.7353545">
<ele>2058.25</ele>
</trkpt>
<trkpt lat="40.7407625" lon="44.7350015">
<ele>2055.5</ele>
</trkpt>
<trkpt lat="40.7407695" lon="44.7345115">
<ele>2054.0</ele>
</trkpt>
<trkpt lat="40.7404195" lon="44.7337315">
<ele>2067.0</ele>
</trkpt>
<trkpt lat="40.7403775" lon="44.7328705">
<ele>2069.5</ele>
</trkpt>
<trkpt lat="40.7408395" lon="44.7326475">
<ele>2056.25</ele>
</trkpt>
<trkpt lat="40.7409795" lon="44.7317845">
<ele>2067.5</ele>
</trkpt>
<trkpt lat="40.7412315" lon="44.7312575">
<ele>2065.0</ele>
</trkpt>
<trkpt lat="40.7415155" lon="44.7303405">
<ele>2063.75</ele>
</trkpt>
<trkpt lat="40.7416075" lon="44.7298775">
<ele>2061.5</ele>
</trkpt>
<trkpt lat="40.7414575" lon="44.7291145">
<ele>2064.0</ele>
</trkpt>
<trkpt lat="40.7413315" lon="44.7286285">
<ele>2062.25</ele>
</trkpt>
<trkpt lat="40.7411065" lon="44.7280325">
<ele>2065.75</ele>
</trkpt>
<trkpt lat="40.7411565" lon="44.7277235">
<ele>2065.0</ele>
</trkpt>
<trkpt lat="40.7414825" lon="44.7273695">
<ele>2056.25</ele>
</trkpt>
<trkpt lat="40.7415365" lon="44.7271925">
<ele>2054.5</ele>
</trkpt>
<trkpt lat="40.7414835" lon="44.7268325">
<ele>2056.0</ele>
</trkpt>
<trkpt lat="40.7412195" lon="44.7258455">
<ele>2059.5</ele>
</trkpt>
<trkpt lat="40.7409065" lon="44.7248965">
<ele>2066.25</ele>
</trkpt>
<trkpt lat="40.7406865" lon="44.7246435">
<ele>2070.0</ele>
</trkpt>
<trkpt lat="40.7405855" lon="44.7244425">
<ele>2070.75</ele>
</trkpt>
<trkpt lat="40.7405545" lon="44.7234345">
<ele>2070.5</ele>
</trkpt>
<trkpt lat="40.7406035" lon="44.7233385">
<ele>2069.75</ele>
</trkpt>
<trkpt lat="40.7409055" lon="44.7232285">
<ele>2063.5</ele>
</trkpt>
<trkpt lat="40.7411625" lon="44.7228575">
<ele>2059.0</ele>
</trkpt>
<trkpt lat="40.7412515" lon="44.7222435">
<ele>2058.75</ele>
</trkpt>
<trkpt lat="40.7411525" lon="44.7211595">
<ele>2057.5</ele>
</trkpt>
<trkpt lat="40.7409325" lon="44.7206075">
<ele>2059.75</ele>
</trkpt>
<trkpt lat="40.7406135" lon="44.7201275">
<ele>2062.5</ele>
</trkpt>
<trkpt lat="40.7403695" lon="44.7195945">
<ele>2074.25</ele>
</trkpt>
<trkpt lat="40.7403105" lon="44.7192235">
<ele>2079.0</ele>
</trkpt>
<trkpt lat="40.7403635" lon="44.7191155">
<ele>2077.25</ele>
</trkpt>
<trkpt lat="40.7405035" lon="44.7190425">
<ele>2072.0</ele>
</trkpt>
<trkpt lat="40.7406475" lon="44.7190275">
<ele>2066.75</ele>
</trkpt>
<trkpt lat="40.7407545" lon="44.7188985">
<ele>2062.75</ele>
</trkpt>
<trkpt lat="40.7407825" lon="44.7185075">
<ele>2061.5</ele>
</trkpt>
<trkpt lat="40.7408815" lon="44.7165355">
<ele>2067.25</ele>
</trkpt>
<trkpt lat="40.7409205" lon="44.7160715">
<ele>2071.25</ele>
</trkpt>
<trkpt lat="40.7408875" lon="44.7157735">
<ele>2074.5</ele>
</trkpt>
<trkpt lat="40.7411055" lon="44.7137755">
<ele>2086.25</ele>
</trkpt>
<trkpt lat="40.7411095" lon="44.7137265">
<ele>2086.25</ele>
</trkpt>
<trkpt lat="40.7411305" lon="44.7135555">
<ele>2086.5</ele>
</trkpt>
<trkpt lat="40.7411895" lon="44.7124805">
<ele>2080.25</ele>
</trkpt>
<trkpt lat="40.7413145" lon="44.7120615">
<ele>2078.25</ele>
</trkpt>
<trkpt lat="40.7414995" lon="44.7117025">
<ele>2074.75</ele>
</trkpt>
<trkpt lat="40.7415535" lon="44.7114425">
<ele>2071.0</ele>
</trkpt>
<trkpt lat="40.7413985" lon="44.7110335">
<ele>2067.0</ele>
</trkpt>
<trkpt lat="40.7414785" lon="44.7106975">
<ele>2061.5</ele>
</trkpt>
<trkpt lat="40.7417335" lon="44.7099795">
<ele>2053.0</ele>
</trkpt>
<trkpt lat="40.7415915" lon="44.7096205">
<ele>2044.25</ele>
</trkpt>
<trkpt lat="40.7416535" lon="44.7092885">
<ele>2039.5</ele>
</trkpt>
<trkpt lat="40.7415665" lon="44.7090295">
<ele>2035.75</ele>
</trkpt>
<trkpt lat="40.7415035" lon="44.7086815">
<ele>2030.75</ele>
</trkpt>
<trkpt lat="40.7411685" lon="44.7080965">
<ele>2014.25</ele>
</trkpt>
<trkpt lat="40.7412435" lon="44.7076935">
<ele>2005.25</ele>
</trkpt>
<trkpt lat="40.7414745" lon="44.7075165">
<ele>2006.0</ele>
</trkpt>
<trkpt lat="40.7419175" lon="44.7076155">
<ele>2016.5</ele>
</trkpt>
<trkpt lat="40.7420015" lon="44.7074395">
<ele>2012.5</ele>
</trkpt>
<trkpt lat="40.7422105" lon="44.7070355">
<ele>2000.25</ele>
</trkpt>
<trkpt lat="40.7424995" lon="44.7067765">
<ele>1994.0</ele>
</trkpt>
<trkpt lat="40.7426535" lon="44.7064445">
<ele>1984.5</ele>
</trkpt>
<trkpt lat="40.7428715" lon="44.7062405">
<ele>1981.5</ele>
</trkpt>
<trkpt lat="40.7430935" lon="44.7061635">
<ele>1983.0</ele>
</trkpt>
<trkpt lat="40.7434155" lon="44.7062465">
<ele>1992.75</ele>
</trkpt>
<trkpt lat="40.7435245" lon="44.7061025">
<ele>1991.75</ele>
</trkpt>
<trkpt lat="40.7434785" lon="44.7057765">
<ele>1982.5</ele>
</trkpt>
<trkpt lat="40.7432895" lon="44.7052355">
<ele>1974.5</ele>
</trkpt>
<trkpt lat="40.7431475" lon="44.7051635">
<ele>1969.0</ele>
</trkpt>
<trkpt lat="40.7428505" lon="44.7048765">
<ele>1958.25</ele>
</trkpt>
<trkpt lat="40.7425285" lon="44.7045065">
<ele>1952.25</ele>
</trkpt>
<trkpt lat="40.7423105" lon="44.7043905">
<ele>1946.25</ele>
</trkpt>
<trkpt lat="40.7418335" lon="44.7039435">
<ele>1931.5</ele>
</trkpt>
<trkpt lat="40.7417625" lon="44.7037335">
<ele>1928.75</ele>
</trkpt>
<trkpt lat="40.7418385" lon="44.7034135">
<ele>1933.75</ele>
</trkpt>
<trkpt lat="40.7418955" lon="44.7030775">
<ele>1941.25</ele>
</trkpt>
<trkpt lat="40.7418185" lon="44.7029155">
<ele>1939.25</ele>
</trkpt>
<trkpt lat="40.7416875" lon="44.7028115">
<ele>1933.25</ele>
</trkpt>
<trkpt lat="40.7414865" lon="44.7028225">
<ele>1926.0</ele>
</trkpt>
<trkpt lat="40.7412905" lon="44.7028215">
<ele>1920.0</ele>
</trkpt>
<trkpt lat="40.7411405" lon="44.7027375">
<ele>1916.75</ele>
</trkpt>
<trkpt lat="40.7410915" lon="44.7025395">
<ele>1919.0</ele>
</trkpt>
<trkpt lat="40.7410555" lon="44.7023145">
<ele>1923.25</ele>
</trkpt>
<trkpt lat="40.7409705" lon="44.7021455">
<ele>1925.0</ele>
</trkpt>
<trkpt lat="40.7407205" lon="44.7021155">
<ele>1921.25</ele>
</trkpt>
<trkpt lat="40.7404145" lon="44.7019905">
<ele>1924.5</ele>
</trkpt>
<trkpt lat="40.7403195" lon="44.7019995">
<ele>1924.25</ele>
</trkpt>
<trkpt lat="40.7402105" lon="44.7021925">
<ele>1916.5</ele>
</trkpt>
<trkpt lat="40.7400745" lon="44.7022825">
<ele>1912.0</ele>
</trkpt>
<trkpt lat="40.7396655" lon="44.7023235">
<ele>1907.5</ele>
</trkpt>
<trkpt lat="40.7392775" lon="44.7023255">
<ele>1905.0</ele>
</trkpt>
<trkpt lat="40.7387935" lon="44.7024095">
<ele>1900.0</ele>
</trkpt>
<trkpt lat="40.7383195" lon="44.7023195">
<ele>1903.5</ele>
</trkpt>
<trkpt lat="40.7375365" lon="44.7020765">
<ele>1895.5</ele>
</trkpt>
<trkpt lat="40.7372355" lon="44.7018175">
<ele>1893.75</ele>
</trkpt>
<trkpt lat="40.7368505" lon="44.7012985">
<ele>1888.0</ele>
</trkpt>
<trkpt lat="40.7369635" lon="44.7006745">
<ele>1898.0</ele>
</trkpt>
<trkpt lat="40.7368585" lon="44.7000835">
<ele>1894.5</ele>
</trkpt>
<trkpt lat="40.7366915" lon="44.6995475">
<ele>1886.25</ele>
</trkpt>
<trkpt lat="40.7366205" lon="44.6994865">
<ele>1883.5</ele>
</trkpt>
<trkpt lat="40.7365075" lon="44.6995645">
<ele>1880.25</ele>
</trkpt>
<trkpt lat="40.7364575" lon="44.6999565">
<ele>1879.5</ele>
</trkpt>
<trkpt lat="40.7362855" lon="44.7000505">
<ele>1873.5</ele>
</trkpt>
<trkpt lat="40.7360725" lon="44.6998625">
<ele>1866.25</ele>
</trkpt>
<trkpt lat="40.7358585" lon="44.6996245">
<ele>1859.5</ele>
</trkpt>
<trkpt lat="40.7356115" lon="44.6989955">
<ele>1851.25</ele>
</trkpt>
<trkpt lat="40.7357085" lon="44.6986635">
<ele>1848.75</ele>
</trkpt>
<trkpt lat="40.7358505" lon="44.6982605">
<ele>1846.5</ele>
</trkpt>
<trkpt lat="40.7361015" lon="44.6977305">
<ele>1848.75</ele>
</trkpt>
<trkpt lat="40.7360935" lon="44.6973495">
<ele>1844.0</ele>
</trkpt>
<trkpt lat="40.7362185" lon="44.6969525">
<ele>1844.25</ele>
</trkpt>
<trkpt lat="40.7361055" lon="44.6964495">
<ele>1832.5</ele>
</trkpt>
<trkpt lat="40.7361515" lon="44.6960465">
<ele>1829.0</ele>
</trkpt>
<trkpt lat="40.7361975" lon="44.6950195">
<ele>1817.25</ele>
</trkpt>
<trkpt lat="40.7362735" lon="44.6947765">
<ele>1815.5</ele>
</trkpt>
<trkpt lat="40.7363065" lon="44.6946835">
<ele>1811.0</ele>
</trkpt>
<trkpt lat="40.7364241" lon="44.6947584">
<ele>1824.033</ele>
</trkpt>
<trkpt lat="40.7363371" lon="44.6939354">
<ele>1801.003</ele>
</trkpt>
<trkpt lat="40.7362506" lon="44.6931205">
<ele>1784.857</ele>
</trkpt>
<trkpt lat="40.7361019" lon="44.6923133">
<ele>1777.862</ele>
</trkpt>
<trkpt lat="40.7359527" lon="44.6915123">
<ele>1770.304</ele>
</trkpt>
<trkpt lat="40.7355805" lon="44.6908484">
<ele>1766.956</ele>
</trkpt>
<trkpt lat="40.7351358" lon="44.6903666">
<ele>1761.29</ele>
</trkpt>
</trkseg>
<trkseg>
<extensions>
	<type>walk</type>
</extensions>
<trkpt lat="40.7351358" lon="44.6903666">
<ele>1761.29</ele>
</trkpt>
<trkpt lat="40.7351235" lon="44.6906065">
<ele>1760.75</ele>
</trkpt>
<trkpt lat="40.7356185" lon="44.6906435">
<ele>1765.5</ele>
</trkpt>
<trkpt lat="40.7357625" lon="44.6903685">
<ele>1765.75</ele>
</trkpt>
<trkpt lat="40.7352725" lon="44.6896675">
<ele>1759.75</ele>
</trkpt>
<trkpt lat="40.7348235" lon="44.6891635">
<ele>1754.5</ele>
</trkpt>
<trkpt lat="40.7350355" lon="44.6878505">
<ele>1754.75</ele>
</trkpt>
<trkpt lat="40.7354155" lon="44.6867565">
<ele>1758.25</ele>
</trkpt>
<trkpt lat="40.7355165" lon="44.6860325">
<ele>1761.5</ele>
</trkpt>
<trkpt lat="40.7347085" lon="44.6856935">
<ele>1755.0</ele>
</trkpt>
<trkpt lat="40.7345145" lon="44.6855125">
<ele>1753.5</ele>
</trkpt>
<trkpt lat="40.7338385" lon="44.6853615">
<ele>1747.5</ele>
</trkpt>
<trkpt lat="40.7339495" lon="44.6847125">
<ele>1747.75</ele>
</trkpt>
<trkpt lat="40.7339175" lon="44.6846455">
<ele>1747.25</ele>
</trkpt>
<trkpt lat="40.7338545" lon="44.6845145">
<ele>1745.75</ele>
</trkpt>
<trkpt lat="40.7337995" lon="44.6840835">
<ele>1743.75</ele>
</trkpt>
<trkpt lat="40.7330705" lon="44.6836695">
<ele>1737.25</ele>
</trkpt>
<trkpt lat="40.7329625" lon="44.6834955">
<ele>1736.25</ele>
</trkpt>
<trkpt lat="40.7327745" lon="44.6827025">
<ele>1737.75</ele>
</trkpt>
<trkpt lat="40.7327255" lon="44.6824725">
<ele>1738.0</ele>
</trkpt>
<trkpt lat="40.7327125" lon="44.6822065">
<ele>1737.5</ele>
</trkpt>
<trkpt lat="40.7328225" lon="44.6810505">
<ele>1738.0</ele>
</trkpt>
<trkpt lat="40.7333235" lon="44.6800965">
<ele>1741.75</ele>
</trkpt>
<trkpt lat="40.7340745" lon="44.6782285">
<ele>1744.5</ele>
</trkpt>
<trkpt lat="40.7341235" lon="44.6777205">
<ele>1741.75</ele>
</trkpt>
<trkpt lat="40.7343545" lon="44.6766255">
<ele>1736.5</ele>
</trkpt>
<trkpt lat="40.7344485" lon="44.6762635">
<ele>1735.75</ele>
</trkpt>
<trkpt lat="40.7346715" lon="44.6757785">
<ele>1735.0</ele>
</trkpt>
<trkpt lat="40.7349295" lon="44.6748285">
<ele>1737.25</ele>
</trkpt>
<trkpt lat="40.7350055" lon="44.6747155">
<ele>1738.0</ele>
</trkpt>
<trkpt lat="40.7350065" lon="44.6735685">
<ele>1740.0</ele>
</trkpt>
<trkpt lat="40.7350475" lon="44.6728655">
<ele>1741.75</ele>
</trkpt>
<trkpt lat="40.7349625" lon="44.6725985">
<ele>1741.5</ele>
</trkpt>
<trkpt lat="40.7352425" lon="44.6723085">
<ele>1743.75</ele>
</trkpt>
<trkpt lat="40.7353415" lon="44.6720965">
<ele>1745.0</ele>
</trkpt>
<trkpt lat="40.7354145" lon="44.6712485">
<ele>1747.75</ele>
</trkpt>
<trkpt lat="40.7354845" lon="44.6710085">
<ele>1749.0</ele>
</trkpt>
<trkpt lat="40.7355845" lon="44.6707255">
<ele>1750.0</ele>
</trkpt>
<trkpt lat="40.7353625" lon="44.6701495">
<ele>1748.5</ele>
</trkpt>
<trkpt lat="40.7351055" lon="44.6696585">
<ele>1746.25</ele>
</trkpt>
<trkpt lat="40.7350555" lon="44.6688645">
<ele>1744.75</ele>
</trkpt>
<trkpt lat="40.7346975" lon="44.6679485">
<ele>1740.75</ele>
</trkpt>
<trkpt lat="40.7346115" lon="44.6677825">
<ele>1739.75</ele>
</trkpt>
<trkpt lat="40.7345795" lon="44.6675715">
<ele>1739.0</ele>
</trkpt>
<trkpt lat="40.7339815" lon="44.6670785">
<ele>1732.75</ele>
</trkpt>
<trkpt lat="40.7334045" lon="44.6663315">
<ele>1727.25</ele>
</trkpt>
<trkpt lat="40.7333385" lon="44.6654895">
<ele>1726.5</ele>
</trkpt>
<trkpt lat="40.7331105" lon="44.6651965">
<ele>1725.25</ele>
</trkpt>
<trkpt lat="40.7328775" lon="44.6631015">
<ele>1722.0</ele>
</trkpt>
<trkpt lat="40.7326105" lon="44.6619515">
<ele>1721.75</ele>
</trkpt>
<trkpt lat="40.7318945" lon="44.6614095">
<ele>1716.25</ele>
</trkpt>
<trkpt lat="40.7315165" lon="44.6613215">
<ele>1713.75</ele>
</trkpt>
<trkpt lat="40.7313525" lon="44.6613015">
<ele>1713.5</ele>
</trkpt>
<trkpt lat="40.7312885" lon="44.6612565">
<ele>1713.5</ele>
</trkpt>
<trkpt lat="40.7312445" lon="44.6611455">
<ele>1713.75</ele>
</trkpt>
<trkpt lat="40.7310375" lon="44.6610095">
<ele>1714.0</ele>
</trkpt>
<trkpt lat="40.7307905" lon="44.6610075">
<ele>1714.0</ele>
</trkpt>
<trkpt lat="40.7300345" lon="44.6607305">
<ele>1721.5</ele>
</trkpt>
<trkpt lat="40.7287365" lon="44.6601935">
<ele>1728.75</ele>
</trkpt>
<trkpt lat="40.7282365" lon="44.6597025">
<ele>1735.25</ele>
</trkpt>
<trkpt lat="40.7274815" lon="44.6597165">
<ele>1742.0</ele>
</trkpt>
<trkpt lat="40.7259325" lon="44.6583395">
<ele>1762.0</ele>
</trkpt>
<trkpt lat="40.7253775" lon="44.6576585">
<ele>1771.5</ele>
</trkpt>
<trkpt lat="40.7240895" lon="44.6567505">
<ele>1787.75</ele>
</trkpt>
<trkpt lat="40.7237985" lon="44.6563615">
<ele>1793.75</ele>
</trkpt>
<trkpt lat="40.7221505" lon="44.6541645">
<ele>1827.0</ele>
</trkpt>
<trkpt lat="40.7222305" lon="44.6538005">
<ele>1830.0</ele>
</trkpt>
<trkpt lat="40.7221025" lon="44.6528315">
<ele>1838.5</ele>
</trkpt>
<trkpt lat="40.7223025" lon="44.6521865">
<ele>1842.5</ele>
</trkpt>
<trkpt lat="40.7218805" lon="44.6511315">
<ele>1856.75</ele>
</trkpt>
<trkpt lat="40.7212975" lon="44.6506335">
<ele>1866.75</ele>
</trkpt>
<trkpt lat="40.7209865" lon="44.6492855">
<ele>1882.75</ele>
</trkpt>
<trkpt lat="40.7202365" lon="44.6476665">
<ele>1905.75</ele>
</trkpt>
<trkpt lat="40.7197425" lon="44.6472445">
<ele>1909.5</ele>
</trkpt>
<trkpt lat="40.7195735" lon="44.6469835">
<ele>1913.25</ele>
</trkpt>
<trkpt lat="40.7193515" lon="44.6460525">
<ele>1923.5</ele>
</trkpt>
<trkpt lat="40.7194635" lon="44.6456125">
<ele>1928.0</ele>
</trkpt>
<trkpt lat="40.7196845" lon="44.6452475">
<ele>1933.0</ele>
</trkpt>
<trkpt lat="40.7197015" lon="44.6446535">
<ele>1940.25</ele>
</trkpt>
<trkpt lat="40.7192905" lon="44.6429905">
<ele>1967.75</ele>
</trkpt>
<trkpt lat="40.7189125" lon="44.6422145">
<ele>1980.0</ele>
</trkpt>
<trkpt lat="40.7190185" lon="44.6410785">
<ele>1997.25</ele>
</trkpt>
<trkpt lat="40.7189405" lon="44.6404055">
<ele>2008.25</ele>
</trkpt>
<trkpt lat="40.7191075" lon="44.6396725">
<ele>2022.0</ele>
</trkpt>
<trkpt lat="40.7192355" lon="44.6394895">
<ele>2026.75</ele>
</trkpt>
<trkpt lat="40.7196015" lon="44.6385445">
<ele>2046.0</ele>
</trkpt>
<trkpt lat="40.7206115" lon="44.6360975">
<ele>2097.0</ele>
</trkpt>
<trkpt lat="40.7209035" lon="44.6340955">
<ele>2140.25</ele>
</trkpt>
<trkpt lat="40.7217335" lon="44.6325085">
<ele>2190.5</ele>
</trkpt>
<trkpt lat="40.7219945" lon="44.6325965">
<ele>2191.5</ele>
</trkpt>
<trkpt lat="40.7222995" lon="44.6324795">
<ele>2197.25</ele>
</trkpt>
<trkpt lat="40.7221945" lon="44.6320395">
<ele>2207.0</ele>
</trkpt>
<trkpt lat="40.7222835" lon="44.6318345">
<ele>2212.25</ele>
</trkpt>
<trkpt lat="40.7227435" lon="44.6314245">
<ele>2217.25</ele>
</trkpt>
<trkpt lat="40.7225935" lon="44.6308525">
<ele>2235.75</ele>
</trkpt>
<trkpt lat="40.7227155" lon="44.6299375">
<ele>2262.5</ele>
</trkpt>
<trkpt lat="40.7222385" lon="44.6297545">
<ele>2276.5</ele>
</trkpt>
<trkpt lat="40.7227045" lon="44.6287135">
<ele>2303.0</ele>
</trkpt>
<trkpt lat="40.7211675" lon="44.6284945">
<ele>2331.75</ele>
</trkpt>
<trkpt lat="40.7222335" lon="44.6275495">
<ele>2354.0</ele>
</trkpt>
<trkpt lat="40.7216775" lon="44.6273295">
<ele>2368.25</ele>
</trkpt>
<trkpt lat="40.7218295" lon="44.6267155">
<ele>2381.75</ele>
</trkpt>
<trkpt lat="40.7217295" lon="44.6262925">
<ele>2392.75</ele>
</trkpt>
<trkpt lat="40.7215095" lon="44.6264855">
<ele>2393.5</ele>
</trkpt>
<trkpt lat="40.7215465" lon="44.6259495">
<ele>2404.75</ele>
</trkpt>
<trkpt lat="40.7212535" lon="44.6260785">
<ele>2410.0</ele>
</trkpt>
<trkpt lat="40.7212825" lon="44.6255845">
<ele>2419.25</ele>
</trkpt>
<trkpt lat="40.7211115" lon="44.6256435">
<ele>2423.75</ele>
</trkpt>
<trkpt lat="40.7210215" lon="44.6253115">
<ele>2433.0</ele>
</trkpt>
<trkpt lat="40.7208345" lon="44.6253705">
<ele>2438.75</ele>
</trkpt>
<trkpt lat="40.7207085" lon="44.6251875">
<ele>2445.75</ele>
</trkpt>
<trkpt lat="40.7205135" lon="44.6251555">
<ele>2451.0</ele>
</trkpt>
<trkpt lat="40.7205135" lon="44.6244525">
<ele>2465.25</ele>
</trkpt>
<trkpt lat="40.7204955" lon="44.6239595">
<ele>2470.75</ele>
</trkpt>
<trkpt lat="40.7202065" lon="44.6232415">
<ele>2476.5</ele>
</trkpt>
<trkpt lat="40.7188515" lon="44.6227585">
<ele>2488.0</ele>
</trkpt>
<trkpt lat="40.7177415" lon="44.6226555">
<ele>2504.75</ele>
</trkpt>
<trkpt lat="40.7167365" lon="44.6218205">
<ele>2502.5</ele>
</trkpt>
<trkpt lat="40.7153095" lon="44.6212645">
<ele>2502.5</ele>
</trkpt>
<trkpt lat="40.7142325" lon="44.6200115">
<ele>2480.0</ele>
</trkpt>
<trkpt lat="40.7127165" lon="44.6199825">
<ele>2487.75</ele>
</trkpt>
<trkpt lat="40.7103235" lon="44.6198065">
<ele>2496.25</ele>
</trkpt>
<trkpt lat="40.7090405" lon="44.6193225">
<ele>2486.0</ele>
</trkpt>
<trkpt lat="40.7078195" lon="44.6186045">
<ele>2489.25</ele>
</trkpt>
<trkpt lat="40.7074451" lon="44.6184942">
<ele>2489.644</ele>
</trkpt>
<trkpt lat="40.7061843" lon="44.6184942">
<ele>2533.635</ele>
</trkpt>
<trkpt lat="40.7049177" lon="44.6184942">
<ele>2568.202</ele>
</trkpt>
<trkpt lat="40.7036784" lon="44.6184039">
<ele>2609.717</ele>
</trkpt>
<trkpt lat="40.7024401" lon="44.6182984">
<ele>2638.192</ele>
</trkpt>
<trkpt lat="40.7011765" lon="44.6181777">
<ele>2678.562</ele>
</trkpt>
<trkpt lat="40.6999612" lon="44.6180265">
<ele>2709.295</ele>
</trkpt>
<trkpt lat="40.6986982" lon="44.6182067">
<ele>2747.064</ele>
</trkpt>
<trkpt lat="40.6974684" lon="44.6184772">
<ele>2799.582</ele>
</trkpt>
<trkpt lat="40.696219" lon="44.618705">
<ele>2860.742</ele>
</trkpt>
<trkpt lat="40.6950041" lon="44.6188865">
<ele>2923.796</ele>
</trkpt>
<trkpt lat="40.693715" lon="44.6189315">
<ele>3006.109</ele>
</trkpt>
<trkpt lat="40.6924517" lon="44.6189619">
<ele>3048.403</ele>
</trkpt>
<trkpt lat="40.6911878" lon="44.6189167">
<ele>3032.435</ele>
</trkpt>
<trkpt lat="40.6898735" lon="44.6188563">
<ele>3034.215</ele>
</trkpt>
<trkpt lat="40.6886085" lon="44.6188412">
<ele>3057.359</ele>
</trkpt>
<trkpt lat="40.6874179" lon="44.6189167">
<ele>3061.191</ele>
</trkpt>
<trkpt lat="40.6884587" lon="44.6158633">
<ele>3013.276</ele>
</trkpt>
<trkpt lat="40.6889543" lon="44.6125756">
<ele>2879.031</ele>
</trkpt>
<trkpt lat="40.6902456" lon="44.6097411">
<ele>2791.179</ele>
</trkpt>
<trkpt lat="40.6914333" lon="44.606877">
<ele>2827.291</ele>
</trkpt>
<trkpt lat="40.689636" lon="44.604699">
<ele>2746.495</ele>
</trkpt>
<trkpt lat="40.6874086" lon="44.6032558">
<ele>2705.846</ele>
</trkpt>
<trkpt lat="40.6850304" lon="44.6023839">
<ele>2700.552</ele>
</trkpt>
<trkpt lat="40.6824592" lon="44.6025657">
<ele>2710.884</ele>
</trkpt>
<trkpt lat="40.6802219" lon="44.6040189">
<ele>2704.623</ele>
</trkpt>
<trkpt lat="40.6781405" lon="44.6058282">
<ele>2657.813</ele>
</trkpt>
<trkpt lat="40.676159" lon="44.6078214">
<ele>2604.407</ele>
</trkpt>
<trkpt lat="40.6740768" lon="44.6095677">
<ele>2584.308</ele>
</trkpt>
<trkpt lat="40.6715931" lon="44.6094748">
<ele>2581.55</ele>
</trkpt>
<trkpt lat="40.6691215" lon="44.6088124">
<ele>2563.086</ele>
</trkpt>
<trkpt lat="40.6678622" lon="44.609438">
<ele>2524.905</ele>
</trkpt>
<trkpt lat="40.6665933" lon="44.609503">
<ele>2509.892</ele>
</trkpt>
<trkpt lat="40.6653283" lon="44.6094575">
<ele>2505.755</ele>
</trkpt>
<trkpt lat="40.664089" lon="44.6097293">
<ele>2507.396</ele>
</trkpt>
<trkpt lat="40.6628739" lon="44.6100908">
<ele>2506.478</ele>
</trkpt>
<trkpt lat="40.6616588" lon="44.6104379">
<ele>2473.208</ele>
</trkpt>
<trkpt lat="40.6604929" lon="44.6110716">
<ele>2436.995</ele>
</trkpt>
<trkpt lat="40.659377" lon="44.6117807">
<ele>2420.893</ele>
</trkpt>
<trkpt lat="40.6583108" lon="44.6127154">
<ele>2408.892</ele>
</trkpt>
<trkpt lat="40.6573435" lon="44.6137862">
<ele>2394.994</ele>
</trkpt>
<trkpt lat="40.6563776" lon="44.6149327">
<ele>2388.95</ele>
</trkpt>
<trkpt lat="40.6558547" lon="44.6164407">
<ele>2375.18</ele>
</trkpt>
<trkpt lat="40.6559536" lon="44.6181766">
<ele>2368.837</ele>
</trkpt>
<trkpt lat="40.6560779" lon="44.619866">
<ele>2366.225</ele>
</trkpt>
<trkpt lat="40.6558557" lon="44.6215656">
<ele>2359.425</ele>
</trkpt>
<trkpt lat="40.6554827" lon="44.6231543">
<ele>2358.395</ele>
</trkpt>
<trkpt lat="40.6550122" lon="44.6247848">
<ele>2338.282</ele>
</trkpt>
<trkpt lat="40.6544421" lon="44.626338">
<ele>2321.916</ele>
</trkpt>
<trkpt lat="40.6542427" lon="44.6271703">
<ele>2317.234</ele>
</trkpt>
<trkpt lat="40.6531707" lon="44.627957">
<ele>2302.189</ele>
</trkpt>
<trkpt lat="40.6521047" lon="44.6287561">
<ele>2292.31</ele>
</trkpt>
<trkpt lat="40.6512104" lon="44.6298885">
<ele>2285.137</ele>
</trkpt>
<trkpt lat="40.6509624" lon="44.6315177">
<ele>2275.681</ele>
</trkpt>
<trkpt lat="40.6503415" lon="44.6329225">
<ele>2266.397</ele>
</trkpt>
<trkpt lat="40.6501688" lon="44.6330263">
<ele>2265.105</ele>
</trkpt>
<trkpt lat="40.6498719" lon="44.6337342">
<ele>2262.599</ele>
</trkpt>
<trkpt lat="40.6498222" lon="44.6339983">
<ele>2264.913</ele>
</trkpt>
<trkpt lat="40.6477261" lon="44.6321798">
<ele>2316.823</ele>
</trkpt>
<trkpt lat="40.6454466" lon="44.6309154">
<ele>2403.909</ele>
</trkpt>
<trkpt lat="40.6430192" lon="44.6303441">
<ele>2516.046</ele>
</trkpt>
<trkpt lat="40.6405887" lon="44.6297402">
<ele>2664.077</ele>
</trkpt>
<trkpt lat="40.6381577" lon="44.6301016">
<ele>2663.081</ele>
</trkpt>
<trkpt lat="40.637162" lon="44.6303738">
<ele>2623.869</ele>
</trkpt>
<trkpt lat="40.6348768" lon="44.6317325">
<ele>2541.885</ele>
</trkpt>
<trkpt lat="40.6329457" lon="44.6337557">
<ele>2448.487</ele>
</trkpt>
<trkpt lat="40.6311124" lon="44.6359238">
<ele>2362.73</ele>
</trkpt>
<trkpt lat="40.6291228" lon="44.6379788">
<ele>2322.535</ele>
</trkpt>
<trkpt lat="40.6278862" lon="44.6394852">
<ele>2308.253</ele>
</trkpt>
<trkpt lat="40.6257552" lon="44.6412053">
<ele>2191.61</ele>
</trkpt>
<trkpt lat="40.6235748" lon="44.6430743">
<ele>2136.895</ele>
</trkpt>
<trkpt lat="40.621544" lon="44.645093">
<ele>2053.957</ele>
</trkpt>
<trkpt lat="40.6193607" lon="44.6467514">
<ele>1973.143</ele>
</trkpt>
<trkpt lat="40.6170769" lon="44.6478987">
<ele>1946.833</ele>
</trkpt>
<trkpt lat="40.6148941" lon="44.6494079">
<ele>1918.076</ele>
</trkpt>
<trkpt lat="40.6125595" lon="44.6505849">
<ele>1842.86</ele>
</trkpt>
<trkpt lat="40.6097847" lon="44.6507684">
<ele>1815.985</ele>
</trkpt>
<trkpt lat="40.607216" lon="44.6507674">
<ele>1796.525</ele>
</trkpt>
</trkseg>
<trkseg>
<extensions>
	<type>drive</type>
</extensions>
<trkpt lat="40.6073335" lon="44.6503215">
<ele>1796.25</ele>
</trkpt>
<trkpt lat="40.6072015" lon="44.6502605">
<ele>1795.25</ele>
</trkpt>
<trkpt lat="40.6067475" lon="44.6501425">
<ele>1792.0</ele>
</trkpt>
<trkpt lat="40.6065725" lon="44.6500675">
<ele>1790.5</ele>
</trkpt>
<trkpt lat="40.6062455" lon="44.6498745">
<ele>1787.75</ele>
</trkpt>
<trkpt lat="40.6059915" lon="44.6497655">
<ele>1785.5</ele>
</trkpt>
<trkpt lat="40.6057045" lon="44.6495605">
<ele>1783.0</ele>
</trkpt>
<trkpt lat="40.6053965" lon="44.6491165">
<ele>1780.25</ele>
</trkpt>
<trkpt lat="40.6045845" lon="44.6484355">
<ele>1775.25</ele>
</trkpt>
<trkpt lat="40.6046665" lon="44.6481925">
<ele>1774.75</ele>
</trkpt>
<trkpt lat="40.6048715" lon="44.6471985">
<ele>1772.75</ele>
</trkpt>
<trkpt lat="40.6050235" lon="44.6464035">
<ele>1774.25</ele>
</trkpt>
<trkpt lat="40.6053655" lon="44.6447625">
<ele>1776.25</ele>
</trkpt>
<trkpt lat="40.6054515" lon="44.6442915">
<ele>1777.75</ele>
</trkpt>
<trkpt lat="40.6055225" lon="44.6438725">
<ele>1779.0</ele>
</trkpt>
<trkpt lat="40.6056375" lon="44.6434485">
<ele>1780.25</ele>
</trkpt>
<trkpt lat="40.6056875" lon="44.6432955">
<ele>1780.75</ele>
</trkpt>
<trkpt lat="40.6058995" lon="44.6425465">
<ele>1783.0</ele>
</trkpt>
<trkpt lat="40.6061685" lon="44.6416235">
<ele>1779.5</ele>
</trkpt>
<trkpt lat="40.6063895" lon="44.6408625">
<ele>1778.25</ele>
</trkpt>
<trkpt lat="40.6066005" lon="44.6403705">
<ele>1777.5</ele>
</trkpt>
<trkpt lat="40.6069935" lon="44.6394525">
<ele>1777.5</ele>
</trkpt>
<trkpt lat="40.6070305" lon="44.6393655">
<ele>1777.5</ele>
</trkpt>
<trkpt lat="40.6073455" lon="44.6384765">
<ele>1776.5</ele>
</trkpt>
<trkpt lat="40.6074835" lon="44.6377615">
<ele>1776.0</ele>
</trkpt>
<trkpt lat="40.6075695" lon="44.6371935">
<ele>1778.0</ele>
</trkpt>
<trkpt lat="40.6075235" lon="44.6366685">
<ele>1778.25</ele>
</trkpt>
<trkpt lat="40.6074315" lon="44.6356045">
<ele>1779.0</ele>
</trkpt>
<trkpt lat="40.6073165" lon="44.6342765">
<ele>1781.75</ele>
</trkpt>
<trkpt lat="40.6072915" lon="44.6338925">
<ele>1780.75</ele>
</trkpt>
<trkpt lat="40.6072205" lon="44.6328095">
<ele>1778.0</ele>
</trkpt>
<trkpt lat="40.6071335" lon="44.6314915">
<ele>1781.0</ele>
</trkpt>
<trkpt lat="40.6070625" lon="44.6304005">
<ele>1782.5</ele>
</trkpt>
<trkpt lat="40.6070425" lon="44.6302725">
<ele>1782.5</ele>
</trkpt>
<trkpt lat="40.6069925" lon="44.6299565">
<ele>1782.25</ele>
</trkpt>
<trkpt lat="40.6069685" lon="44.6293825">
<ele>1783.5</ele>
</trkpt>
<trkpt lat="40.6069175" lon="44.6263035">
<ele>1787.5</ele>
</trkpt>
<trkpt lat="40.6069775" lon="44.6258795">
<ele>1787.0</ele>
</trkpt>
<trkpt lat="40.6070915" lon="44.6254565">
<ele>1787.25</ele>
</trkpt>
<trkpt lat="40.6073425" lon="44.6247155">
<ele>1788.5</ele>
</trkpt>
<trkpt lat="40.6077945" lon="44.6234665">
<ele>1789.5</ele>
</trkpt>
<trkpt lat="40.6078175" lon="44.6233195">
<ele>1789.25</ele>
</trkpt>
<trkpt lat="40.6075495" lon="44.6214185">
<ele>1792.0</ele>
</trkpt>
<trkpt lat="40.6069225" lon="44.6169815">
<ele>1794.75</ele>
</trkpt>
<trkpt lat="40.6065445" lon="44.6143055">
<ele>1798.5</ele>
</trkpt>
<trkpt lat="40.6064995" lon="44.6140205">
<ele>1797.75</ele>
</trkpt>
<trkpt lat="40.6066015" lon="44.6138385">
<ele>1798.0</ele>
</trkpt>
<trkpt lat="40.6067855" lon="44.6134655">
<ele>1799.0</ele>
</trkpt>
<trkpt lat="40.6062935" lon="44.6131625">
<ele>1793.75</ele>
</trkpt>
<trkpt lat="40.6056995" lon="44.6129695">
<ele>1789.25</ele>
</trkpt>
<trkpt lat="40.6054425" lon="44.6128585">
<ele>1788.75</ele>
</trkpt>
<trkpt lat="40.6051595" lon="44.6126975">
<ele>1788.0</ele>
</trkpt>
<trkpt lat="40.6049945" lon="44.6126625">
<ele>1788.0</ele>
</trkpt>
<trkpt lat="40.6047935" lon="44.6126875">
<ele>1788.0</ele>
</trkpt>
<trkpt lat="40.6045235" lon="44.6127715">
<ele>1788.0</ele>
</trkpt>
<trkpt lat="40.6040715" lon="44.6129645">
<ele>1788.25</ele>
</trkpt>
<trkpt lat="40.6030995" lon="44.6115215">
<ele>1795.0</ele>
</trkpt>
<trkpt lat="40.6028685" lon="44.6113675">
<ele>1797.25</ele>
</trkpt>
<trkpt lat="40.6020345" lon="44.6109685">
<ele>1800.5</ele>
</trkpt>
<trkpt lat="40.6013865" lon="44.6109565">
<ele>1799.5</ele>
</trkpt>
<trkpt lat="40.6010615" lon="44.6107425">
<ele>1801.75</ele>
</trkpt>
<trkpt lat="40.6005825" lon="44.6106005">
<ele>1803.0</ele>
</trkpt>
<trkpt lat="40.6001305" lon="44.6105795">
<ele>1802.75</ele>
</trkpt>
<trkpt lat="40.5997295" lon="44.6104365">
<ele>1804.0</ele>
</trkpt>
<trkpt lat="40.5992975" lon="44.6099765">
<ele>1804.25</ele>
</trkpt>
<trkpt lat="40.5989095" lon="44.6094525">
<ele>1806.75</ele>
</trkpt>
<trkpt lat="40.5973705" lon="44.6064165">
<ele>1816.25</ele>
</trkpt>
<trkpt lat="40.5969125" lon="44.6053055">
<ele>1819.25</ele>
</trkpt>
<trkpt lat="40.5969465" lon="44.6049985">
<ele>1818.25</ele>
</trkpt>
<trkpt lat="40.5973245" lon="44.6045965">
<ele>1821.75</ele>
</trkpt>
<trkpt lat="40.5976795" lon="44.6045065">
<ele>1830.25</ele>
</trkpt>
<trkpt lat="40.5973355" lon="44.6035795">
<ele>1831.75</ele>
</trkpt>
<trkpt lat="40.5969325" lon="44.6027545">
<ele>1831.75</ele>
</trkpt>
<trkpt lat="40.5968315" lon="44.6024555">
<ele>1831.75</ele>
</trkpt>
<trkpt lat="40.5966895" lon="44.6021745">
<ele>1831.0</ele>
</trkpt>
<trkpt lat="40.5960075" lon="44.6010395">
<ele>1834.0</ele>
</trkpt>
<trkpt lat="40.5953655" lon="44.6002535">
<ele>1843.0</ele>
</trkpt>
<trkpt lat="40.5950875" lon="44.6001655">
<ele>1841.75</ele>
</trkpt>
<trkpt lat="40.5948335" lon="44.6000305">
<ele>1843.25</ele>
</trkpt>
<trkpt lat="40.5946655" lon="44.5999155">
<ele>1845.0</ele>
</trkpt>
<trkpt lat="40.5944225" lon="44.5997065">
<ele>1846.5</ele>
</trkpt>
<trkpt lat="40.5943295" lon="44.5995775">
<ele>1846.25</ele>
</trkpt>
<trkpt lat="40.5941255" lon="44.5992295">
<ele>1843.75</ele>
</trkpt>
<trkpt lat="40.5940235" lon="44.5990795">
<ele>1845.25</ele>
</trkpt>
<trkpt lat="40.5936715" lon="44.5987625">
<ele>1848.75</ele>
</trkpt>
<trkpt lat="40.5933555" lon="44.5982695">
<ele>1847.0</ele>
</trkpt>
<trkpt lat="40.5932825" lon="44.5981265">
<ele>1849.5</ele>
</trkpt>
<trkpt lat="40.5932335" lon="44.5980785">
<ele>1850.75</ele>
</trkpt>
<trkpt lat="40.5931115" lon="44.5980225">
<ele>1852.75</ele>
</trkpt>
<trkpt lat="40.5930175" lon="44.5980145">
<ele>1853.75</ele>
</trkpt>
<trkpt lat="40.5929195" lon="44.5980245">
<ele>1854.75</ele>
</trkpt>
<trkpt lat="40.5928745" lon="44.5980145">
<ele>1855.25</ele>
</trkpt>
<trkpt lat="40.5928095" lon="44.5979575">
<ele>1855.25</ele>
</trkpt>
<trkpt lat="40.5925205" lon="44.5975215">
<ele>1848.5</ele>
</trkpt>
<trkpt lat="40.5923015" lon="44.5970615">
<ele>1854.5</ele>
</trkpt>
<trkpt lat="40.5921795" lon="44.5966495">
<ele>1855.25</ele>
</trkpt>
<trkpt lat="40.5920755" lon="44.5964895">
<ele>1857.25</ele>
</trkpt>
<trkpt lat="40.5919425" lon="44.5963235">
<ele>1858.25</ele>
</trkpt>
<trkpt lat="40.5917335" lon="44.5960915">
<ele>1857.25</ele>
</trkpt>
<trkpt lat="40.5915735" lon="44.5958395">
<ele>1858.0</ele>
</trkpt>
<trkpt lat="40.5915025" lon="44.5955885">
<ele>1861.25</ele>
</trkpt>
<trkpt lat="40.5913815" lon="44.5952045">
<ele>1864.5</ele>
</trkpt>
<trkpt lat="40.5913445" lon="44.5951155">
<ele>1865.0</ele>
</trkpt>
<trkpt lat="40.5912615" lon="44.5950535">
<ele>1864.75</ele>
</trkpt>
<trkpt lat="40.5910425" lon="44.5949425">
<ele>1863.5</ele>
</trkpt>
<trkpt lat="40.5909495" lon="44.5948325">
<ele>1863.25</ele>
</trkpt>
<trkpt lat="40.5908895" lon="44.5947105">
<ele>1863.5</ele>
</trkpt>
<trkpt lat="40.5907875" lon="44.5941585">
<ele>1867.25</ele>
</trkpt>
<trkpt lat="40.5901395" lon="44.5930665">
<ele>1875.0</ele>
</trkpt>
<trkpt lat="40.5900005" lon="44.5927475">
<ele>1876.5</ele>
</trkpt>
<trkpt lat="40.5896455" lon="44.5922815">
<ele>1883.5</ele>
</trkpt>
<trkpt lat="40.5885895" lon="44.5909565">
<ele>1884.0</ele>
</trkpt>
<trkpt lat="40.5884825" lon="44.5907175">
<ele>1883.0</ele>
</trkpt>
<trkpt lat="40.5879595" lon="44.5895425">
<ele>1898.75</ele>
</trkpt>
<trkpt lat="40.5875525" lon="44.5882915">
<ele>1903.0</ele>
</trkpt>
<trkpt lat="40.5876125" lon="44.5876295">
<ele>1906.75</ele>
</trkpt>
<trkpt lat="40.5875675" lon="44.5870115">
<ele>1910.75</ele>
</trkpt>
<trkpt lat="40.5875105" lon="44.5868935">
<ele>1909.75</ele>
</trkpt>
<trkpt lat="40.5870275" lon="44.5858825">
<ele>1914.25</ele>
</trkpt>
<trkpt lat="40.5869485" lon="44.5856635">
<ele>1914.0</ele>
</trkpt>
<trkpt lat="40.5869315" lon="44.5855705">
<ele>1914.25</ele>
</trkpt>
<trkpt lat="40.5869275" lon="44.5854885">
<ele>1914.75</ele>
</trkpt>
<trkpt lat="40.5869285" lon="44.5849045">
<ele>1920.25</ele>
</trkpt>
<trkpt lat="40.5869035" lon="44.5846375">
<ele>1921.75</ele>
</trkpt>
<trkpt lat="40.5868435" lon="44.5844685">
<ele>1921.0</ele>
</trkpt>
<trkpt lat="40.5866785" lon="44.5840985">
<ele>1917.5</ele>
</trkpt>
<trkpt lat="40.5864925" lon="44.5837595">
<ele>1922.0</ele>
</trkpt>
<trkpt lat="40.5863635" lon="44.5835675">
<ele>1923.25</ele>
</trkpt>
<trkpt lat="40.5861745" lon="44.5834595">
<ele>1922.5</ele>
</trkpt>
<trkpt lat="40.5856625" lon="44.5833235">
<ele>1919.0</ele>
</trkpt>
<trkpt lat="40.5853475" lon="44.5833545">
<ele>1918.5</ele>
</trkpt>
<trkpt lat="40.5850915" lon="44.5832915">
<ele>1919.5</ele>
</trkpt>
<trkpt lat="40.5848365" lon="44.5831775">
<ele>1923.25</ele>
</trkpt>
<trkpt lat="40.5847905" lon="44.5831205">
<ele>1924.75</ele>
</trkpt>
<trkpt lat="40.5847225" lon="44.5830565">
<ele>1926.5</ele>
</trkpt>
<trkpt lat="40.5846055" lon="44.5830065">
<ele>1927.0</ele>
</trkpt>
<trkpt lat="40.5845405" lon="44.5829935">
<ele>1926.75</ele>
</trkpt>
<trkpt lat="40.5843215" lon="44.5829115">
<ele>1926.25</ele>
</trkpt>
<trkpt lat="40.5842315" lon="44.5828275">
<ele>1926.75</ele>
</trkpt>
<trkpt lat="40.5841055" lon="44.5827815">
<ele>1926.5</ele>
</trkpt>
<trkpt lat="40.5839915" lon="44.5827145">
<ele>1927.5</ele>
</trkpt>
<trkpt lat="40.5836475" lon="44.5822065">
<ele>1932.75</ele>
</trkpt>
<trkpt lat="40.5835605" lon="44.5821785">
<ele>1932.0</ele>
</trkpt>
<trkpt lat="40.5835175" lon="44.5821395">
<ele>1932.0</ele>
</trkpt>
<trkpt lat="40.5834185" lon="44.5820465">
<ele>1931.75</ele>
</trkpt>
<trkpt lat="40.5832905" lon="44.5819825">
<ele>1931.0</ele>
</trkpt>
<trkpt lat="40.5831245" lon="44.5819275">
<ele>1932.0</ele>
</trkpt>
<trkpt lat="40.5830365" lon="44.5818785">
<ele>1932.5</ele>
</trkpt>
<trkpt lat="40.5829265" lon="44.5817475">
<ele>1933.5</ele>
</trkpt>
<trkpt lat="40.5826185" lon="44.5813105">
<ele>1935.75</ele>
</trkpt>
<trkpt lat="40.5826185" lon="44.5813105">
<ele>1935.75</ele>
</trkpt>
<trkpt lat="40.5825725" lon="44.5808235">
<ele>1937.75</ele>
</trkpt>
<trkpt lat="40.5826125" lon="44.5805105">
<ele>1940.5</ele>
</trkpt>
<trkpt lat="40.5826185" lon="44.5803715">
<ele>1941.75</ele>
</trkpt>
<trkpt lat="40.5826105" lon="44.5803185">
<ele>1942.0</ele>
</trkpt>
<trkpt lat="40.5825925" lon="44.5802255">
<ele>1942.5</ele>
</trkpt>
<trkpt lat="40.5825945" lon="44.5801225">
<ele>1943.5</ele>
</trkpt>
<trkpt lat="40.5826335" lon="44.5800315">
<ele>1944.25</ele>
</trkpt>
<trkpt lat="40.5827445" lon="44.5798605">
<ele>1947.0</ele>
</trkpt>
<trkpt lat="40.5828145" lon="44.5797245">
<ele>1948.75</ele>
</trkpt>
<trkpt lat="40.5828375" lon="44.5796265">
<ele>1949.75</ele>
</trkpt>
<trkpt lat="40.5828665" lon="44.5794565">
<ele>1951.5</ele>
</trkpt>
<trkpt lat="40.5829455" lon="44.5791755">
<ele>1953.25</ele>
</trkpt>
<trkpt lat="40.5829545" lon="44.5789435">
<ele>1955.5</ele>
</trkpt>
<trkpt lat="40.5829455" lon="44.5788545">
<ele>1956.5</ele>
</trkpt>
<trkpt lat="40.5829625" lon="44.5787325">
<ele>1957.5</ele>
</trkpt>
<trkpt lat="40.5830135" lon="44.5785255">
<ele>1958.75</ele>
</trkpt>
<trkpt lat="40.5830305" lon="44.5783515">
<ele>1960.25</ele>
</trkpt>
<trkpt lat="40.5830185" lon="44.5782705">
<ele>1961.0</ele>
</trkpt>
<trkpt lat="40.5829585" lon="44.5780805">
<ele>1962.5</ele>
</trkpt>
<trkpt lat="40.5827985" lon="44.5778055">
<ele>1963.5</ele>
</trkpt>
<trkpt lat="40.5826405" lon="44.5773305">
<ele>1962.25</ele>
</trkpt>
<trkpt lat="40.5824845" lon="44.5769585">
<ele>1960.25</ele>
</trkpt>
<trkpt lat="40.5820905" lon="44.5764885">
<ele>1967.0</ele>
</trkpt>
<trkpt lat="40.5817805" lon="44.5759325">
<ele>1968.25</ele>
</trkpt>
<trkpt lat="40.5814685" lon="44.5755765">
<ele>1975.5</ele>
</trkpt>
<trkpt lat="40.5811705" lon="44.5753705">
<ele>1977.75</ele>
</trkpt>
<trkpt lat="40.5808195" lon="44.5749695">
<ele>1973.0</ele>
</trkpt>
<trkpt lat="40.5807405" lon="44.5748575">
<ele>1977.25</ele>
</trkpt>
<trkpt lat="40.5806155" lon="44.5746035">
<ele>1983.5</ele>
</trkpt>
<trkpt lat="40.5802325" lon="44.5741885">
<ele>1984.25</ele>
</trkpt>
<trkpt lat="40.5795755" lon="44.5736385">
<ele>1994.75</ele>
</trkpt>
<trkpt lat="40.5794915" lon="44.5735325">
<ele>1995.0</ele>
</trkpt>
<trkpt lat="40.5793605" lon="44.5733415">
<ele>1994.0</ele>
</trkpt>
<trkpt lat="40.5792245" lon="44.5732775">
<ele>1994.25</ele>
</trkpt>
<trkpt lat="40.5791405" lon="44.5732895">
<ele>1993.25</ele>
</trkpt>
<trkpt lat="40.5788845" lon="44.5734235">
<ele>1995.5</ele>
</trkpt>
<trkpt lat="40.5787185" lon="44.5734315">
<ele>1997.75</ele>
</trkpt>
<trkpt lat="40.5785255" lon="44.5733355">
<ele>2000.0</ele>
</trkpt>
<trkpt lat="40.5783665" lon="44.5733855">
<ele>2002.25</ele>
</trkpt>
<trkpt lat="40.5781915" lon="44.5734205">
<ele>2005.75</ele>
</trkpt>
<trkpt lat="40.5779605" lon="44.5736895">
<ele>2008.5</ele>
</trkpt>
<trkpt lat="40.5776655" lon="44.5738945">
<ele>2010.5</ele>
</trkpt>
<trkpt lat="40.5775865" lon="44.5739095">
<ele>2011.25</ele>
</trkpt>
<trkpt lat="40.5775105" lon="44.5738635">
<ele>2013.25</ele>
</trkpt>
<trkpt lat="40.5772285" lon="44.5735045">
<ele>2022.5</ele>
</trkpt>
<trkpt lat="40.5771135" lon="44.5732775">
<ele>2025.25</ele>
</trkpt>
<trkpt lat="40.5770875" lon="44.5730925">
<ele>2027.25</ele>
</trkpt>
<trkpt lat="40.5771385" lon="44.5727675">
<ele>2030.75</ele>
</trkpt>
<trkpt lat="40.5771205" lon="44.5725245">
<ele>2033.25</ele>
</trkpt>
<trkpt lat="40.5772115" lon="44.5720135">
<ele>2038.5</ele>
</trkpt>
<trkpt lat="40.5770805" lon="44.5719105">
<ele>2038.75</ele>
</trkpt>
<trkpt lat="40.5769475" lon="44.5717395">
<ele>2039.25</ele>
</trkpt>
<trkpt lat="40.5768135" lon="44.5716155">
<ele>2039.75</ele>
</trkpt>
<trkpt lat="40.5767035" lon="44.5713825">
<ele>2043.5</ele>
</trkpt>
<trkpt lat="40.5766015" lon="44.5712945">
<ele>2046.25</ele>
</trkpt>
<trkpt lat="40.5763995" lon="44.5713495">
<ele>2049.25</ele>
</trkpt>
<trkpt lat="40.5754365" lon="44.5709235">
<ele>2078.25</ele>
</trkpt>
<trkpt lat="40.5751505" lon="44.5711765">
<ele>2085.5</ele>
</trkpt>
<trkpt lat="40.5750025" lon="44.5715705">
<ele>2086.75</ele>
</trkpt>
<trkpt lat="40.5748805" lon="44.5718125">
<ele>2088.25</ele>
</trkpt>
<trkpt lat="40.5745285" lon="44.5718365">
<ele>2095.25</ele>
</trkpt>
<trkpt lat="40.5741615" lon="44.5717025">
<ele>2105.25</ele>
</trkpt>
<trkpt lat="40.5737905" lon="44.5714085">
<ele>2113.0</ele>
</trkpt>
<trkpt lat="40.5731475" lon="44.5708385">
<ele>2128.0</ele>
</trkpt>
<trkpt lat="40.5727105" lon="44.5705465">
<ele>2138.75</ele>
</trkpt>
<trkpt lat="40.5722095" lon="44.5703525">
<ele>2146.25</ele>
</trkpt>
<trkpt lat="40.5716675" lon="44.5697995">
<ele>2158.5</ele>
</trkpt>
<trkpt lat="40.5714055" lon="44.5692625">
<ele>2156.75</ele>
</trkpt>
<trkpt lat="40.5711935" lon="44.5678495">
<ele>2159.75</ele>
</trkpt>
<trkpt lat="40.5709015" lon="44.5657975">
<ele>2165.5</ele>
</trkpt>
<trkpt lat="40.5707095" lon="44.5652895">
<ele>2163.25</ele>
</trkpt>
<trkpt lat="40.5705025" lon="44.5642185">
<ele>2164.75</ele>
</trkpt>
<trkpt lat="40.5704605" lon="44.5637885">
<ele>2166.25</ele>
</trkpt>
<trkpt lat="40.5703475" lon="44.5634075">
<ele>2165.5</ele>
</trkpt>
<trkpt lat="40.5703625" lon="44.5632045">
<ele>2167.75</ele>
</trkpt>
<trkpt lat="40.5703325" lon="44.5630675">
<ele>2168.25</ele>
</trkpt>
<trkpt lat="40.5701175" lon="44.5628915">
<ele>2164.5</ele>
</trkpt>
<trkpt lat="40.5698485" lon="44.5622785">
<ele>2168.25</ele>
</trkpt>
<trkpt lat="40.5695745" lon="44.5623285">
<ele>2166.25</ele>
</trkpt>
<trkpt lat="40.5694295" lon="44.5624865">
<ele>2162.0</ele>
</trkpt>
<trkpt lat="40.5692475" lon="44.5625115">
<ele>2160.25</ele>
</trkpt>
<trkpt lat="40.5686715" lon="44.5603085">
<ele>2202.75</ele>
</trkpt>
<trkpt lat="40.5684545" lon="44.5597615">
<ele>2215.75</ele>
</trkpt>
<trkpt lat="40.5677475" lon="44.5591715">
<ele>2234.75</ele>
</trkpt>
<trkpt lat="40.5656145" lon="44.5564735">
<ele>2284.75</ele>
</trkpt>
<trkpt lat="40.5644605" lon="44.5543175">
<ele>2298.75</ele>
</trkpt>
<trkpt lat="40.5635065" lon="44.5519295">
<ele>2322.25</ele>
</trkpt>
<trkpt lat="40.5634355" lon="44.5512625">
<ele>2331.75</ele>
</trkpt>
<trkpt lat="40.5631225" lon="44.5502575">
<ele>2343.25</ele>
</trkpt>
<trkpt lat="40.5628935" lon="44.5497985">
<ele>2348.25</ele>
</trkpt>
<trkpt lat="40.5627365" lon="44.5491735">
<ele>2358.75</ele>
</trkpt>
<trkpt lat="40.5626295" lon="44.5488395">
<ele>2361.25</ele>
</trkpt>
<trkpt lat="40.5624765" lon="44.5483355">
<ele>2364.5</ele>
</trkpt>
<trkpt lat="40.5625575" lon="44.5479195">
<ele>2371.75</ele>
</trkpt>
<trkpt lat="40.5625945" lon="44.5477265">
<ele>2375.25</ele>
</trkpt>
<trkpt lat="40.5625535" lon="44.5476555">
<ele>2374.75</ele>
</trkpt>
<trkpt lat="40.5625175" lon="44.5475955">
<ele>2374.25</ele>
</trkpt>
<trkpt lat="40.5619875" lon="44.5472325">
<ele>2373.75</ele>
</trkpt>
<trkpt lat="40.5617735" lon="44.5467815">
<ele>2380.5</ele>
</trkpt>
<trkpt lat="40.5615995" lon="44.5460245">
<ele>2396.75</ele>
</trkpt>
<trkpt lat="40.5614565" lon="44.5457585">
<ele>2401.75</ele>
</trkpt>
<trkpt lat="40.5612765" lon="44.5452105">
<ele>2410.5</ele>
</trkpt>
<trkpt lat="40.5609295" lon="44.5439365">
<ele>2428.75</ele>
</trkpt>
<trkpt lat="40.5608085" lon="44.5434035">
<ele>2437.5</ele>
</trkpt>
<trkpt lat="40.5606335" lon="44.5432865">
<ele>2441.5</ele>
</trkpt>
<trkpt lat="40.5597835" lon="44.5433745">
<ele>2450.0</ele>
</trkpt>
<trkpt lat="40.5586505" lon="44.5440555">
<ele>2469.25</ele>
</trkpt>
<trkpt lat="40.5578355" lon="44.5448505">
<ele>2490.5</ele>
</trkpt>
<trkpt lat="40.5575255" lon="44.5449845">
<ele>2499.25</ele>
</trkpt>
<trkpt lat="40.5570605" lon="44.5449965">
<ele>2513.5</ele>
</trkpt>
<trkpt lat="40.5567485" lon="44.5448795">
<ele>2523.5</ele>
</trkpt>
<trkpt lat="40.5565015" lon="44.5446315">
<ele>2526.5</ele>
</trkpt>
<trkpt lat="40.5563835" lon="44.5444355">
<ele>2528.0</ele>
</trkpt>
<trkpt lat="40.5559425" lon="44.5431225">
<ele>2545.25</ele>
</trkpt>
<trkpt lat="40.5556565" lon="44.5422855">
<ele>2558.5</ele>
</trkpt>
<trkpt lat="40.5551075" lon="44.5413985">
<ele>2575.25</ele>
</trkpt>
<trkpt lat="40.5544145" lon="44.5407235">
<ele>2588.25</ele>
</trkpt>
<trkpt lat="40.5537765" lon="44.5396745">
<ele>2608.0</ele>
</trkpt>
<trkpt lat="40.5538665" lon="44.5396215">
<ele>2608.5</ele>
</trkpt>
<trkpt lat="40.5537935" lon="44.5392925">
<ele>2613.5</ele>
</trkpt>
<trkpt lat="40.5537585" lon="44.5388855">
<ele>2613.25</ele>
</trkpt>
<trkpt lat="40.5532415" lon="44.5388335">
<ele>2615.25</ele>
</trkpt>
<trkpt lat="40.5512255" lon="44.5383025">
<ele>2625.0</ele>
</trkpt>
<trkpt lat="40.5507985" lon="44.5383235">
<ele>2626.0</ele>
</trkpt>
<trkpt lat="40.5504275" lon="44.5385915">
<ele>2622.25</ele>
</trkpt>
<trkpt lat="40.5494985" lon="44.5386065">
<ele>2603.75</ele>
</trkpt>
<trkpt lat="40.5488655" lon="44.5386065">
<ele>2591.5</ele>
</trkpt>
<trkpt lat="40.5482095" lon="44.5383415">
<ele>2575.0</ele>
</trkpt>
<trkpt lat="40.5479565" lon="44.5384365">
<ele>2582.25</ele>
</trkpt>
<trkpt lat="40.5477965" lon="44.5382405">
<ele>2577.25</ele>
</trkpt>
<trkpt lat="40.5457755" lon="44.5369835">
<ele>2561.75</ele>
</trkpt>
<trkpt lat="40.5453385" lon="44.5365725">
<ele>2556.75</ele>
</trkpt>
<trkpt lat="40.5450925" lon="44.5361655">
<ele>2551.0</ele>
</trkpt>
<trkpt lat="40.5438285" lon="44.5348485">
<ele>2540.75</ele>
</trkpt>
<trkpt lat="40.5429205" lon="44.5341365">
<ele>2524.5</ele>
</trkpt>
<trkpt lat="40.5426995" lon="44.5338395">
<ele>2514.0</ele>
</trkpt>
<trkpt lat="40.5423165" lon="44.5328205">
<ele>2488.5</ele>
</trkpt>
<trkpt lat="40.5419135" lon="44.5318465">
<ele>2467.25</ele>
</trkpt>
<trkpt lat="40.5417275" lon="44.5310855">
<ele>2454.75</ele>
</trkpt>
<trkpt lat="40.5415555" lon="44.5305825">
<ele>2446.5</ele>
</trkpt>
<trkpt lat="40.5411585" lon="44.5300015">
<ele>2439.25</ele>
</trkpt>
<trkpt lat="40.5409135" lon="44.5295325">
<ele>2436.0</ele>
</trkpt>
<trkpt lat="40.5407185" lon="44.5289665">
<ele>2435.5</ele>
</trkpt>
<trkpt lat="40.5405505" lon="44.5281345">
<ele>2431.75</ele>
</trkpt>
<trkpt lat="40.5401795" lon="44.5277355">
<ele>2435.0</ele>
</trkpt>
<trkpt lat="40.5399465" lon="44.5268275">
<ele>2431.75</ele>
</trkpt>
<trkpt lat="40.5393285" lon="44.5257425">
<ele>2438.25</ele>
</trkpt>
<trkpt lat="40.5390745" lon="44.5252215">
<ele>2445.0</ele>
</trkpt>
<trkpt lat="40.5389655" lon="44.5245995">
<ele>2450.75</ele>
</trkpt>
<trkpt lat="40.5389305" lon="44.5243505">
<ele>2453.75</ele>
</trkpt>
<trkpt lat="40.5388185" lon="44.5240395">
<ele>2458.75</ele>
</trkpt>
<trkpt lat="40.5387415" lon="44.5237085">
<ele>2466.75</ele>
</trkpt>
<trkpt lat="40.5386735" lon="44.5236255">
<ele>2468.75</ele>
</trkpt>
<trkpt lat="40.5383535" lon="44.5235555">
<ele>2470.0</ele>
</trkpt>
<trkpt lat="40.5378625" lon="44.5232505">
<ele>2477.25</ele>
</trkpt>
<trkpt lat="40.5376565" lon="44.5230385">
<ele>2485.75</ele>
</trkpt>
<trkpt lat="40.5375605" lon="44.5227535">
<ele>2498.25</ele>
</trkpt>
<trkpt lat="40.5371975" lon="44.5224535">
<ele>2510.0</ele>
</trkpt>
<trkpt lat="40.5368025" lon="44.5221645">
<ele>2521.25</ele>
</trkpt>
<trkpt lat="40.5362825" lon="44.5220375">
<ele>2518.75</ele>
</trkpt>
<trkpt lat="40.5358545" lon="44.5216965">
<ele>2524.25</ele>
</trkpt>
<trkpt lat="40.5353275" lon="44.5214755">
<ele>2524.0</ele>
</trkpt>
<trkpt lat="40.5349185" lon="44.5212385">
<ele>2524.5</ele>
</trkpt>
<trkpt lat="40.5346215" lon="44.5208605">
<ele>2526.0</ele>
</trkpt>
<trkpt lat="40.5344645" lon="44.5204665">
<ele>2525.25</ele>
</trkpt>
<trkpt lat="40.5344035" lon="44.5201145">
<ele>2526.75</ele>
</trkpt>
<trkpt lat="40.5344305" lon="44.5197925">
<ele>2529.5</ele>
</trkpt>
<trkpt lat="40.5344845" lon="44.5193985">
<ele>2533.0</ele>
</trkpt>
<trkpt lat="40.5345665" lon="44.5192185">
<ele>2535.25</ele>
</trkpt>
<trkpt lat="40.5345495" lon="44.5190575">
<ele>2536.25</ele>
</trkpt>
<trkpt lat="40.5344115" lon="44.5188515">
<ele>2535.5</ele>
</trkpt>
<trkpt lat="40.5340565" lon="44.5185805">
<ele>2533.0</ele>
</trkpt>
<trkpt lat="40.5336125" lon="44.5178835">
<ele>2536.0</ele>
</trkpt>
<trkpt lat="40.5335635" lon="44.5176005">
<ele>2537.5</ele>
</trkpt>
<trkpt lat="40.5334615" lon="44.5177145">
<ele>2536.25</ele>
</trkpt>
<trkpt lat="40.5333025" lon="44.5178265">
<ele>2535.0</ele>
</trkpt>
<trkpt lat="40.5329275" lon="44.5178535">
<ele>2536.5</ele>
</trkpt>
<trkpt lat="40.5323115" lon="44.5178345">
<ele>2539.0</ele>
</trkpt>
<trkpt lat="40.5320305" lon="44.5177575">
<ele>2539.75</ele>
</trkpt>
<trkpt lat="40.5315085" lon="44.5175425">
<ele>2542.75</ele>
</trkpt>
<trkpt lat="40.5311785" lon="44.5173575">
<ele>2544.75</ele>
</trkpt>
<trkpt lat="40.5308135" lon="44.5170945">
<ele>2542.5</ele>
</trkpt>
<trkpt lat="40.5304485" lon="44.5170575">
<ele>2546.0</ele>
</trkpt>
<trkpt lat="40.5300025" lon="44.5171995">
<ele>2553.75</ele>
</trkpt>
<trkpt lat="40.5295105" lon="44.5173575">
<ele>2556.5</ele>
</trkpt>
<trkpt lat="40.5292295" lon="44.5173365">
<ele>2556.5</ele>
</trkpt>
<trkpt lat="40.5284505" lon="44.5167565">
<ele>2558.0</ele>
</trkpt>
<trkpt lat="40.5273785" lon="44.5169065">
<ele>2554.5</ele>
</trkpt>
<trkpt lat="40.5262115" lon="44.5171695">
<ele>2559.5</ele>
</trkpt>
<trkpt lat="40.5254675" lon="44.5172605">
<ele>2573.5</ele>
</trkpt>
<trkpt lat="40.5251555" lon="44.5172635">
<ele>2581.75</ele>
</trkpt>
<trkpt lat="40.5249885" lon="44.5172125">
<ele>2585.75</ele>
</trkpt>
<trkpt lat="40.5248455" lon="44.5170975">
<ele>2588.5</ele>
</trkpt>
<trkpt lat="40.5246785" lon="44.5170195">
<ele>2591.25</ele>
</trkpt>
<trkpt lat="40.5244485" lon="44.5170245">
<ele>2596.25</ele>
</trkpt>
<trkpt lat="40.5241385" lon="44.5171265">
<ele>2605.5</ele>
</trkpt>
<trkpt lat="40.5236285" lon="44.5173175">
<ele>2616.0</ele>
</trkpt>
<trkpt lat="40.5229745" lon="44.5177065">
<ele>2628.25</ele>
</trkpt>
<trkpt lat="40.5221425" lon="44.5183605">
<ele>2639.0</ele>
</trkpt>
<trkpt lat="40.5218385" lon="44.5186595">
<ele>2648.75</ele>
</trkpt>
<trkpt lat="40.5220786" lon="44.5190781">
<ele>2633.693</ele>
</trkpt>
<trkpt lat="40.5198686" lon="44.5206614">
<ele>2749.401</ele>
</trkpt>
<trkpt lat="40.5174572" lon="44.5212806">
<ele>2821.062</ele>
</trkpt>
<trkpt lat="40.5173578" lon="44.5212202">
<ele>2820.075</ele>
</trkpt>
<trkpt lat="40.5162642" lon="44.5219599">
<ele>2807.914</ele>
</trkpt>
<trkpt lat="40.5160894" lon="44.5220962">
<ele>2804.078</ele>
</trkpt>
<trkpt lat="40.5150902" lon="44.5231336">
<ele>2778.317</ele>
</trkpt>
<trkpt lat="40.5143198" lon="44.524447">
<ele>2761.165</ele>
</trkpt>
<trkpt lat="40.5133256" lon="44.5254582">
<ele>2742.323</ele>
</trkpt>
<trkpt lat="40.5121582" lon="44.5261069">
<ele>2735.767</ele>
</trkpt>
<trkpt lat="40.5110364" lon="44.5267725">
<ele>2748.647</ele>
</trkpt>
<trkpt lat="40.51002" lon="44.5277061">
<ele>2748.435</ele>
</trkpt>
<trkpt lat="40.5091497" lon="44.5288674">
<ele>2727.812</ele>
</trkpt>
<trkpt lat="40.5082306" lon="44.5300446">
<ele>2693.067</ele>
</trkpt>
<trkpt lat="40.5073593" lon="44.5311926">
<ele>2650.915</ele>
</trkpt>
<trkpt lat="40.5064905" lon="44.5323383">
<ele>2602.012</ele>
</trkpt>
<trkpt lat="40.5064898" lon="44.5323086">
<ele>2603.874</ele>
</trkpt>
<trkpt lat="40.5054424" lon="44.5331636">
<ele>2579.405</ele>
</trkpt>
<trkpt lat="40.5044453" lon="44.5341326">
<ele>2559.747</ele>
</trkpt>
<trkpt lat="40.5032032" lon="44.5344347">
<ele>2529.933</ele>
</trkpt>
<trkpt lat="40.5019476" lon="44.5345403">
<ele>2501.366</ele>
</trkpt>
<trkpt lat="40.5006807" lon="44.5346158">
<ele>2461.619</ele>
</trkpt>
<trkpt lat="40.4994625" lon="44.5348119">
<ele>2428.237</ele>
</trkpt>
<trkpt lat="40.4982164" lon="44.5346906">
<ele>2404.548</ele>
</trkpt>
<trkpt lat="40.4969764" lon="44.5345557">
<ele>2381.996</ele>
</trkpt>
<trkpt lat="40.4956856" lon="44.5344045">
<ele>2349.317</ele>
</trkpt>
<trkpt lat="40.4944395" lon="44.5342989">
<ele>2321.879</ele>
</trkpt>
<trkpt lat="40.4932231" lon="44.5341032">
<ele>2289.908</ele>
</trkpt>
<trkpt lat="40.4920057" lon="44.5335005">
<ele>2267.792</ele>
</trkpt>
<trkpt lat="40.4908128" lon="44.5327313">
<ele>2240.692</ele>
</trkpt>
<trkpt lat="40.4896936" lon="44.531977">
<ele>2217.638</ele>
</trkpt>
<trkpt lat="40.4886494" lon="44.5311172">
<ele>2196.73</ele>
</trkpt>
<trkpt lat="40.4875548" lon="44.5301364">
<ele>2183.262</ele>
</trkpt>
<trkpt lat="40.4866354" lon="44.5289003">
<ele>2158.125</ele>
</trkpt>
<trkpt lat="40.4856905" lon="44.5276624">
<ele>2136.495</ele>
</trkpt>
<trkpt lat="40.4848439" lon="44.5264092">
<ele>2119.251</ele>
</trkpt>
<trkpt lat="40.484248" lon="44.5248866">
<ele>2106.753</ele>
</trkpt>
<trkpt lat="40.484023" lon="44.5239339">
<ele>2101.25</ele>
</trkpt>
<trkpt lat="40.4828456" lon="44.5233559">
<ele>2082.058</ele>
</trkpt>
<trkpt lat="40.4816267" lon="44.5227976">
<ele>2061.496</ele>
</trkpt>
<trkpt lat="40.4803598" lon="44.5224051">
<ele>2041.793</ele>
</trkpt>
<trkpt lat="40.4790662" lon="44.5222539">
<ele>2035.787</ele>
</trkpt>
<trkpt lat="40.4777909" lon="44.5221332">
<ele>2020.448</ele>
</trkpt>
<trkpt lat="40.4765004" lon="44.522103">
<ele>2004.947</ele>
</trkpt>
<trkpt lat="40.4752131" lon="44.5217723">
<ele>1998.777</ele>
</trkpt>
<trkpt lat="40.4739448" lon="44.5213196">
<ele>2008.952</ele>
</trkpt>
<trkpt lat="40.4726272" lon="44.5208816">
<ele>1991.699</ele>
</trkpt>
<trkpt lat="40.4713083" lon="44.5205945">
<ele>1972.06</ele>
</trkpt>
<trkpt lat="40.4700651" lon="44.5203232">
<ele>1952.978</ele>
</trkpt>
<trkpt lat="40.4687452" lon="44.5202171">
<ele>1941.473</ele>
</trkpt>
<trkpt lat="40.4675036" lon="44.5202167">
<ele>1930.887</ele>
</trkpt>
<trkpt lat="40.466236" lon="44.5203227">
<ele>1921.531</ele>
</trkpt>
<trkpt lat="40.4649651" lon="44.5204585">
<ele>1903.737</ele>
</trkpt>
<trkpt lat="40.4637224" lon="44.5205641">
<ele>1893.413</ele>
</trkpt>
<trkpt lat="40.4624793" lon="44.5206542">
<ele>1883.101</ele>
</trkpt>
<trkpt lat="40.4612364" lon="44.5207749">
<ele>1872.902</ele>
</trkpt>
<trkpt lat="40.4599401" lon="44.5208809">
<ele>1872.134</ele>
</trkpt>
<trkpt lat="40.4587189" lon="44.5210623">
<ele>1860.776</ele>
</trkpt>
<trkpt lat="40.4574986" lon="44.5211984">
<ele>1853.992</ele>
</trkpt>
<trkpt lat="40.4562556" lon="44.521289">
<ele>1847.373</ele>
</trkpt>
<trkpt lat="40.455016" lon="44.5215144">
<ele>1836.148</ele>
</trkpt>
<trkpt lat="40.4544433" lon="44.5217107">
<ele>1829.673</ele>
</trkpt>
</trkseg>
<trkseg>
<trkpt lat="40.4304926" lon="44.5038483">
<ele>1864.114</ele>
</trkpt>
<trkpt lat="40.4294427" lon="44.5029395">
<ele>1866.851</ele>
</trkpt>
<trkpt lat="40.4283217" lon="44.5022746">
<ele>1883.615</ele>
</trkpt>
<trkpt lat="40.4270775" lon="44.5020028">
<ele>1892.101</ele>
</trkpt>
<trkpt lat="40.4258087" lon="44.5015355">
<ele>1901.5</ele>
</trkpt>
<trkpt lat="40.4246129" lon="44.5008107">
<ele>1909.524</ele>
</trkpt>
<trkpt lat="40.4235186" lon="44.4999664">
<ele>1921.535</ele>
</trkpt>
<trkpt lat="40.4223014" lon="44.4992877">
<ele>1930.876</ele>
</trkpt>
<trkpt lat="40.421055" lon="44.499166">
<ele>1937.007</ele>
</trkpt>
<trkpt lat="40.4197856" lon="44.4989248">
<ele>1931.742</ele>
</trkpt>
<trkpt lat="40.4185912" lon="44.4983368">
<ele>1937.915</ele>
</trkpt>
<trkpt lat="40.4177953" lon="44.4970708">
<ele>1940.125</ele>
</trkpt>
<trkpt lat="40.4168988" lon="44.4958937">
<ele>1965.674</ele>
</trkpt>
<trkpt lat="40.4159538" lon="44.4947472">
<ele>1969.429</ele>
</trkpt>
<trkpt lat="40.4159022" lon="44.494685">
<ele>1970.827</ele>
</trkpt>
<trkpt lat="40.4147674" lon="44.4940084">
<ele>1992.349</ele>
</trkpt>
<trkpt lat="40.413583" lon="44.4933659">
<ele>2001.535</ele>
</trkpt>
<trkpt lat="40.4123886" lon="44.4925963">
<ele>2003.024</ele>
</trkpt>
<trkpt lat="40.4112193" lon="44.4919327">
<ele>2028.263</ele>
</trkpt>
<trkpt lat="40.4100236" lon="44.4912687">
<ele>2044.261</ele>
</trkpt>
<trkpt lat="40.4089778" lon="44.4903333">
<ele>2059.744</ele>
</trkpt>
<trkpt lat="40.4081063" lon="44.4891415">
<ele>2080.604</ele>
</trkpt>
<trkpt lat="40.4073353" lon="44.4878455">
<ele>2097.316</ele>
</trkpt>
<trkpt lat="40.4067214" lon="44.4863786">
<ele>2117.215</ele>
</trkpt>
<trkpt lat="40.4061415" lon="44.4849497">
<ele>2147.049</ele>
</trkpt>
<trkpt lat="40.4056659" lon="44.4833312">
<ele>2177.667</ele>
</trkpt>
<trkpt lat="40.4052409" lon="44.4817594">
<ele>2209.621</ele>
</trkpt>
<trkpt lat="40.404943" lon="44.4807661">
<ele>2229.569</ele>
</trkpt>
<trkpt lat="40.4046451" lon="44.4791231">
<ele>2274.864</ele>
</trkpt>
<trkpt lat="40.4041716" lon="44.4776123">
<ele>2320.078</ele>
</trkpt>
<trkpt lat="40.4037722" lon="44.4760238">
<ele>2358.603</ele>
</trkpt>
<trkpt lat="40.4035234" lon="44.4743184">
<ele>2396.505</ele>
</trkpt>
<trkpt lat="40.4033997" lon="44.472671">
<ele>2451.331</ele>
</trkpt>
<trkpt lat="40.4031746" lon="44.4709837">
<ele>2501.516</ele>
</trkpt>
<trkpt lat="40.4029516" lon="44.4693865">
<ele>2547.599</ele>
</trkpt>
<trkpt lat="40.4029029" lon="44.4681078">
<ele>2562.302</ele>
</trkpt>
<trkpt lat="40.4028531" lon="44.4664456">
<ele>2540.178</ele>
</trkpt>
<trkpt lat="40.40248" lon="44.4648016">
<ele>2529.512</ele>
</trkpt>
<trkpt lat="40.4021814" lon="44.4632328">
<ele>2544.15</ele>
</trkpt>
<trkpt lat="40.4023055" lon="44.4616182">
<ele>2554.375</ele>
</trkpt>
<trkpt lat="40.402654" lon="44.4600593">
<ele>2540.527</ele>
</trkpt>
<trkpt lat="40.4026056" lon="44.4584469">
<ele>2534.818</ele>
</trkpt>
<trkpt lat="40.4025793" lon="44.4580856">
<ele>2532.028</ele>
</trkpt>
<trkpt lat="40.4046178" lon="44.4562451">
<ele>2512.68</ele>
</trkpt>
<trkpt lat="40.4057148" lon="44.4553999">
<ele>2484.761</ele>
</trkpt>
<trkpt lat="40.4068442" lon="44.4544847">
<ele>2540.365</ele>
</trkpt>
<trkpt lat="40.4077007" lon="44.4537058">
<ele>2543.888</ele>
</trkpt>
<trkpt lat="40.4083732" lon="44.4522871">
<ele>2567.6</ele>
</trkpt>
<trkpt lat="40.409045" lon="44.4509134">
<ele>2563.528</ele>
</trkpt>
<trkpt lat="40.4102423" lon="44.450384">
<ele>2531.394</ele>
</trkpt>
<trkpt lat="40.4114619" lon="44.450218">
<ele>2492.885</ele>
</trkpt>
<trkpt lat="40.4126819" lon="44.4499463">
<ele>2467.587</ele>
</trkpt>
<trkpt lat="40.4138506" lon="44.4493428">
<ele>2443.225</ele>
</trkpt>
<trkpt lat="40.4147961" lon="44.4483159">
<ele>2448.456</ele>
</trkpt>
<trkpt lat="40.4156173" lon="44.4471092">
<ele>2440.702</ele>
</trkpt>
<trkpt lat="40.4159152" lon="44.4455384">
<ele>2407.305</ele>
</trkpt>
<trkpt lat="40.4158903" lon="44.4439252">
<ele>2363.786</ele>
</trkpt>
<trkpt lat="40.4164643" lon="44.4435055">
<ele>2372.637</ele>
</trkpt>
<trkpt lat="40.4169145" lon="44.4419974">
<ele>2336.673</ele>
</trkpt>
<trkpt lat="40.4174383" lon="44.4404702">
<ele>2302.899</ele>
</trkpt>
<trkpt lat="40.4180337" lon="44.4389815">
<ele>2273.158</ele>
</trkpt>
<trkpt lat="40.4187071" lon="44.4375141">
<ele>2236.355</ele>
</trkpt>
<trkpt lat="40.4192553" lon="44.4360653">
<ele>2192.002</ele>
</trkpt>
<trkpt lat="40.4197767" lon="44.4345596">
<ele>2159.893</ele>
</trkpt>
<trkpt lat="40.4203751" lon="44.4330934">
<ele>2117.365</ele>
</trkpt>
<trkpt lat="40.421073" lon="44.4317664">
<ele>2058.864</ele>
</trkpt>
<trkpt lat="40.4215459" lon="44.4311326">
<ele>2030.261</ele>
</trkpt>
<trkpt lat="40.4225396" lon="44.4300335">
<ele>1989.868</ele>
</trkpt>
<trkpt lat="40.4233843" lon="44.4288562">
<ele>1961.612</ele>
</trkpt>
<trkpt lat="40.4243241" lon="44.4278085">
<ele>1931.025</ele>
</trkpt>
<trkpt lat="40.4252966" lon="44.426766">
<ele>1916.865</ele>
</trkpt>
<trkpt lat="40.4257449" lon="44.4260563">
<ele>1913.305</ele>
</trkpt>
</trkseg>
<trkseg>
<trkpt lat="40.4860882" lon="44.3594542">
<ele>1949.883</ele>
</trkpt>
<trkpt lat="40.4825784" lon="44.3548304">
<ele>1964.786</ele>
</trkpt>
<trkpt lat="40.4805599" lon="44.3485964">
<ele>1975.15</ele>
</trkpt>
<trkpt lat="40.4796404" lon="44.3420662">
<ele>2000.807</ele>
</trkpt>
<trkpt lat="40.4791415" lon="44.3349546">
<ele>2015.146</ele>
</trkpt>
<trkpt lat="40.4786221" lon="44.3284447">
<ele>2078.56</ele>
</trkpt>
<trkpt lat="40.4777011" lon="44.3218262">
<ele>2117.667</ele>
</trkpt>
<trkpt lat="40.4765741" lon="44.3153886">
<ele>2225.469</ele>
</trkpt>
<trkpt lat="40.4758456" lon="44.3116134">
<ele>2256.56</ele>
</trkpt>
<trkpt lat="40.474724" lon="44.3050221">
<ele>2338.63</ele>
</trkpt>
<trkpt lat="40.4736082" lon="44.298351">
<ele>2439.704</ele>
</trkpt>
<trkpt lat="40.4725904" lon="44.2917439">
<ele>2535.498</ele>
</trkpt>
<trkpt lat="40.4718728" lon="44.2853181">
<ele>2592.936</ele>
</trkpt>
<trkpt lat="40.4715549" lon="44.2787074">
<ele>2610.681</ele>
</trkpt>
<trkpt lat="40.4707452" lon="44.2719377">
<ele>2692.114</ele>
</trkpt>
<trkpt lat="40.4695855" lon="44.2663466">
<ele>2798.26</ele>
</trkpt>
<trkpt lat="40.4711686" lon="44.2596103">
<ele>2844.332</ele>
</trkpt>
<trkpt lat="40.472333" lon="44.2533438">
<ele>2910.61</ele>
</trkpt>
<trkpt lat="40.4726089" lon="44.2468222">
<ele>2989.104</ele>
</trkpt>
<trkpt lat="40.4727844" lon="44.2403211">
<ele>3068.312</ele>
</trkpt>
<trkpt lat="40.4725606" lon="44.2338362">
<ele>3143.671</ele>
</trkpt>
<trkpt lat="40.4733197" lon="44.2347362">
<ele>3133.146</ele>
</trkpt>
<trkpt lat="40.4740031" lon="44.2315798">
<ele>3138.178</ele>
</trkpt>
<trkpt lat="40.4748302" lon="44.2285255">
<ele>3153.62</ele>
</trkpt>
<trkpt lat="40.4756557" lon="44.2254446">
<ele>3185.323</ele>
</trkpt>
<trkpt lat="40.4761882" lon="44.2222768">
<ele>3201.998</ele>
</trkpt>
<trkpt lat="40.4763754" lon="44.2190303">
<ele>3216.726</ele>
</trkpt>
<trkpt lat="40.4767157" lon="44.2156956">
<ele>3183.295</ele>
</trkpt>
<trkpt lat="40.4767053" lon="44.213587">
<ele>3160.073</ele>
</trkpt>
<trkpt lat="40.4782602" lon="44.2110666">
<ele>3218.909</ele>
</trkpt>
<trkpt lat="40.4793332" lon="44.2080834">
<ele>3214.737</ele>
</trkpt>
<trkpt lat="40.4794223" lon="44.2047985">
<ele>3252.794</ele>
</trkpt>
<trkpt lat="40.4799062" lon="44.2016022">
<ele>3279.978</ele>
</trkpt>
<trkpt lat="40.4810756" lon="44.1987272">
<ele>3339.435</ele>
</trkpt>
<trkpt lat="40.4820975" lon="44.1957183">
<ele>3310.053</ele>
</trkpt>
<trkpt lat="40.4832697" lon="44.1927825">
<ele>3361.33</ele>
</trkpt>
<trkpt lat="40.4854301" lon="44.1911601">
<ele>3427.189</ele>
</trkpt>
<trkpt lat="40.4833077" lon="44.1893405">
<ele>3344.783</ele>
</trkpt>
<trkpt lat="40.4813079" lon="44.1873869">
<ele>3293.929</ele>
</trkpt>
<trkpt lat="40.4790669" lon="44.1860093">
<ele>3262.321</ele>
</trkpt>
<trkpt lat="40.4768364" lon="44.1845787">
<ele>3227.002</ele>
</trkpt>
<trkpt lat="40.4746606" lon="44.1830916">
<ele>3194.337</ele>
</trkpt>
<trkpt lat="40.474329" lon="44.1827968">
<ele>3191.088</ele>
</trkpt>
</trkseg>
<trkseg>
<trkpt lat="40.4755822" lon="44.1822766">
<ele>3197.468</ele>
</trkpt>
<trkpt lat="40.4779786" lon="44.1812655">
<ele>3236.6</ele>
</trkpt>
<trkpt lat="40.4804384" lon="44.1809609">
<ele>3270.469</ele>
</trkpt>
<trkpt lat="40.4830115" lon="44.1813615">
<ele>3303.366</ele>
</trkpt>
<trkpt lat="40.4854791" lon="44.1818129">
<ele>3336.174</ele>
</trkpt>
<trkpt lat="40.4879585" lon="44.1820849">
<ele>3382.904</ele>
</trkpt>
<trkpt lat="40.4904525" lon="44.1819952">
<ele>3427.213</ele>
</trkpt>
<trkpt lat="40.4927488" lon="44.1806793">
<ele>3473.316</ele>
</trkpt>
<trkpt lat="40.4943509" lon="44.1781314">
<ele>3501.036</ele>
</trkpt>
<trkpt lat="40.4957112" lon="44.1754517">
<ele>3495.867</ele>
</trkpt>
<trkpt lat="40.4977814" lon="44.1736407">
<ele>3493.449</ele>
</trkpt>
<trkpt lat="40.5001558" lon="44.1726714">
<ele>3500.039</ele>
</trkpt>
<trkpt lat="40.5026289" lon="44.1731257">
<ele>3553.295</ele>
</trkpt>
<trkpt lat="40.5050331" lon="44.1739666">
<ele>3609.2</ele>
</trkpt>
<trkpt lat="40.5065833" lon="44.1749245">
<ele>3662.843</ele>
</trkpt>
<trkpt lat="40.5075612" lon="44.1759805">
<ele>3720.959</ele>
</trkpt>
<trkpt lat="40.5085956" lon="44.1768886">
<ele>3753.559</ele>
</trkpt>
<trkpt lat="40.5097114" lon="44.1775753">
<ele>3787.833</ele>
</trkpt>
<trkpt lat="40.5105558" lon="44.1787699">
<ele>3772.716</ele>
</trkpt>
<trkpt lat="40.5112717" lon="44.1800915">
<ele>3739.538</ele>
</trkpt>
<trkpt lat="40.5121457" lon="44.1812438">
<ele>3708.513</ele>
</trkpt>
<trkpt lat="40.5128885" lon="44.1825248">
<ele>3682.686</ele>
</trkpt>
<trkpt lat="40.5135481" lon="44.1839599">
<ele>3667.036</ele>
</trkpt>
<trkpt lat="40.5142115" lon="44.1853528">
<ele>3636.954</ele>
</trkpt>
<trkpt lat="40.5147712" lon="44.18683">
<ele>3603.914</ele>
</trkpt>
<trkpt lat="40.5154052" lon="44.1882799">
<ele>3592.879</ele>
</trkpt>
<trkpt lat="40.5161981" lon="44.1895615">
<ele>3634.154</ele>
</trkpt>
<trkpt lat="40.5173638" lon="44.1902388">
<ele>3681.868</ele>
</trkpt>
<trkpt lat="40.5186123" lon="44.1902078">
<ele>3737.305</ele>
</trkpt>
<trkpt lat="40.5186668" lon="44.1901335">
<ele>3739.569</ele>
</trkpt>
<trkpt lat="40.5187036" lon="44.1901475">
<ele>3741.703</ele>
</trkpt>
<trkpt lat="40.5192051" lon="44.1896753">
<ele>3772.56</ele>
</trkpt>
<trkpt lat="40.5198012" lon="44.1893331">
<ele>3801.53</ele>
</trkpt>
<trkpt lat="40.5203411" lon="44.188919">
<ele>3834.853</ele>
</trkpt>
<trkpt lat="40.5209515" lon="44.1886315">
<ele>3877.673</ele>
</trkpt>
<trkpt lat="40.5215687" lon="44.1884353">
<ele>3924.019</ele>
</trkpt>
<trkpt lat="40.5221515" lon="44.1887741">
<ele>3964.247</ele>
</trkpt>
<trkpt lat="40.5225724" lon="44.1894171">
<ele>3967.042</ele>
</trkpt>
<trkpt lat="40.5228134" lon="44.1901829">
<ele>3963.061</ele>
</trkpt>
<trkpt lat="40.5230036" lon="44.1909839">
<ele>3968.609</ele>
</trkpt>
<trkpt lat="40.5230818" lon="44.191782">
<ele>3980.035</ele>
</trkpt>
<trkpt lat="40.5230834" lon="44.1926135">
<ele>4007.529</ele>
</trkpt>
<trkpt lat="40.523086" lon="44.193437">
<ele>4022.753</ele>
</trkpt>
<trkpt lat="40.5230889" lon="44.1942519">
<ele>4056.711</ele>
</trkpt>
<trkpt lat="40.5231366" lon="44.1943205">
<ele>4057.944</ele>
</trkpt>
<trkpt lat="40.5221724" lon="44.1953805">
<ele>3994.523</ele>
</trkpt>
<trkpt lat="40.5211869" lon="44.1963796">
<ele>3917.475</ele>
</trkpt>
<trkpt lat="40.5201981" lon="44.1973799">
<ele>3848.484</ele>
</trkpt>
<trkpt lat="40.5195193" lon="44.1987205">
<ele>3774.902</ele>
</trkpt>
<trkpt lat="40.5192772" lon="44.2003194">
<ele>3713.558</ele>
</trkpt>
<trkpt lat="40.5199158" lon="44.201697">
<ele>3671.263</ele>
</trkpt>
<trkpt lat="40.5207901" lon="44.2028352">
<ele>3631.986</ele>
</trkpt>
<trkpt lat="40.5216348" lon="44.2040453">
<ele>3589.796</ele>
</trkpt>
<trkpt lat="40.5223976" lon="44.2053981">
<ele>3567.051</ele>
</trkpt>
<trkpt lat="40.523164" lon="44.2066939">
<ele>3516.882</ele>
</trkpt>
<trkpt lat="40.5240361" lon="44.207845">
<ele>3478.74</ele>
</trkpt>
<trkpt lat="40.5249326" lon="44.2090139">
<ele>3455.187</ele>
</trkpt>
<trkpt lat="40.5256746" lon="44.210308">
<ele>3481.279</ele>
</trkpt>
<trkpt lat="40.5263392" lon="44.2116715">
<ele>3493.469</ele>
</trkpt>
<trkpt lat="40.526977" lon="44.2130477">
<ele>3491.629</ele>
</trkpt>
<trkpt lat="40.5280628" lon="44.2138524">
<ele>3442.275</ele>
</trkpt>
<trkpt lat="40.5292816" lon="44.2144405">
<ele>3379.115</ele>
</trkpt>
<trkpt lat="40.53059" lon="44.2146725">
<ele>3345.719</ele>
</trkpt>
<trkpt lat="40.5319105" lon="44.2146338">
<ele>3324.807</ele>
</trkpt>
<trkpt lat="40.5331304" lon="44.2141907">
<ele>3297.873</ele>
</trkpt>
<trkpt lat="40.5341392" lon="44.2132644">
<ele>3275.123</ele>
</trkpt>
<trkpt lat="40.5351352" lon="44.2120406">
<ele>3261.068</ele>
</trkpt>
<trkpt lat="40.536133" lon="44.2108851">
<ele>3230.932</ele>
</trkpt>
<trkpt lat="40.5370778" lon="44.2096869">
<ele>3189.099</ele>
</trkpt>
<trkpt lat="40.5380637" lon="44.2087324">
<ele>3166.374</ele>
</trkpt>
<trkpt lat="40.5392893" lon="44.2077906">
<ele>3142.114</ele>
</trkpt>
<trkpt lat="40.5403773" lon="44.2069594">
<ele>3128.142</ele>
</trkpt>
<trkpt lat="40.5404951" lon="44.2068694">
<ele>3127.612</ele>
</trkpt>
<trkpt lat="40.5413525" lon="44.2053786">
<ele>3117.773</ele>
</trkpt>
<trkpt lat="40.5421524" lon="44.2041211">
<ele>3095.97</ele>
</trkpt>
<trkpt lat="40.5432461" lon="44.2028891">
<ele>3081.676</ele>
</trkpt>
<trkpt lat="40.5443352" lon="44.2019222">
<ele>3082.267</ele>
</trkpt>
<trkpt lat="40.5453456" lon="44.200983">
<ele>3089.105</ele>
</trkpt>
<trkpt lat="40.5463334" lon="44.1999538">
<ele>3077.535</ele>
</trkpt>
<trkpt lat="40.547471" lon="44.1989336">
<ele>3054.849</ele>
</trkpt>
<trkpt lat="40.5485261" lon="44.1980606">
<ele>3040.448</ele>
</trkpt>
<trkpt lat="40.5498301" lon="44.1973205">
<ele>3029.883</ele>
</trkpt>
<trkpt lat="40.5513053" lon="44.1968854">
<ele>3027.836</ele>
</trkpt>
<trkpt lat="40.5525322" lon="44.1965161">
<ele>3015.684</ele>
</trkpt>
<trkpt lat="40.5531041" lon="44.196344">
<ele>3014.537</ele>
</trkpt>
<trkpt lat="40.5540594" lon="44.1951051">
<ele>3002.838</ele>
</trkpt>
<trkpt lat="40.5550005" lon="44.1940249">
<ele>2975.465</ele>
</trkpt>
<trkpt lat="40.5560697" lon="44.1928922">
<ele>2959.701</ele>
</trkpt>
<trkpt lat="40.557162" lon="44.1917921">
<ele>2950.181</ele>
</trkpt>
<trkpt lat="40.558124" lon="44.1907459">
<ele>2942.183</ele>
</trkpt>
<trkpt lat="40.5592494" lon="44.1900856">
<ele>2935.809</ele>
</trkpt>
<trkpt lat="40.5604414" lon="44.1895383">
<ele>2924.804</ele>
</trkpt>
<trkpt lat="40.5616502" lon="44.189218">
<ele>2915.233</ele>
</trkpt>
<trkpt lat="40.5628567" lon="44.1889292">
<ele>2913.859</ele>
</trkpt>
<trkpt lat="40.5640906" lon="44.1887144">
<ele>2912.186</ele>
</trkpt>
<trkpt lat="40.5654971" lon="44.1884989">
<ele>2913.765</ele>
</trkpt>
<trkpt lat="40.5669287" lon="44.1883609">
<ele>2907.043</ele>
</trkpt>
<trkpt lat="40.5682239" lon="44.1883203">
<ele>2901.512</ele>
</trkpt>
<trkpt lat="40.5694664" lon="44.1882446">
<ele>2898.805</ele>
</trkpt>
<trkpt lat="40.5708161" lon="44.188087">
<ele>2891.563</ele>
</trkpt>
<trkpt lat="40.5720777" lon="44.1881951">
<ele>2878.52</ele>
</trkpt>
<trkpt lat="40.5733828" lon="44.188366">
<ele>2869.134</ele>
</trkpt>
<trkpt lat="40.5747097" lon="44.1886744">
<ele>2844.022</ele>
</trkpt>
<trkpt lat="40.5759149" lon="44.1890037">
<ele>2822.756</ele>
</trkpt>
<trkpt lat="40.5772446" lon="44.1892981">
<ele>2803.843</ele>
</trkpt>
<trkpt lat="40.5784829" lon="44.1895251">
<ele>2793.69</ele>
</trkpt>
<trkpt lat="40.5797104" lon="44.1898563">
<ele>2768.768</ele>
</trkpt>
<trkpt lat="40.5809613" lon="44.1902499">
<ele>2761.986</ele>
</trkpt>
<trkpt lat="40.5821347" lon="44.1907282">
<ele>2757.818</ele>
</trkpt>
<trkpt lat="40.5833069" lon="44.1912067">
<ele>2730.352</ele>
</trkpt>
<trkpt lat="40.5845329" lon="44.1916294">
<ele>2703.095</ele>
</trkpt>
<trkpt lat="40.5857387" lon="44.1919599">
<ele>2690.022</ele>
</trkpt>
<trkpt lat="40.586997" lon="44.1921882">
<ele>2683.319</ele>
</trkpt>
<trkpt lat="40.5882887" lon="44.1921924">
<ele>2662.946</ele>
</trkpt>
<trkpt lat="40.5895569" lon="44.1927621">
<ele>2645.417</ele>
</trkpt>
<trkpt lat="40.589773" lon="44.1928777">
<ele>2646.177</ele>
</trkpt>
<trkpt lat="40.591133" lon="44.1933515">
<ele>2625.777</ele>
</trkpt>
<trkpt lat="40.592438" lon="44.1936741">
<ele>2607.494</ele>
</trkpt>
<trkpt lat="40.5937254" lon="44.1938744">
<ele>2583.068</ele>
</trkpt>
<trkpt lat="40.5950118" lon="44.1940139">
<ele>2563.019</ele>
</trkpt>
<trkpt lat="40.5963587" lon="44.194052">
<ele>2533.65</ele>
</trkpt>
<trkpt lat="40.5976324" lon="44.1939019">
<ele>2514.291</ele>
</trkpt>
<trkpt lat="40.5988423" lon="44.1934164">
<ele>2502.255</ele>
</trkpt>
<trkpt lat="40.5999214" lon="44.1926182">
<ele>2493.309</ele>
</trkpt>
<trkpt lat="40.6009752" lon="44.1917751">
<ele>2474.446</ele>
</trkpt>
<trkpt lat="40.602091" lon="44.191782">
<ele>2451.259</ele>
</trkpt>
<trkpt lat="40.6033201" lon="44.1911192">
<ele>2431.061</ele>
</trkpt>
<trkpt lat="40.6044457" lon="44.1902366">
<ele>2421.146</ele>
</trkpt>
<trkpt lat="40.6054832" lon="44.1891953">
<ele>2408.995</ele>
</trkpt>
<trkpt lat="40.6065656" lon="44.1882928">
<ele>2395.436</ele>
</trkpt>
<trkpt lat="40.6077972" lon="44.1879608">
<ele>2371.945</ele>
</trkpt>
<trkpt lat="40.6090696" lon="44.1878876">
<ele>2348.258</ele>
</trkpt>
<trkpt lat="40.6103609" lon="44.1878917">
<ele>2325.464</ele>
</trkpt>
<trkpt lat="40.6116449" lon="44.1876059">
<ele>2310.076</ele>
</trkpt>
<trkpt lat="40.6129041" lon="44.187199">
<ele>2294.303</ele>
</trkpt>
<trkpt lat="40.6141688" lon="44.1866277">
<ele>2283.827</ele>
</trkpt>
<trkpt lat="40.6153644" lon="44.1859444">
<ele>2285.577</ele>
</trkpt>
<trkpt lat="40.6159745" lon="44.1855531">
<ele>2285.505</ele>
</trkpt>
<trkpt lat="40.6170268" lon="44.1842642">
<ele>2263.605</ele>
</trkpt>
<trkpt lat="40.6180503" lon="44.1830938">
<ele>2250.084</ele>
</trkpt>
<trkpt lat="40.6190441" lon="44.1819852">
<ele>2237.588</ele>
</trkpt>
<trkpt lat="40.6200064" lon="44.1809677">
<ele>2229.966</ele>
</trkpt>
<trkpt lat="40.6210282" lon="44.1798866">
<ele>2225.896</ele>
</trkpt>
<trkpt lat="40.622041" lon="44.1788572">
<ele>2218.578</ele>
</trkpt>
<trkpt lat="40.6231187" lon="44.1779882">
<ele>2214.788</ele>
</trkpt>
<trkpt lat="40.6243527" lon="44.1776117">
<ele>2210.598</ele>
</trkpt>
<trkpt lat="40.6254767" lon="44.1768451">
<ele>2210.0</ele>
</trkpt>
<trkpt lat="40.6264389" lon="44.1758298">
<ele>2208.653</ele>
</trkpt>
<trkpt lat="40.6273322" lon="44.1752461">
<ele>2202.462</ele>
</trkpt>
</trkseg>
</trk>
</gpx>
