<?xml version="1.0" encoding="UTF-8"?>
<gpx version="1.1" creator="lesgrandsraidsaski.com" xmlns="http://www.topografix.com/GPX/1/1">
  <metadata>
    <desc>Trace dérivée (simplifiée RDP epsilon=8m) pour affichage web — voir data/gpx-sources/autriche-otztal-2024.original.gpx pour la trace complète, seule source de vérité pour distance/D+/D-.</desc>
  </metadata>
  <trk>
    <name>Tour de l'Ötztal à ski de randonnée</name>
    <trkseg>
      <trkpt lat="46.8668196" lon="11.024639"><ele>1940.7</ele><time>2024-04-27T11:19:22Z</time></trkpt>
      <trkpt lat="46.8669065" lon="11.0246191"><ele>1939.3</ele><time>2024-04-27T11:19:33Z</time></trkpt>
      <trkpt lat="46.8666783" lon="11.0246647"><ele>1939.3</ele><time>2024-04-27T11:21:04Z</time></trkpt>
      <trkpt lat="46.8670591" lon="11.0259777"><ele>1948.6</ele><time>2024-04-27T11:26:39Z</time></trkpt>
      <trkpt lat="46.8666685" lon="11.0266735"><ele>1959.3</ele><time>2024-04-27T11:28:42Z</time></trkpt>
      <trkpt lat="46.8665964" lon="11.0262999"><ele>1968.1</ele><time>2024-04-27T11:29:30Z</time></trkpt>
      <trkpt lat="46.8662325" lon="11.0265386"><ele>1972.7</ele><time>2024-04-27T11:30:39Z</time></trkpt>
      <trkpt lat="46.8661873" lon="11.0262256"><ele>1981.3</ele><time>2024-04-27T11:31:16Z</time></trkpt>
      <trkpt lat="46.8655991" lon="11.0259148"><ele>1991.9</ele><time>2024-04-27T11:33:19Z</time></trkpt>
      <trkpt lat="46.8637291" lon="11.0254074"><ele>2027.8</ele><time>2024-04-27T11:38:26Z</time></trkpt>
      <trkpt lat="46.8618894" lon="11.0239195"><ele>2049.4</ele><time>2024-04-27T11:43:10Z</time></trkpt>
      <trkpt lat="46.8604245" lon="11.0236043"><ele>2063.1</ele><time>2024-04-27T11:46:21Z</time></trkpt>
      <trkpt lat="46.857818" lon="11.0216939"><ele>2115.2</ele><time>2024-04-27T11:53:33Z</time></trkpt>
      <trkpt lat="46.8568687" lon="11.0205233"><ele>2143.7</ele><time>2024-04-27T11:57:02Z</time></trkpt>
      <trkpt lat="46.8562082" lon="11.0194336"><ele>2159.7</ele><time>2024-04-27T11:59:24Z</time></trkpt>
      <trkpt lat="46.8547926" lon="11.0185007"><ele>2180.3</ele><time>2024-04-27T12:03:04Z</time></trkpt>
      <trkpt lat="46.8537521" lon="11.0184358"><ele>2197.7</ele><time>2024-04-27T12:06:50Z</time></trkpt>
      <trkpt lat="46.8529117" lon="11.0186701"><ele>2212.6</ele><time>2024-04-27T12:09:16Z</time></trkpt>
      <trkpt lat="46.8523424" lon="11.0183017"><ele>2227.3</ele><time>2024-04-27T12:11:03Z</time></trkpt>
      <trkpt lat="46.8519555" lon="11.0182798"><ele>2234.0</ele><time>2024-04-27T12:11:54Z</time></trkpt>
      <trkpt lat="46.8489285" lon="11.0190762"><ele>2251.1</ele><time>2024-04-27T12:17:56Z</time></trkpt>
      <trkpt lat="46.8482921" lon="11.0188459"><ele>2254.2</ele><time>2024-04-27T12:19:17Z</time></trkpt>
      <trkpt lat="46.8479273" lon="11.0179381"><ele>2261.6</ele><time>2024-04-27T12:20:44Z</time></trkpt>
      <trkpt lat="46.8477337" lon="11.0177549"><ele>2262.1</ele><time>2024-04-27T12:21:09Z</time></trkpt>
      <trkpt lat="46.847167" lon="11.0179593"><ele>2260.0</ele><time>2024-04-27T12:22:00Z</time></trkpt>
      <trkpt lat="46.8468933" lon="11.017884"><ele>2256.9</ele><time>2024-04-27T12:22:25Z</time></trkpt>
      <trkpt lat="46.8467305" lon="11.0175965"><ele>2253.5</ele><time>2024-04-27T12:22:55Z</time></trkpt>
      <trkpt lat="46.846985" lon="11.0165442"><ele>2263.3</ele><time>2024-04-27T12:24:36Z</time></trkpt>
      <trkpt lat="46.8468182" lon="11.0149919"><ele>2280.0</ele><time>2024-04-27T12:27:29Z</time></trkpt>
      <trkpt lat="46.846959" lon="11.0132287"><ele>2297.6</ele><time>2024-04-27T12:30:38Z</time></trkpt>
      <trkpt lat="46.8469496" lon="11.0114418"><ele>2298.7</ele><time>2024-04-27T12:33:15Z</time></trkpt>
      <trkpt lat="46.8471176" lon="11.01086"><ele>2302.2</ele><time>2024-04-27T12:34:16Z</time></trkpt>
      <trkpt lat="46.8470963" lon="11.0102487"><ele>2298.9</ele><time>2024-04-27T12:35:02Z</time></trkpt>
      <trkpt lat="46.84759" lon="11.0106242"><ele>2286.3</ele><time>2024-04-27T12:35:27Z</time></trkpt>
      <trkpt lat="46.8474602" lon="11.009746"><ele>2269.5</ele><time>2024-04-27T12:36:25Z</time></trkpt>
      <trkpt lat="46.8475677" lon="11.0081207"><ele>2243.2</ele><time>2024-04-27T12:37:07Z</time></trkpt>
      <trkpt lat="46.8472296" lon="11.0072592"><ele>2248.2</ele><time>2024-04-27T12:39:43Z</time></trkpt>
      <trkpt lat="46.8456368" lon="11.0060334"><ele>2242.2</ele><time>2024-04-27T12:42:57Z</time></trkpt>
      <trkpt lat="46.8438606" lon="11.0038459"><ele>2216.7</ele><time>2024-04-27T12:45:16Z</time></trkpt>
      <trkpt lat="46.8418106" lon="11.0018731"><ele>2230.2</ele><time>2024-04-27T12:57:31Z</time></trkpt>
      <trkpt lat="46.8416801" lon="11.0015055"><ele>2236.9</ele><time>2024-04-27T12:58:30Z</time></trkpt>
      <trkpt lat="46.8411649" lon="11.0014713"><ele>2253.0</ele><time>2024-04-27T13:00:18Z</time></trkpt>
      <trkpt lat="46.8385008" lon="11.0001103"><ele>2297.4</ele><time>2024-04-27T13:07:36Z</time></trkpt>
      <trkpt lat="46.8377309" lon="10.9993186"><ele>2316.9</ele><time>2024-04-27T13:24:12Z</time></trkpt>
      <trkpt lat="46.8364734" lon="10.9984727"><ele>2325.4</ele><time>2024-04-27T13:27:14Z</time></trkpt>
      <trkpt lat="46.8359193" lon="10.9982788"><ele>2331.3</ele><time>2024-04-27T13:28:23Z</time></trkpt>
      <trkpt lat="46.8353561" lon="10.9977077"><ele>2334.4</ele><time>2024-04-27T13:29:48Z</time></trkpt>
      <trkpt lat="46.8345056" lon="10.9971663"><ele>2346.7</ele><time>2024-04-27T13:32:23Z</time></trkpt>
      <trkpt lat="46.8338654" lon="10.9962506"><ele>2364.7</ele><time>2024-04-27T13:34:51Z</time></trkpt>
      <trkpt lat="46.8334994" lon="10.995206"><ele>2382.5</ele><time>2024-04-27T13:36:51Z</time></trkpt>
      <trkpt lat="46.8333497" lon="10.9962669"><ele>2396.2</ele><time>2024-04-27T13:39:05Z</time></trkpt>
      <trkpt lat="46.8332557" lon="10.9963473"><ele>2400.0</ele><time>2024-04-27T13:39:21Z</time></trkpt>
      <trkpt lat="46.8321443" lon="10.9950177"><ele>2428.9</ele><time>2024-04-27T13:43:36Z</time></trkpt>
      <trkpt lat="46.8318616" lon="10.9944073"><ele>2440.1</ele><time>2024-04-27T13:45:10Z</time></trkpt>
      <trkpt lat="46.8308902" lon="10.9935882"><ele>2455.7</ele><time>2024-04-27T13:48:27Z</time></trkpt>
      <trkpt lat="46.8295781" lon="10.9931296"><ele>2445.0</ele><time>2024-04-27T13:50:01Z</time></trkpt>
      <trkpt lat="46.8276907" lon="10.9914542"><ele>2411.9</ele><time>2024-04-27T13:52:30Z</time></trkpt>
      <trkpt lat="46.8269901" lon="10.9911665"><ele>2390.8</ele><time>2024-04-27T13:52:55Z</time></trkpt>
      <trkpt lat="46.8253384" lon="10.9908509"><ele>2351.7</ele><time>2024-04-27T13:54:42Z</time></trkpt>
      <trkpt lat="46.8244137" lon="10.9911729"><ele>2354.5</ele><time>2024-04-27T14:02:31Z</time></trkpt>
      <trkpt lat="46.8238099" lon="10.991753"><ele>2360.4</ele><time>2024-04-27T14:04:06Z</time></trkpt>
      <trkpt lat="46.8228609" lon="10.9936132"><ele>2374.0</ele><time>2024-04-27T14:07:15Z</time></trkpt>
      <trkpt lat="46.8217317" lon="10.994869"><ele>2376.3</ele><time>2024-04-27T14:10:06Z</time></trkpt>
      <trkpt lat="46.8207783" lon="10.9953377"><ele>2380.4</ele><time>2024-04-27T14:12:03Z</time></trkpt>
      <trkpt lat="46.8197679" lon="10.9969883"><ele>2382.7</ele><time>2024-04-27T14:15:10Z</time></trkpt>
      <trkpt lat="46.8192395" lon="10.9972842"><ele>2383.7</ele><time>2024-04-27T14:16:25Z</time></trkpt>
      <trkpt lat="46.8185541" lon="10.9979961"><ele>2385.4</ele><time>2024-04-27T14:18:06Z</time></trkpt>
      <trkpt lat="46.8169738" lon="10.9988365"><ele>2388.9</ele><time>2024-04-27T14:21:45Z</time></trkpt>
      <trkpt lat="46.8142321" lon="11.0006132"><ele>2399.6</ele><time>2024-04-27T14:28:25Z</time></trkpt>
      <trkpt lat="46.8121756" lon="11.0016565"><ele>2420.2</ele><time>2024-04-27T14:43:41Z</time></trkpt>
      <trkpt lat="46.8097526" lon="11.0034183"><ele>2436.3</ele><time>2024-04-27T14:48:50Z</time></trkpt>
      <trkpt lat="46.8061484" lon="11.0050407"><ele>2454.3</ele><time>2024-04-27T14:56:02Z</time></trkpt>
      <trkpt lat="46.8055666" lon="11.0050267"><ele>2460.9</ele><time>2024-04-27T14:57:17Z</time></trkpt>
      <trkpt lat="46.8041305" lon="11.0056018"><ele>2468.8</ele><time>2024-04-27T15:01:11Z</time></trkpt>
      <trkpt lat="46.8026787" lon="11.0065281"><ele>2478.0</ele><time>2024-04-27T15:04:29Z</time></trkpt>
      <trkpt lat="46.799334" lon="11.0098657"><ele>2505.8</ele><time>2024-04-27T15:13:17Z</time></trkpt>
      <trkpt lat="46.7971705" lon="11.0133369"><ele>2527.3</ele><time>2024-04-27T15:22:26Z</time></trkpt>
      <trkpt lat="46.7970539" lon="11.0133765"><ele>2534.4</ele><time>2024-04-27T15:22:47Z</time></trkpt>
      <trkpt lat="46.7967857" lon="11.0129479"><ele>2543.7</ele><time>2024-04-27T15:24:13Z</time></trkpt>
      <trkpt lat="46.7965514" lon="11.0131815"><ele>2548.7</ele><time>2024-04-27T15:25:11Z</time></trkpt>
      <trkpt lat="46.7964021" lon="11.0137157"><ele>2552.2</ele><time>2024-04-27T15:26:42Z</time></trkpt>
      <trkpt lat="46.7957248" lon="11.0150339"><ele>2567.3</ele><time>2024-04-27T15:30:10Z</time></trkpt>
      <trkpt lat="46.7941195" lon="11.0170088"><ele>2596.1</ele><time>2024-04-27T15:36:43Z</time></trkpt>
      <trkpt lat="46.7938858" lon="11.0169933"><ele>2607.3</ele><time>2024-04-27T15:37:26Z</time></trkpt>
      <trkpt lat="46.7935183" lon="11.0166358"><ele>2621.4</ele><time>2024-04-27T15:46:51Z</time></trkpt>
      <trkpt lat="46.7930404" lon="11.0167121"><ele>2632.3</ele><time>2024-04-27T15:48:54Z</time></trkpt>
      <trkpt lat="46.7893186" lon="11.0182777"><ele>2703.7</ele><time>2024-04-27T16:02:57Z</time></trkpt>
      <trkpt lat="46.7855225" lon="11.0192661"><ele>2761.4</ele><time>2024-04-27T16:17:30Z</time></trkpt>
      <trkpt lat="46.7837743" lon="11.0182951"><ele>2784.8</ele><time>2024-04-27T16:24:37Z</time></trkpt>
      <trkpt lat="46.7828001" lon="11.0182231"><ele>2800.5</ele><time>2024-04-27T16:28:47Z</time></trkpt>
      <trkpt lat="46.7822828" lon="11.017653"><ele>2807.1</ele><time>2024-04-27T16:31:31Z</time></trkpt>
      <trkpt lat="46.7820329" lon="11.0176711"><ele>2815.8</ele><time>2024-04-27T16:32:35Z</time></trkpt>
      <trkpt lat="46.781841" lon="11.0173971"><ele>2815.7</ele><time>2024-04-27T16:33:45Z</time></trkpt>
      <trkpt lat="46.7813608" lon="11.0173772"><ele>2837.1</ele><time>2024-04-27T16:35:47Z</time></trkpt>
      <trkpt lat="46.781425" lon="11.0170191"><ele>2827.2</ele><time>2024-04-27T16:44:42Z</time></trkpt>
      <trkpt lat="46.7811315" lon="11.0170511"><ele>2843.2</ele><time>2024-04-27T16:46:07Z</time></trkpt>
      <trkpt lat="46.7807495" lon="11.0173483"><ele>2855.3</ele><time>2024-04-27T16:48:20Z</time></trkpt>
      <trkpt lat="46.7809326" lon="11.0163539"><ele>2860.7</ele><time>2024-04-27T16:52:26Z</time></trkpt>
      <trkpt lat="46.7804739" lon="11.0164074"><ele>2880.2</ele><time>2024-04-27T16:54:39Z</time></trkpt>
      <trkpt lat="46.7805839" lon="11.0158806"><ele>2876.4</ele><time>2024-04-27T16:56:42Z</time></trkpt>
      <trkpt lat="46.7801947" lon="11.0161291"><ele>2901.0</ele><time>2024-04-27T16:58:39Z</time></trkpt>
      <trkpt lat="46.779644" lon="11.016916"><ele>2911.6</ele><time>2024-04-27T17:03:16Z</time></trkpt>
      <trkpt lat="46.7795273" lon="11.0150861"><ele>2930.3</ele><time>2024-04-27T17:10:39Z</time></trkpt>
      <trkpt lat="46.7786071" lon="11.0157152"><ele>2966.5</ele><time>2024-04-27T17:19:54Z</time></trkpt>
      <trkpt lat="46.7784135" lon="11.0145748"><ele>2977.4</ele><time>2024-04-27T17:25:46Z</time></trkpt>
      <trkpt lat="46.7775439" lon="11.0147597"><ele>3007.4</ele><time>2024-04-27T17:31:00Z</time></trkpt>
      <trkpt lat="46.7775233" lon="11.0140976"><ele>3014.7</ele><time>2024-04-27T17:33:30Z</time></trkpt>
      <trkpt lat="46.7771786" lon="11.0142137"><ele>3028.1</ele><time>2024-04-27T17:35:27Z</time></trkpt>
      <trkpt lat="46.7772727" lon="11.0136582"><ele>3036.1</ele><time>2024-04-27T17:37:40Z</time></trkpt>
      <trkpt lat="46.7776684" lon="11.013217"><ele>3051.7</ele><time>2024-04-27T17:41:08Z</time></trkpt>
      <trkpt lat="46.7773443" lon="11.0129982"><ele>3069.6</ele><time>2024-04-27T17:45:58Z</time></trkpt>
      <trkpt lat="46.7786652" lon="11.0122049"><ele>3144.6</ele><time>2024-04-27T18:26:39Z</time></trkpt>
      <trkpt lat="46.7794251" lon="11.0113959"><ele>3151.8</ele><time>2024-04-27T18:52:56Z</time></trkpt>
      <trkpt lat="46.7801962" lon="11.0114655"><ele>3126.5</ele><time>2024-04-27T18:53:47Z</time></trkpt>
      <trkpt lat="46.7805571" lon="11.0110521"><ele>3115.2</ele><time>2024-04-27T18:53:57Z</time></trkpt>
      <trkpt lat="46.7807094" lon="11.0095111"><ele>3107.8</ele><time>2024-04-27T18:58:31Z</time></trkpt>
      <trkpt lat="46.7809057" lon="11.0090337"><ele>3102.8</ele><time>2024-04-27T18:59:18Z</time></trkpt>
      <trkpt lat="46.7817973" lon="11.0083168"><ele>3091.0</ele><time>2024-04-27T19:02:13Z</time></trkpt>
      <trkpt lat="46.7842125" lon="11.0070231"><ele>3030.0</ele><time>2024-04-27T19:05:03Z</time></trkpt>
      <trkpt lat="46.7848205" lon="11.0057712"><ele>3017.5</ele><time>2024-04-27T19:05:54Z</time></trkpt>
      <trkpt lat="46.7852588" lon="11.0051952"><ele>3010.0</ele><time>2024-04-27T19:06:15Z</time></trkpt>
      <trkpt lat="46.7891861" lon="11.0013743"><ele>2945.7</ele><time>2024-04-27T19:08:39Z</time></trkpt>
      <trkpt lat="46.7910682" lon="10.9981699"><ele>2913.8</ele><time>2024-04-27T19:09:38Z</time></trkpt>
      <trkpt lat="46.7918926" lon="10.9972461"><ele>2902.7</ele><time>2024-04-27T19:09:54Z</time></trkpt>
      <trkpt lat="46.7933645" lon="10.9949768"><ele>2885.0</ele><time>2024-04-27T19:10:52Z</time></trkpt>
      <trkpt lat="46.7935411" lon="10.9944937"><ele>2884.5</ele><time>2024-04-27T19:11:24Z</time></trkpt>
      <trkpt lat="46.7941164" lon="10.9939552"><ele>2883.4</ele><time>2024-04-27T19:12:46Z</time></trkpt>
      <trkpt lat="46.7946857" lon="10.992613"><ele>2880.6</ele><time>2024-04-27T19:13:54Z</time></trkpt>
      <trkpt lat="46.7950873" lon="10.9920604"><ele>2877.5</ele><time>2024-04-27T19:15:19Z</time></trkpt>
      <trkpt lat="46.7960411" lon="10.9894862"><ele>2873.3</ele><time>2024-04-27T19:18:36Z</time></trkpt>
      <trkpt lat="46.7965424" lon="10.9887096"><ele>2872.9</ele><time>2024-04-27T19:20:28Z</time></trkpt>
      <trkpt lat="46.7967513" lon="10.98867"><ele>2871.3</ele><time>2024-04-27T19:21:00Z</time></trkpt>
      <trkpt lat="46.7971648" lon="10.9889214"><ele>2872.4</ele><time>2024-04-27T19:23:30Z</time></trkpt>
      <trkpt lat="46.7974749" lon="10.9895496"><ele>2868.1</ele><time>2024-04-27T19:23:56Z</time></trkpt>
      <trkpt lat="46.7981153" lon="10.9901068"><ele>2858.4</ele><time>2024-04-27T19:24:28Z</time></trkpt>
      <trkpt lat="46.7981958" lon="10.9905313"><ele>2854.4</ele><time>2024-04-27T19:24:39Z</time></trkpt>
      <trkpt lat="46.7986416" lon="10.9907985"><ele>2849.0</ele><time>2024-04-27T19:24:55Z</time></trkpt>
      <trkpt lat="46.7998252" lon="10.9905007"><ele>2839.7</ele><time>2024-04-27T19:25:27Z</time></trkpt>
      <trkpt lat="46.8015279" lon="10.9893074"><ele>2816.6</ele><time>2024-04-27T19:27:07Z</time></trkpt>
      <trkpt lat="46.8025242" lon="10.9881839"><ele>2810.3</ele><time>2024-04-27T19:28:06Z</time></trkpt>
      <trkpt lat="46.803219" lon="10.9882667"><ele>2826.6</ele><time>2024-04-27T19:33:02Z</time></trkpt>
      <trkpt lat="46.8028568" lon="10.9888368"><ele>2838.5</ele><time>2024-04-27T19:34:59Z</time></trkpt>
      <trkpt lat="46.8035329" lon="10.9886793"><ele>2851.6</ele><time>2024-04-27T19:36:57Z</time></trkpt>
      <trkpt lat="46.8045088" lon="10.9881658"><ele>2863.1</ele><time>2024-04-27T19:39:42Z</time></trkpt>
      <trkpt lat="46.8054485" lon="10.9884687"><ele>2866.4</ele><time>2024-04-27T19:41:39Z</time></trkpt>
      <trkpt lat="46.8057406" lon="10.9888637"><ele>2867.3</ele><time>2024-04-27T19:57:34Z</time></trkpt>
      <trkpt lat="46.8057596" lon="10.9888201"><ele>2871.4</ele><time>2024-04-28T07:15:37Z</time></trkpt>
      <trkpt lat="46.8056741" lon="10.9885905"><ele>2870.9</ele><time>2024-04-28T07:17:57Z</time></trkpt>
      <trkpt lat="46.8057354" lon="10.9886971"><ele>2869.9</ele><time>2024-04-28T07:18:50Z</time></trkpt>
      <trkpt lat="46.8054502" lon="10.9889613"><ele>2869.7</ele><time>2024-04-28T07:19:20Z</time></trkpt>
      <trkpt lat="46.8044929" lon="10.9888903"><ele>2868.5</ele><time>2024-04-28T07:20:50Z</time></trkpt>
      <trkpt lat="46.8019671" lon="10.9904099"><ele>2869.7</ele><time>2024-04-28T07:26:15Z</time></trkpt>
      <trkpt lat="46.8002603" lon="10.9909977"><ele>2860.2</ele><time>2024-04-28T07:29:30Z</time></trkpt>
      <trkpt lat="46.7987329" lon="10.9903924"><ele>2843.7</ele><time>2024-04-28T07:35:19Z</time></trkpt>
      <trkpt lat="46.798338" lon="10.9895653"><ele>2851.3</ele><time>2024-04-28T07:37:38Z</time></trkpt>
      <trkpt lat="46.7978775" lon="10.9892837"><ele>2859.4</ele><time>2024-04-28T07:39:51Z</time></trkpt>
      <trkpt lat="46.7975799" lon="10.9888649"><ele>2864.7</ele><time>2024-04-28T07:41:06Z</time></trkpt>
      <trkpt lat="46.7972897" lon="10.9887834"><ele>2872.2</ele><time>2024-04-28T07:42:20Z</time></trkpt>
      <trkpt lat="46.7968934" lon="10.9892635"><ele>2880.5</ele><time>2024-04-28T07:44:02Z</time></trkpt>
      <trkpt lat="46.7966991" lon="10.9897557"><ele>2883.6</ele><time>2024-04-28T07:45:06Z</time></trkpt>
      <trkpt lat="46.7963814" lon="10.9919239"><ele>2897.5</ele><time>2024-04-28T07:49:48Z</time></trkpt>
      <trkpt lat="46.7960746" lon="10.9922333"><ele>2894.5</ele><time>2024-04-28T07:50:36Z</time></trkpt>
      <trkpt lat="46.7951348" lon="10.9923957"><ele>2881.9</ele><time>2024-04-28T07:51:46Z</time></trkpt>
      <trkpt lat="46.7947836" lon="10.9926886"><ele>2881.6</ele><time>2024-04-28T07:52:34Z</time></trkpt>
      <trkpt lat="46.7943311" lon="10.9923298"><ele>2872.3</ele><time>2024-04-28T07:52:55Z</time></trkpt>
      <trkpt lat="46.793593" lon="10.9912507"><ele>2865.8</ele><time>2024-04-28T07:54:31Z</time></trkpt>
      <trkpt lat="46.7917556" lon="10.9894495"><ele>2878.8</ele><time>2024-04-28T08:02:58Z</time></trkpt>
      <trkpt lat="46.7909136" lon="10.9893487"><ele>2888.4</ele><time>2024-04-28T08:05:38Z</time></trkpt>
      <trkpt lat="46.7900392" lon="10.9895578"><ele>2895.2</ele><time>2024-04-28T08:08:08Z</time></trkpt>
      <trkpt lat="46.7898154" lon="10.9889716"><ele>2906.7</ele><time>2024-04-28T08:10:05Z</time></trkpt>
      <trkpt lat="46.7894957" lon="10.9887767"><ele>2911.7</ele><time>2024-04-28T08:11:30Z</time></trkpt>
      <trkpt lat="46.789333" lon="10.9887866"><ele>2915.6</ele><time>2024-04-28T08:12:13Z</time></trkpt>
      <trkpt lat="46.7890521" lon="10.989291"><ele>2927.8</ele><time>2024-04-28T08:14:05Z</time></trkpt>
      <trkpt lat="46.7887045" lon="10.9887037"><ele>2937.6</ele><time>2024-04-28T08:16:34Z</time></trkpt>
      <trkpt lat="46.7881792" lon="10.9882105"><ele>2952.0</ele><time>2024-04-28T08:19:09Z</time></trkpt>
      <trkpt lat="46.787581" lon="10.9880764"><ele>2963.1</ele><time>2024-04-28T08:21:38Z</time></trkpt>
      <trkpt lat="46.7872121" lon="10.9883015"><ele>2969.6</ele><time>2024-04-28T08:23:14Z</time></trkpt>
      <trkpt lat="46.7872137" lon="10.9886028"><ele>2975.0</ele><time>2024-04-28T08:24:08Z</time></trkpt>
      <trkpt lat="46.7860769" lon="10.9901067"><ele>2994.2</ele><time>2024-04-28T08:37:33Z</time></trkpt>
      <trkpt lat="46.7846045" lon="10.9932892"><ele>3023.6</ele><time>2024-04-28T08:47:14Z</time></trkpt>
      <trkpt lat="46.7839614" lon="10.9941663"><ele>3018.6</ele><time>2024-04-28T08:49:17Z</time></trkpt>
      <trkpt lat="46.7827604" lon="10.9949147"><ele>3023.9</ele><time>2024-04-28T08:53:12Z</time></trkpt>
      <trkpt lat="46.7818049" lon="10.9945256"><ele>3014.8</ele><time>2024-04-28T08:54:42Z</time></trkpt>
      <trkpt lat="46.7813139" lon="10.9938863"><ele>3003.5</ele><time>2024-04-28T08:55:25Z</time></trkpt>
      <trkpt lat="46.7809106" lon="10.9936712"><ele>2995.0</ele><time>2024-04-28T08:55:41Z</time></trkpt>
      <trkpt lat="46.7807641" lon="10.9931564"><ele>2990.9</ele><time>2024-04-28T08:56:18Z</time></trkpt>
      <trkpt lat="46.7804576" lon="10.9930275"><ele>2984.3</ele><time>2024-04-28T08:56:34Z</time></trkpt>
      <trkpt lat="46.7786213" lon="10.9895917"><ele>2980.5</ele><time>2024-04-28T09:03:46Z</time></trkpt>
      <trkpt lat="46.7770844" lon="10.9871433"><ele>2979.9</ele><time>2024-04-28T09:09:12Z</time></trkpt>
      <trkpt lat="46.7771678" lon="10.9862114"><ele>2983.5</ele><time>2024-04-28T09:11:09Z</time></trkpt>
      <trkpt lat="46.7775435" lon="10.9854005"><ele>2992.8</ele><time>2024-04-28T09:21:17Z</time></trkpt>
      <trkpt lat="46.7775976" lon="10.9849864"><ele>3001.1</ele><time>2024-04-28T09:22:48Z</time></trkpt>
      <trkpt lat="46.777355" lon="10.9841053"><ele>3013.2</ele><time>2024-04-28T09:25:38Z</time></trkpt>
      <trkpt lat="46.7770845" lon="10.98178"><ele>3042.6</ele><time>2024-04-28T09:33:10Z</time></trkpt>
      <trkpt lat="46.776683" lon="10.979712"><ele>3061.8</ele><time>2024-04-28T09:39:28Z</time></trkpt>
      <trkpt lat="46.7772449" lon="10.9780464"><ele>3085.3</ele><time>2024-04-28T09:46:02Z</time></trkpt>
      <trkpt lat="46.7762881" lon="10.9779295"><ele>3119.7</ele><time>2024-04-28T09:51:17Z</time></trkpt>
      <trkpt lat="46.7749152" lon="10.9786639"><ele>3152.8</ele><time>2024-04-28T09:59:52Z</time></trkpt>
      <trkpt lat="46.7754337" lon="10.976894"><ele>3177.0</ele><time>2024-04-28T10:13:52Z</time></trkpt>
      <trkpt lat="46.7746879" lon="10.9770542"><ele>3203.5</ele><time>2024-04-28T10:17:09Z</time></trkpt>
      <trkpt lat="46.7752105" lon="10.9760183"><ele>3223.9</ele><time>2024-04-28T10:21:57Z</time></trkpt>
      <trkpt lat="46.7756267" lon="10.9757183"><ele>3238.9</ele><time>2024-04-28T10:24:37Z</time></trkpt>
      <trkpt lat="46.7750393" lon="10.9755675"><ele>3261.4</ele><time>2024-04-28T10:27:22Z</time></trkpt>
      <trkpt lat="46.7755617" lon="10.9752"><ele>3269.7</ele><time>2024-04-28T10:31:06Z</time></trkpt>
      <trkpt lat="46.7754704" lon="10.9750152"><ele>3287.6</ele><time>2024-04-28T10:37:55Z</time></trkpt>
      <trkpt lat="46.7755374" lon="10.9746275"><ele>3313.9</ele><time>2024-04-28T11:08:21Z</time></trkpt>
      <trkpt lat="46.7759869" lon="10.9740924"><ele>3357.5</ele><time>2024-04-28T11:37:06Z</time></trkpt>
      <trkpt lat="46.7758111" lon="10.9737165"><ele>3348.2</ele><time>2024-04-28T12:06:12Z</time></trkpt>
      <trkpt lat="46.7757729" lon="10.9722932"><ele>3329.0</ele><time>2024-04-28T12:07:22Z</time></trkpt>
      <trkpt lat="46.7750665" lon="10.9688255"><ele>3280.6</ele><time>2024-04-28T12:09:35Z</time></trkpt>
      <trkpt lat="46.7743355" lon="10.9678168"><ele>3266.5</ele><time>2024-04-28T12:09:56Z</time></trkpt>
      <trkpt lat="46.7740621" lon="10.9676872"><ele>3262.8</ele><time>2024-04-28T12:10:12Z</time></trkpt>
      <trkpt lat="46.7736381" lon="10.9677611"><ele>3264.1</ele><time>2024-04-28T12:11:16Z</time></trkpt>
      <trkpt lat="46.773347" lon="10.9667102"><ele>3258.3</ele><time>2024-04-28T12:12:10Z</time></trkpt>
      <trkpt lat="46.7731421" lon="10.9664416"><ele>3259.6</ele><time>2024-04-28T12:12:55Z</time></trkpt>
      <trkpt lat="46.7737541" lon="10.9654025"><ele>3251.6</ele><time>2024-04-28T12:14:47Z</time></trkpt>
      <trkpt lat="46.7737732" lon="10.9641478"><ele>3250.4</ele><time>2024-04-28T12:16:07Z</time></trkpt>
      <trkpt lat="46.7755662" lon="10.9616346"><ele>3232.2</ele><time>2024-04-28T12:18:52Z</time></trkpt>
      <trkpt lat="46.7757023" lon="10.9612397"><ele>3229.5</ele><time>2024-04-28T12:19:08Z</time></trkpt>
      <trkpt lat="46.7757631" lon="10.9601532"><ele>3225.7</ele><time>2024-04-28T12:20:02Z</time></trkpt>
      <trkpt lat="46.7765123" lon="10.959284"><ele>3217.0</ele><time>2024-04-28T12:20:50Z</time></trkpt>
      <trkpt lat="46.7771432" lon="10.9580561"><ele>3204.8</ele><time>2024-04-28T12:21:27Z</time></trkpt>
      <trkpt lat="46.7773148" lon="10.9572861"><ele>3195.7</ele><time>2024-04-28T12:21:38Z</time></trkpt>
      <trkpt lat="46.7775094" lon="10.9569735"><ele>3191.4</ele><time>2024-04-28T12:21:43Z</time></trkpt>
      <trkpt lat="46.7778866" lon="10.9568359"><ele>3188.9</ele><time>2024-04-28T12:22:31Z</time></trkpt>
      <trkpt lat="46.7785214" lon="10.9562523"><ele>3181.0</ele><time>2024-04-28T12:23:08Z</time></trkpt>
      <trkpt lat="46.7793779" lon="10.9543154"><ele>3169.7</ele><time>2024-04-28T12:24:27Z</time></trkpt>
      <trkpt lat="46.7799968" lon="10.9535316"><ele>3165.7</ele><time>2024-04-28T12:25:13Z</time></trkpt>
      <trkpt lat="46.7800849" lon="10.9515083"><ele>3153.2</ele><time>2024-04-28T12:26:38Z</time></trkpt>
      <trkpt lat="46.7801894" lon="10.9513657"><ele>3152.8</ele><time>2024-04-28T12:27:04Z</time></trkpt>
      <trkpt lat="46.7805577" lon="10.9513914"><ele>3153.3</ele><time>2024-04-28T12:28:07Z</time></trkpt>
      <trkpt lat="46.7807001" lon="10.9512097"><ele>3150.8</ele><time>2024-04-28T12:28:28Z</time></trkpt>
      <trkpt lat="46.7808864" lon="10.9503655"><ele>3145.4</ele><time>2024-04-28T12:29:11Z</time></trkpt>
      <trkpt lat="46.7812016" lon="10.9496675"><ele>3138.4</ele><time>2024-04-28T12:29:32Z</time></trkpt>
      <trkpt lat="46.7816371" lon="10.9493121"><ele>3127.6</ele><time>2024-04-28T12:29:43Z</time></trkpt>
      <trkpt lat="46.7819779" lon="10.9492605"><ele>3119.8</ele><time>2024-04-28T12:29:48Z</time></trkpt>
      <trkpt lat="46.7833969" lon="10.9479598"><ele>3066.9</ele><time>2024-04-28T12:30:52Z</time></trkpt>
      <trkpt lat="46.7843619" lon="10.94768"><ele>3003.5</ele><time>2024-04-28T12:36:12Z</time></trkpt>
      <trkpt lat="46.7855061" lon="10.9463523"><ele>2937.1</ele><time>2024-04-28T12:36:34Z</time></trkpt>
      <trkpt lat="46.7862892" lon="10.9447792"><ele>2884.3</ele><time>2024-04-28T12:36:50Z</time></trkpt>
      <trkpt lat="46.7863934" lon="10.9441516"><ele>2873.1</ele><time>2024-04-28T12:36:55Z</time></trkpt>
      <trkpt lat="46.7862084" lon="10.9431212"><ele>2866.1</ele><time>2024-04-28T12:39:24Z</time></trkpt>
      <trkpt lat="46.7865126" lon="10.9421027"><ele>2845.9</ele><time>2024-04-28T12:39:40Z</time></trkpt>
      <trkpt lat="46.7870162" lon="10.9410611"><ele>2825.8</ele><time>2024-04-28T12:39:51Z</time></trkpt>
      <trkpt lat="46.7879327" lon="10.9399993"><ele>2802.4</ele><time>2024-04-28T12:40:07Z</time></trkpt>
      <trkpt lat="46.7888003" lon="10.9381356"><ele>2767.6</ele><time>2024-04-28T12:40:28Z</time></trkpt>
      <trkpt lat="46.7895115" lon="10.937936"><ele>2752.1</ele><time>2024-04-28T12:40:39Z</time></trkpt>
      <trkpt lat="46.7903275" lon="10.9367877"><ele>2738.3</ele><time>2024-04-28T12:41:00Z</time></trkpt>
      <trkpt lat="46.7916707" lon="10.936204"><ele>2721.3</ele><time>2024-04-28T12:44:02Z</time></trkpt>
      <trkpt lat="46.7920972" lon="10.9355365"><ele>2700.2</ele><time>2024-04-28T12:44:12Z</time></trkpt>
      <trkpt lat="46.7931116" lon="10.934912"><ele>2683.0</ele><time>2024-04-28T12:44:28Z</time></trkpt>
      <trkpt lat="46.7932673" lon="10.9346329"><ele>2678.4</ele><time>2024-04-28T12:44:34Z</time></trkpt>
      <trkpt lat="46.7932126" lon="10.934297"><ele>2669.7</ele><time>2024-04-28T12:44:39Z</time></trkpt>
      <trkpt lat="46.7935713" lon="10.9342494"><ele>2667.6</ele><time>2024-04-28T12:45:42Z</time></trkpt>
      <trkpt lat="46.7937593" lon="10.9340272"><ele>2658.2</ele><time>2024-04-28T12:45:47Z</time></trkpt>
      <trkpt lat="46.7938635" lon="10.9335849"><ele>2646.8</ele><time>2024-04-28T12:45:52Z</time></trkpt>
      <trkpt lat="46.7941783" lon="10.93322"><ele>2634.6</ele><time>2024-04-28T12:45:57Z</time></trkpt>
      <trkpt lat="46.7973948" lon="10.9302184"><ele>2584.7</ele><time>2024-04-28T12:46:51Z</time></trkpt>
      <trkpt lat="46.7989844" lon="10.9273394"><ele>2562.4</ele><time>2024-04-28T12:47:54Z</time></trkpt>
      <trkpt lat="46.8000073" lon="10.9247898"><ele>2547.8</ele><time>2024-04-28T12:49:31Z</time></trkpt>
      <trkpt lat="46.8004445" lon="10.9231811"><ele>2534.7</ele><time>2024-04-28T12:50:12Z</time></trkpt>
      <trkpt lat="46.800535" lon="10.9212393"><ele>2522.0</ele><time>2024-04-28T12:52:19Z</time></trkpt>
      <trkpt lat="46.8008033" lon="10.9194779"><ele>2503.1</ele><time>2024-04-28T12:53:05Z</time></trkpt>
      <trkpt lat="46.8006978" lon="10.9188946"><ele>2503.9</ele><time>2024-04-28T13:03:08Z</time></trkpt>
      <trkpt lat="46.8010942" lon="10.9189998"><ele>2570.5</ele><time>2024-04-28T13:17:41Z</time></trkpt>
      <trkpt lat="46.8007045" lon="10.9189192"><ele>2502.9</ele><time>2024-04-28T13:28:25Z</time></trkpt>
      <trkpt lat="46.800668" lon="10.9191419"><ele>2440.6</ele><time>2024-04-28T13:32:29Z</time></trkpt>
      <trkpt lat="46.8006893" lon="10.9189348"><ele>2499.3</ele><time>2024-04-28T13:32:30Z</time></trkpt>
      <trkpt lat="46.8007959" lon="10.9189174"><ele>2505.0</ele><time>2024-04-28T13:39:50Z</time></trkpt>
      <trkpt lat="46.8011029" lon="10.916936"><ele>2488.4</ele><time>2024-04-28T13:41:07Z</time></trkpt>
      <trkpt lat="46.8007613" lon="10.9153012"><ele>2481.0</ele><time>2024-04-28T13:41:42Z</time></trkpt>
      <trkpt lat="46.8006572" lon="10.9139548"><ele>2474.5</ele><time>2024-04-28T13:43:13Z</time></trkpt>
      <trkpt lat="46.8007272" lon="10.9131889"><ele>2468.5</ele><time>2024-04-28T13:43:28Z</time></trkpt>
      <trkpt lat="46.8002061" lon="10.9097637"><ele>2438.7</ele><time>2024-04-28T13:45:18Z</time></trkpt>
      <trkpt lat="46.8001165" lon="10.9082131"><ele>2424.5</ele><time>2024-04-28T13:46:04Z</time></trkpt>
      <trkpt lat="46.8001769" lon="10.9063057"><ele>2411.3</ele><time>2024-04-28T13:47:00Z</time></trkpt>
      <trkpt lat="46.8004261" lon="10.9054105"><ele>2404.8</ele><time>2024-04-28T13:47:35Z</time></trkpt>
      <trkpt lat="46.8005649" lon="10.9036149"><ele>2395.1</ele><time>2024-04-28T13:48:51Z</time></trkpt>
      <trkpt lat="46.8005608" lon="10.9010056"><ele>2381.5</ele><time>2024-04-28T13:50:15Z</time></trkpt>
      <trkpt lat="46.8007237" lon="10.8995309"><ele>2371.2</ele><time>2024-04-28T13:51:24Z</time></trkpt>
      <trkpt lat="46.8007208" lon="10.8982481"><ele>2363.8</ele><time>2024-04-28T13:52:01Z</time></trkpt>
      <trkpt lat="46.8008728" lon="10.8974781"><ele>2359.3</ele><time>2024-04-28T13:52:32Z</time></trkpt>
      <trkpt lat="46.8008284" lon="10.8966938"><ele>2351.7</ele><time>2024-04-28T13:53:23Z</time></trkpt>
      <trkpt lat="46.8004111" lon="10.8949893"><ele>2325.1</ele><time>2024-04-28T13:53:44Z</time></trkpt>
      <trkpt lat="46.8004513" lon="10.8945026"><ele>2317.2</ele><time>2024-04-28T13:53:49Z</time></trkpt>
      <trkpt lat="46.8007555" lon="10.8942684"><ele>2312.1</ele><time>2024-04-28T13:54:00Z</time></trkpt>
      <trkpt lat="46.800743" lon="10.8936497"><ele>2316.7</ele><time>2024-04-28T14:06:14Z</time></trkpt>
      <trkpt lat="46.8010061" lon="10.8933085"><ele>2327.2</ele><time>2024-04-28T14:07:36Z</time></trkpt>
      <trkpt lat="46.8009482" lon="10.8931123"><ele>2331.2</ele><time>2024-04-28T14:08:21Z</time></trkpt>
      <trkpt lat="46.7996915" lon="10.8930104"><ele>2363.9</ele><time>2024-04-28T14:14:01Z</time></trkpt>
      <trkpt lat="46.8006513" lon="10.8915864"><ele>2395.1</ele><time>2024-04-28T14:20:51Z</time></trkpt>
      <trkpt lat="46.8001912" lon="10.8914452"><ele>2410.6</ele><time>2024-04-28T14:24:50Z</time></trkpt>
      <trkpt lat="46.8006967" lon="10.8900925"><ele>2441.0</ele><time>2024-04-28T14:29:26Z</time></trkpt>
      <trkpt lat="46.8003559" lon="10.8899346"><ele>2453.9</ele><time>2024-04-28T14:32:01Z</time></trkpt>
      <trkpt lat="46.8005447" lon="10.8891155"><ele>2473.0</ele><time>2024-04-28T14:34:15Z</time></trkpt>
      <trkpt lat="46.8002842" lon="10.8887454"><ele>2479.8</ele><time>2024-04-28T14:35:44Z</time></trkpt>
      <trkpt lat="46.8001471" lon="10.8882634"><ele>2486.9</ele><time>2024-04-28T14:36:36Z</time></trkpt>
      <trkpt lat="46.8001113" lon="10.8873153"><ele>2486.0</ele><time>2024-04-28T14:37:43Z</time></trkpt>
      <trkpt lat="46.8002964" lon="10.8862385"><ele>2475.9</ele><time>2024-04-28T14:38:46Z</time></trkpt>
      <trkpt lat="46.8004439" lon="10.8868048"><ele>2472.0</ele><time>2024-04-28T14:39:36Z</time></trkpt>
      <trkpt lat="46.8004073" lon="10.8870975"><ele>2467.3</ele><time>2024-04-28T14:40:07Z</time></trkpt>
      <trkpt lat="46.8003958" lon="10.8865699"><ele>2482.0</ele><time>2024-04-28T14:51:13Z</time></trkpt>
      <trkpt lat="46.8005775" lon="10.8864182"><ele>2491.5</ele><time>2024-04-28T14:52:35Z</time></trkpt>
      <trkpt lat="46.8010527" lon="10.8870152"><ele>2503.3</ele><time>2024-04-28T14:59:27Z</time></trkpt>
      <trkpt lat="46.8009783" lon="10.8870469"><ele>2511.9</ele><time>2024-04-29T05:25:32Z</time></trkpt>
      <trkpt lat="46.8007234" lon="10.8860243"><ele>2511.3</ele><time>2024-04-29T05:28:55Z</time></trkpt>
      <trkpt lat="46.800254" lon="10.8850849"><ele>2520.1</ele><time>2024-04-29T05:30:44Z</time></trkpt>
      <trkpt lat="46.7995822" lon="10.8827465"><ele>2539.0</ele><time>2024-04-29T05:35:45Z</time></trkpt>
      <trkpt lat="46.7990666" lon="10.8814537"><ele>2549.6</ele><time>2024-04-29T05:37:50Z</time></trkpt>
      <trkpt lat="46.7985207" lon="10.8763937"><ele>2611.0</ele><time>2024-04-29T05:48:25Z</time></trkpt>
      <trkpt lat="46.797698" lon="10.8737214"><ele>2655.7</ele><time>2024-04-29T05:57:40Z</time></trkpt>
      <trkpt lat="46.7984128" lon="10.8723773"><ele>2685.8</ele><time>2024-04-29T06:04:30Z</time></trkpt>
      <trkpt lat="46.7987598" lon="10.8719658"><ele>2700.6</ele><time>2024-04-29T06:06:35Z</time></trkpt>
      <trkpt lat="46.7987376" lon="10.8709039"><ele>2716.3</ele><time>2024-04-29T06:10:15Z</time></trkpt>
      <trkpt lat="46.7984937" lon="10.8703942"><ele>2725.1</ele><time>2024-04-29T06:11:50Z</time></trkpt>
      <trkpt lat="46.798889" lon="10.8704717"><ele>2734.1</ele><time>2024-04-29T06:16:30Z</time></trkpt>
      <trkpt lat="46.7977868" lon="10.8684271"><ele>2776.2</ele><time>2024-04-29T06:23:05Z</time></trkpt>
      <trkpt lat="46.7987769" lon="10.8687114"><ele>2799.6</ele><time>2024-04-29T06:33:50Z</time></trkpt>
      <trkpt lat="46.7985542" lon="10.8680597"><ele>2810.2</ele><time>2024-04-29T06:35:35Z</time></trkpt>
      <trkpt lat="46.7980831" lon="10.8674797"><ele>2822.7</ele><time>2024-04-29T06:37:45Z</time></trkpt>
      <trkpt lat="46.798152" lon="10.8673265"><ele>2828.5</ele><time>2024-04-29T06:38:15Z</time></trkpt>
      <trkpt lat="46.7978078" lon="10.8662794"><ele>2847.8</ele><time>2024-04-29T06:41:25Z</time></trkpt>
      <trkpt lat="46.7975736" lon="10.8659328"><ele>2854.6</ele><time>2024-04-29T06:42:19Z</time></trkpt>
      <trkpt lat="46.7971903" lon="10.8657577"><ele>2859.0</ele><time>2024-04-29T06:43:05Z</time></trkpt>
      <trkpt lat="46.7975806" lon="10.8659228"><ele>2855.3</ele><time>2024-04-29T06:48:40Z</time></trkpt>
      <trkpt lat="46.7970499" lon="10.8630741"><ele>2905.7</ele><time>2024-04-29T06:59:10Z</time></trkpt>
      <trkpt lat="46.7976266" lon="10.863016"><ele>2922.1</ele><time>2024-04-29T07:01:10Z</time></trkpt>
      <trkpt lat="46.7972993" lon="10.8621219"><ele>2940.4</ele><time>2024-04-29T07:03:50Z</time></trkpt>
      <trkpt lat="46.7982227" lon="10.8621281"><ele>2960.8</ele><time>2024-04-29T07:07:10Z</time></trkpt>
      <trkpt lat="46.7974958" lon="10.8604728"><ele>2996.4</ele><time>2024-04-29T07:12:45Z</time></trkpt>
      <trkpt lat="46.7984921" lon="10.8608016"><ele>3022.1</ele><time>2024-04-29T07:17:20Z</time></trkpt>
      <trkpt lat="46.7979738" lon="10.8596137"><ele>3039.0</ele><time>2024-04-29T07:21:20Z</time></trkpt>
      <trkpt lat="46.7985044" lon="10.8595257"><ele>3051.9</ele><time>2024-04-29T07:23:31Z</time></trkpt>
      <trkpt lat="46.7983482" lon="10.8593596"><ele>3058.7</ele><time>2024-04-29T07:29:41Z</time></trkpt>
      <trkpt lat="46.7986519" lon="10.8589917"><ele>3066.2</ele><time>2024-04-29T07:31:21Z</time></trkpt>
      <trkpt lat="46.7983329" lon="10.8588602"><ele>3075.2</ele><time>2024-04-29T07:32:56Z</time></trkpt>
      <trkpt lat="46.7980269" lon="10.8584636"><ele>3084.8</ele><time>2024-04-29T07:34:31Z</time></trkpt>
      <trkpt lat="46.7982985" lon="10.8581839"><ele>3095.5</ele><time>2024-04-29T07:36:01Z</time></trkpt>
      <trkpt lat="46.7977927" lon="10.8574416"><ele>3112.2</ele><time>2024-04-29T07:39:21Z</time></trkpt>
      <trkpt lat="46.7980966" lon="10.8572037"><ele>3119.2</ele><time>2024-04-29T07:40:56Z</time></trkpt>
      <trkpt lat="46.7978646" lon="10.8567873"><ele>3122.0</ele><time>2024-04-29T07:42:11Z</time></trkpt>
      <trkpt lat="46.7980947" lon="10.8562968"><ele>3131.7</ele><time>2024-04-29T07:44:00Z</time></trkpt>
      <trkpt lat="46.7980147" lon="10.8559608"><ele>3136.6</ele><time>2024-04-29T07:45:06Z</time></trkpt>
      <trkpt lat="46.7978272" lon="10.8558718"><ele>3143.0</ele><time>2024-04-29T07:45:56Z</time></trkpt>
      <trkpt lat="46.7973356" lon="10.8561135"><ele>3157.7</ele><time>2024-04-29T07:48:50Z</time></trkpt>
      <trkpt lat="46.797321" lon="10.8551277"><ele>3161.9</ele><time>2024-04-29T07:59:11Z</time></trkpt>
      <trkpt lat="46.7969297" lon="10.8550705"><ele>3174.1</ele><time>2024-04-29T08:00:41Z</time></trkpt>
      <trkpt lat="46.7971465" lon="10.8547041"><ele>3177.0</ele><time>2024-04-29T08:01:56Z</time></trkpt>
      <trkpt lat="46.7964833" lon="10.8548315"><ele>3197.6</ele><time>2024-04-29T08:04:17Z</time></trkpt>
      <trkpt lat="46.7966369" lon="10.8544934"><ele>3200.2</ele><time>2024-04-29T08:06:27Z</time></trkpt>
      <trkpt lat="46.7964516" lon="10.8545087"><ele>3209.7</ele><time>2024-04-29T08:07:43Z</time></trkpt>
      <trkpt lat="46.7965797" lon="10.8543706"><ele>3215.2</ele><time>2024-04-29T08:09:03Z</time></trkpt>
      <trkpt lat="46.7966443" lon="10.8536474"><ele>3237.4</ele><time>2024-04-29T08:13:50Z</time></trkpt>
      <trkpt lat="46.7967715" lon="10.8534419"><ele>3240.2</ele><time>2024-04-29T08:19:21Z</time></trkpt>
      <trkpt lat="46.796688" lon="10.8530029"><ele>3251.2</ele><time>2024-04-29T08:20:51Z</time></trkpt>
      <trkpt lat="46.796921" lon="10.8530703"><ele>3258.6</ele><time>2024-04-29T08:22:41Z</time></trkpt>
      <trkpt lat="46.7967687" lon="10.8528812"><ele>3265.2</ele><time>2024-04-29T08:24:31Z</time></trkpt>
      <trkpt lat="46.7969575" lon="10.8528455"><ele>3268.5</ele><time>2024-04-29T08:25:51Z</time></trkpt>
      <trkpt lat="46.7968295" lon="10.8527211"><ele>3273.6</ele><time>2024-04-29T08:26:31Z</time></trkpt>
      <trkpt lat="46.7970045" lon="10.8526522"><ele>3277.6</ele><time>2024-04-29T08:27:16Z</time></trkpt>
      <trkpt lat="46.7968775" lon="10.8524743"><ele>3282.5</ele><time>2024-04-29T08:28:01Z</time></trkpt>
      <trkpt lat="46.7971397" lon="10.8524494"><ele>3289.5</ele><time>2024-04-29T08:32:51Z</time></trkpt>
      <trkpt lat="46.7969863" lon="10.8522976"><ele>3293.1</ele><time>2024-04-29T08:34:46Z</time></trkpt>
      <trkpt lat="46.7977619" lon="10.8519329"><ele>3340.7</ele><time>2024-04-29T09:01:01Z</time></trkpt>
      <trkpt lat="46.7981352" lon="10.8519881"><ele>3357.6</ele><time>2024-04-29T09:09:06Z</time></trkpt>
      <trkpt lat="46.7979332" lon="10.851887"><ele>3355.0</ele><time>2024-04-29T09:18:41Z</time></trkpt>
      <trkpt lat="46.7975875" lon="10.8521387"><ele>3326.4</ele><time>2024-04-29T09:20:52Z</time></trkpt>
      <trkpt lat="46.7972185" lon="10.8521167"><ele>3310.7</ele><time>2024-04-29T09:21:32Z</time></trkpt>
      <trkpt lat="46.7972012" lon="10.8519871"><ele>3307.1</ele><time>2024-04-29T09:21:42Z</time></trkpt>
      <trkpt lat="46.7970217" lon="10.8522443"><ele>3299.6</ele><time>2024-04-29T09:42:42Z</time></trkpt>
      <trkpt lat="46.7967895" lon="10.8520881"><ele>3289.8</ele><time>2024-04-29T09:45:27Z</time></trkpt>
      <trkpt lat="46.7968921" lon="10.8521205"><ele>3280.5</ele><time>2024-04-29T09:45:32Z</time></trkpt>
      <trkpt lat="46.7968832" lon="10.8516349"><ele>3272.2</ele><time>2024-04-29T09:45:37Z</time></trkpt>
      <trkpt lat="46.7962938" lon="10.8506227"><ele>3244.1</ele><time>2024-04-29T09:48:33Z</time></trkpt>
      <trkpt lat="46.7963372" lon="10.8498894"><ele>3230.7</ele><time>2024-04-29T09:48:38Z</time></trkpt>
      <trkpt lat="46.796209" lon="10.8489951"><ele>3213.1</ele><time>2024-04-29T09:48:43Z</time></trkpt>
      <trkpt lat="46.7957343" lon="10.8472383"><ele>3166.7</ele><time>2024-04-29T09:48:58Z</time></trkpt>
      <trkpt lat="46.7962273" lon="10.8453493"><ele>3116.2</ele><time>2024-04-29T09:49:12Z</time></trkpt>
      <trkpt lat="46.7978753" lon="10.8422528"><ele>3043.0</ele><time>2024-04-29T09:49:43Z</time></trkpt>
      <trkpt lat="46.79837" lon="10.840694"><ele>3031.6</ele><time>2024-04-29T09:50:08Z</time></trkpt>
      <trkpt lat="46.7986537" lon="10.8390751"><ele>3020.3</ele><time>2024-04-29T09:53:42Z</time></trkpt>
      <trkpt lat="46.7993128" lon="10.838526"><ele>2998.5</ele><time>2024-04-29T09:53:58Z</time></trkpt>
      <trkpt lat="46.799764" lon="10.8376723"><ele>2979.2</ele><time>2024-04-29T09:54:08Z</time></trkpt>
      <trkpt lat="46.8005475" lon="10.8367213"><ele>2963.8</ele><time>2024-04-29T09:54:18Z</time></trkpt>
      <trkpt lat="46.8007972" lon="10.8357245"><ele>2944.4</ele><time>2024-04-29T09:54:33Z</time></trkpt>
      <trkpt lat="46.8022951" lon="10.8328343"><ele>2880.9</ele><time>2024-04-29T09:55:03Z</time></trkpt>
      <trkpt lat="46.8030839" lon="10.832289"><ele>2862.1</ele><time>2024-04-29T09:57:38Z</time></trkpt>
      <trkpt lat="46.8043257" lon="10.8308081"><ele>2803.6</ele><time>2024-04-29T09:58:03Z</time></trkpt>
      <trkpt lat="46.8044396" lon="10.8303146"><ele>2778.3</ele><time>2024-04-29T09:58:13Z</time></trkpt>
      <trkpt lat="46.8050288" lon="10.8294327"><ele>2745.1</ele><time>2024-04-29T09:58:28Z</time></trkpt>
      <trkpt lat="46.8051553" lon="10.8288771"><ele>2727.0</ele><time>2024-04-29T09:58:33Z</time></trkpt>
      <trkpt lat="46.8061436" lon="10.8269157"><ele>2652.6</ele><time>2024-04-29T09:58:53Z</time></trkpt>
      <trkpt lat="46.8067651" lon="10.8262554"><ele>2623.4</ele><time>2024-04-29T09:59:03Z</time></trkpt>
      <trkpt lat="46.8076193" lon="10.8260515"><ele>2596.7</ele><time>2024-04-29T10:01:18Z</time></trkpt>
      <trkpt lat="46.8081696" lon="10.825564"><ele>2570.5</ele><time>2024-04-29T10:01:28Z</time></trkpt>
      <trkpt lat="46.8116485" lon="10.8277118"><ele>2513.2</ele><time>2024-04-29T10:01:58Z</time></trkpt>
      <trkpt lat="46.813267" lon="10.8285266"><ele>2500.5</ele><time>2024-04-29T10:02:18Z</time></trkpt>
      <trkpt lat="46.8135276" lon="10.8281971"><ele>2490.8</ele><time>2024-04-29T10:02:23Z</time></trkpt>
      <trkpt lat="46.8156344" lon="10.8302657"><ele>2475.2</ele><time>2024-04-29T10:03:22Z</time></trkpt>
      <trkpt lat="46.8164961" lon="10.8308534"><ele>2472.6</ele><time>2024-04-29T10:04:09Z</time></trkpt>
      <trkpt lat="46.8173486" lon="10.8305647"><ele>2461.9</ele><time>2024-04-29T10:06:34Z</time></trkpt>
      <trkpt lat="46.8182093" lon="10.8311506"><ele>2447.2</ele><time>2024-04-29T10:06:44Z</time></trkpt>
      <trkpt lat="46.819167" lon="10.831455"><ele>2438.1</ele><time>2024-04-29T10:06:59Z</time></trkpt>
      <trkpt lat="46.8195109" lon="10.8311741"><ele>2424.2</ele><time>2024-04-29T10:07:19Z</time></trkpt>
      <trkpt lat="46.8197358" lon="10.8307023"><ele>2418.0</ele><time>2024-04-29T10:07:24Z</time></trkpt>
      <trkpt lat="46.8209413" lon="10.8312951"><ele>2367.9</ele><time>2024-04-29T10:07:44Z</time></trkpt>
      <trkpt lat="46.821118" lon="10.8309332"><ele>2355.1</ele><time>2024-04-29T10:07:49Z</time></trkpt>
      <trkpt lat="46.8217383" lon="10.8303795"><ele>2321.7</ele><time>2024-04-29T10:07:59Z</time></trkpt>
      <trkpt lat="46.8220456" lon="10.8301568"><ele>2300.3</ele><time>2024-04-29T10:08:19Z</time></trkpt>
      <trkpt lat="46.8222735" lon="10.8301853"><ele>2297.8</ele><time>2024-04-29T10:09:34Z</time></trkpt>
      <trkpt lat="46.8222349" lon="10.8299464"><ele>2299.5</ele><time>2024-04-29T10:10:09Z</time></trkpt>
      <trkpt lat="46.8224463" lon="10.8308587"><ele>2295.7</ele><time>2024-04-29T10:55:48Z</time></trkpt>
      <trkpt lat="46.8229748" lon="10.8320087"><ele>2299.1</ele><time>2024-04-29T10:59:08Z</time></trkpt>
      <trkpt lat="46.823515" lon="10.8325397"><ele>2320.0</ele><time>2024-04-29T11:01:33Z</time></trkpt>
      <trkpt lat="46.8235637" lon="10.8327719"><ele>2323.1</ele><time>2024-04-29T11:03:43Z</time></trkpt>
      <trkpt lat="46.8241838" lon="10.8335959"><ele>2352.2</ele><time>2024-04-29T11:08:48Z</time></trkpt>
      <trkpt lat="46.8246901" lon="10.8340784"><ele>2377.3</ele><time>2024-04-29T11:13:23Z</time></trkpt>
      <trkpt lat="46.8249537" lon="10.834705"><ele>2388.2</ele><time>2024-04-29T11:15:28Z</time></trkpt>
      <trkpt lat="46.8252219" lon="10.8349088"><ele>2397.3</ele><time>2024-04-29T11:16:53Z</time></trkpt>
      <trkpt lat="46.8251404" lon="10.8343616"><ele>2410.0</ele><time>2024-04-29T11:18:38Z</time></trkpt>
      <trkpt lat="46.8252967" lon="10.8342302"><ele>2416.6</ele><time>2024-04-29T11:19:23Z</time></trkpt>
      <trkpt lat="46.8251388" lon="10.8339701"><ele>2415.9</ele><time>2024-04-29T11:23:45Z</time></trkpt>
      <trkpt lat="46.8251906" lon="10.8340476"><ele>2412.6</ele><time>2024-04-30T05:16:19Z</time></trkpt>
      <trkpt lat="46.8257889" lon="10.8340489"><ele>2424.0</ele><time>2024-04-30T05:22:46Z</time></trkpt>
      <trkpt lat="46.8256886" lon="10.833651"><ele>2435.3</ele><time>2024-04-30T05:23:46Z</time></trkpt>
      <trkpt lat="46.8259069" lon="10.8336062"><ele>2438.4</ele><time>2024-04-30T05:24:46Z</time></trkpt>
      <trkpt lat="46.8257243" lon="10.8324845"><ele>2462.9</ele><time>2024-04-30T05:27:31Z</time></trkpt>
      <trkpt lat="46.8265595" lon="10.832838"><ele>2474.9</ele><time>2024-04-30T05:30:36Z</time></trkpt>
      <trkpt lat="46.8265622" lon="10.8324978"><ele>2488.3</ele><time>2024-04-30T05:32:41Z</time></trkpt>
      <trkpt lat="46.8268877" lon="10.8326598"><ele>2494.4</ele><time>2024-04-30T05:33:56Z</time></trkpt>
      <trkpt lat="46.8265278" lon="10.8317978"><ele>2516.6</ele><time>2024-04-30T05:37:01Z</time></trkpt>
      <trkpt lat="46.8263625" lon="10.8308295"><ele>2531.3</ele><time>2024-04-30T05:39:21Z</time></trkpt>
      <trkpt lat="46.8263859" lon="10.8306598"><ele>2535.6</ele><time>2024-04-30T05:39:46Z</time></trkpt>
      <trkpt lat="46.8270737" lon="10.8312328"><ele>2546.9</ele><time>2024-04-30T05:42:36Z</time></trkpt>
      <trkpt lat="46.8268372" lon="10.828974"><ele>2593.4</ele><time>2024-04-30T05:48:21Z</time></trkpt>
      <trkpt lat="46.8270044" lon="10.8284417"><ele>2601.0</ele><time>2024-04-30T05:49:51Z</time></trkpt>
      <trkpt lat="46.8273647" lon="10.8286425"><ele>2612.6</ele><time>2024-04-30T05:54:51Z</time></trkpt>
      <trkpt lat="46.8284823" lon="10.8302315"><ele>2649.4</ele><time>2024-04-30T06:00:51Z</time></trkpt>
      <trkpt lat="46.8291508" lon="10.8284938"><ele>2681.1</ele><time>2024-04-30T06:05:21Z</time></trkpt>
      <trkpt lat="46.8297445" lon="10.8288069"><ele>2693.8</ele><time>2024-04-30T06:07:26Z</time></trkpt>
      <trkpt lat="46.8297927" lon="10.8280131"><ele>2708.0</ele><time>2024-04-30T06:09:11Z</time></trkpt>
      <trkpt lat="46.8296252" lon="10.827082"><ele>2721.1</ele><time>2024-04-30T06:11:11Z</time></trkpt>
      <trkpt lat="46.8299164" lon="10.8271339"><ele>2728.8</ele><time>2024-04-30T06:12:11Z</time></trkpt>
      <trkpt lat="46.8301324" lon="10.826024"><ele>2749.8</ele><time>2024-04-30T06:14:45Z</time></trkpt>
      <trkpt lat="46.830642" lon="10.82639"><ele>2760.3</ele><time>2024-04-30T06:16:41Z</time></trkpt>
      <trkpt lat="46.8307638" lon="10.8250363"><ele>2784.4</ele><time>2024-04-30T06:19:26Z</time></trkpt>
      <trkpt lat="46.8311675" lon="10.8240038"><ele>2798.7</ele><time>2024-04-30T06:21:41Z</time></trkpt>
      <trkpt lat="46.8313644" lon="10.8245517"><ele>2809.7</ele><time>2024-04-30T06:23:51Z</time></trkpt>
      <trkpt lat="46.8315011" lon="10.8243434"><ele>2819.0</ele><time>2024-04-30T06:24:36Z</time></trkpt>
      <trkpt lat="46.8316428" lon="10.8250139"><ele>2830.6</ele><time>2024-04-30T06:26:41Z</time></trkpt>
      <trkpt lat="46.8317502" lon="10.8246893"><ele>2840.6</ele><time>2024-04-30T06:27:36Z</time></trkpt>
      <trkpt lat="46.8318361" lon="10.8248799"><ele>2844.6</ele><time>2024-04-30T06:28:21Z</time></trkpt>
      <trkpt lat="46.8322093" lon="10.8238416"><ele>2873.3</ele><time>2024-04-30T06:31:51Z</time></trkpt>
      <trkpt lat="46.8325787" lon="10.8232495"><ele>2889.6</ele><time>2024-04-30T06:34:01Z</time></trkpt>
      <trkpt lat="46.8327306" lon="10.824306"><ele>2910.5</ele><time>2024-04-30T06:39:46Z</time></trkpt>
      <trkpt lat="46.8331863" lon="10.8247888"><ele>2928.6</ele><time>2024-04-30T06:59:46Z</time></trkpt>
      <trkpt lat="46.833397" lon="10.8246722"><ele>2927.3</ele><time>2024-04-30T07:01:25Z</time></trkpt>
      <trkpt lat="46.8338148" lon="10.8252114"><ele>2944.0</ele><time>2024-04-30T07:03:16Z</time></trkpt>
      <trkpt lat="46.834089" lon="10.825345"><ele>2953.0</ele><time>2024-04-30T07:04:26Z</time></trkpt>
      <trkpt lat="46.8341974" lon="10.824865"><ele>2964.0</ele><time>2024-04-30T07:05:51Z</time></trkpt>
      <trkpt lat="46.8346704" lon="10.8252386"><ele>2982.7</ele><time>2024-04-30T07:08:06Z</time></trkpt>
      <trkpt lat="46.8353739" lon="10.8253188"><ele>3003.4</ele><time>2024-04-30T07:10:56Z</time></trkpt>
      <trkpt lat="46.8352322" lon="10.8242955"><ele>3026.5</ele><time>2024-04-30T07:14:11Z</time></trkpt>
      <trkpt lat="46.8355481" lon="10.8242785"><ele>3033.3</ele><time>2024-04-30T07:15:16Z</time></trkpt>
      <trkpt lat="46.8362572" lon="10.8247855"><ele>3060.4</ele><time>2024-04-30T07:18:31Z</time></trkpt>
      <trkpt lat="46.8363246" lon="10.8240637"><ele>3077.6</ele><time>2024-04-30T07:20:40Z</time></trkpt>
      <trkpt lat="46.8365893" lon="10.8241478"><ele>3090.9</ele><time>2024-04-30T07:22:51Z</time></trkpt>
      <trkpt lat="46.8365804" lon="10.8234265"><ele>3106.4</ele><time>2024-04-30T07:24:31Z</time></trkpt>
      <trkpt lat="46.8369763" lon="10.8238143"><ele>3124.2</ele><time>2024-04-30T07:26:21Z</time></trkpt>
      <trkpt lat="46.8371235" lon="10.8243542"><ele>3135.8</ele><time>2024-04-30T07:27:56Z</time></trkpt>
      <trkpt lat="46.8368668" lon="10.8231144"><ele>3116.9</ele><time>2024-04-30T07:46:36Z</time></trkpt>
      <trkpt lat="46.836891" lon="10.8224652"><ele>3101.2</ele><time>2024-04-30T07:47:01Z</time></trkpt>
      <trkpt lat="46.8374675" lon="10.8230993"><ele>3073.6</ele><time>2024-04-30T07:48:36Z</time></trkpt>
      <trkpt lat="46.8372949" lon="10.822318"><ele>3062.4</ele><time>2024-04-30T07:48:41Z</time></trkpt>
      <trkpt lat="46.83732" lon="10.8216365"><ele>3057.4</ele><time>2024-04-30T07:48:46Z</time></trkpt>
      <trkpt lat="46.8374871" lon="10.821336"><ele>3047.8</ele><time>2024-04-30T07:48:51Z</time></trkpt>
      <trkpt lat="46.8379436" lon="10.8211286"><ele>3044.5</ele><time>2024-04-30T07:48:56Z</time></trkpt>
      <trkpt lat="46.8387199" lon="10.8201651"><ele>3032.2</ele><time>2024-04-30T07:49:06Z</time></trkpt>
      <trkpt lat="46.8390754" lon="10.820155"><ele>3027.0</ele><time>2024-04-30T07:49:11Z</time></trkpt>
      <trkpt lat="46.8395056" lon="10.8204927"><ele>3006.2</ele><time>2024-04-30T07:49:16Z</time></trkpt>
      <trkpt lat="46.8399819" lon="10.8205847"><ele>2998.3</ele><time>2024-04-30T07:49:21Z</time></trkpt>
      <trkpt lat="46.8400953" lon="10.820417"><ele>2997.6</ele><time>2024-04-30T07:49:31Z</time></trkpt>
      <trkpt lat="46.8403888" lon="10.8205488"><ele>2990.6</ele><time>2024-04-30T07:52:11Z</time></trkpt>
      <trkpt lat="46.8414951" lon="10.8225454"><ele>2937.8</ele><time>2024-04-30T07:52:36Z</time></trkpt>
      <trkpt lat="46.8419326" lon="10.8229787"><ele>2915.1</ele><time>2024-04-30T07:52:41Z</time></trkpt>
      <trkpt lat="46.8425537" lon="10.8232886"><ele>2907.2</ele><time>2024-04-30T07:52:46Z</time></trkpt>
      <trkpt lat="46.8426452" lon="10.823241"><ele>2895.9</ele><time>2024-04-30T07:54:11Z</time></trkpt>
      <trkpt lat="46.8428072" lon="10.8221319"><ele>2878.3</ele><time>2024-04-30T07:54:26Z</time></trkpt>
      <trkpt lat="46.8430563" lon="10.8215772"><ele>2865.0</ele><time>2024-04-30T07:54:31Z</time></trkpt>
      <trkpt lat="46.844576" lon="10.8210447"><ele>2857.8</ele><time>2024-04-30T07:54:56Z</time></trkpt>
      <trkpt lat="46.8451745" lon="10.81899"><ele>2839.8</ele><time>2024-04-30T07:55:26Z</time></trkpt>
      <trkpt lat="46.8459773" lon="10.8186508"><ele>2793.3</ele><time>2024-04-30T07:55:41Z</time></trkpt>
      <trkpt lat="46.8462316" lon="10.8183587"><ele>2791.2</ele><time>2024-04-30T07:55:45Z</time></trkpt>
      <trkpt lat="46.8467762" lon="10.8184442"><ele>2788.4</ele><time>2024-04-30T07:56:01Z</time></trkpt>
      <trkpt lat="46.8472096" lon="10.8181773"><ele>2785.1</ele><time>2024-04-30T07:56:16Z</time></trkpt>
      <trkpt lat="46.8474491" lon="10.8181846"><ele>2782.2</ele><time>2024-04-30T07:56:20Z</time></trkpt>
      <trkpt lat="46.8478137" lon="10.8193579"><ele>2778.4</ele><time>2024-04-30T07:56:55Z</time></trkpt>
      <trkpt lat="46.8482015" lon="10.8200422"><ele>2776.8</ele><time>2024-04-30T07:57:16Z</time></trkpt>
      <trkpt lat="46.8490671" lon="10.8202"><ele>2764.7</ele><time>2024-04-30T07:57:36Z</time></trkpt>
      <trkpt lat="46.8493729" lon="10.8204609"><ele>2760.7</ele><time>2024-04-30T07:57:41Z</time></trkpt>
      <trkpt lat="46.8499358" lon="10.8223114"><ele>2749.9</ele><time>2024-04-30T07:58:56Z</time></trkpt>
      <trkpt lat="46.8502344" lon="10.8228167"><ele>2748.4</ele><time>2024-04-30T07:59:21Z</time></trkpt>
      <trkpt lat="46.8527862" lon="10.8254506"><ele>2733.2</ele><time>2024-04-30T08:01:21Z</time></trkpt>
      <trkpt lat="46.8529972" lon="10.8245179"><ele>2736.6</ele><time>2024-04-30T08:13:17Z</time></trkpt>
      <trkpt lat="46.853359" lon="10.8238117"><ele>2754.3</ele><time>2024-04-30T08:15:22Z</time></trkpt>
      <trkpt lat="46.8532573" lon="10.8237583"><ele>2756.5</ele><time>2024-04-30T08:16:02Z</time></trkpt>
      <trkpt lat="46.8544631" lon="10.8236928"><ele>2774.3</ele><time>2024-04-30T08:26:12Z</time></trkpt>
      <trkpt lat="46.8546127" lon="10.8241867"><ele>2783.1</ele><time>2024-04-30T08:27:07Z</time></trkpt>
      <trkpt lat="46.8547633" lon="10.8240222"><ele>2785.5</ele><time>2024-04-30T08:34:22Z</time></trkpt>
      <trkpt lat="46.8556089" lon="10.8239853"><ele>2773.3</ele><time>2024-04-30T08:34:47Z</time></trkpt>
      <trkpt lat="46.8557947" lon="10.8243594"><ele>2759.3</ele><time>2024-04-30T08:34:52Z</time></trkpt>
      <trkpt lat="46.856037" lon="10.8243809"><ele>2748.2</ele><time>2024-04-30T08:35:02Z</time></trkpt>
      <trkpt lat="46.8561545" lon="10.824671"><ele>2730.0</ele><time>2024-04-30T08:35:07Z</time></trkpt>
      <trkpt lat="46.8570727" lon="10.8253355"><ele>2702.4</ele><time>2024-04-30T08:35:17Z</time></trkpt>
      <trkpt lat="46.8572645" lon="10.8258297"><ele>2702.5</ele><time>2024-04-30T08:35:27Z</time></trkpt>
      <trkpt lat="46.8574941" lon="10.8259799"><ele>2702.6</ele><time>2024-04-30T08:35:37Z</time></trkpt>
      <trkpt lat="46.8580009" lon="10.8260261"><ele>2698.6</ele><time>2024-04-30T08:35:52Z</time></trkpt>
      <trkpt lat="46.8593299" lon="10.82574"><ele>2690.9</ele><time>2024-04-30T08:36:22Z</time></trkpt>
      <trkpt lat="46.8602211" lon="10.8259537"><ele>2691.1</ele><time>2024-04-30T08:36:52Z</time></trkpt>
      <trkpt lat="46.8619363" lon="10.8260328"><ele>2706.1</ele><time>2024-04-30T08:55:37Z</time></trkpt>
      <trkpt lat="46.863337" lon="10.8268789"><ele>2733.0</ele><time>2024-04-30T08:59:42Z</time></trkpt>
      <trkpt lat="46.8637751" lon="10.8269774"><ele>2743.8</ele><time>2024-04-30T09:00:52Z</time></trkpt>
      <trkpt lat="46.8636864" lon="10.8272882"><ele>2747.3</ele><time>2024-04-30T09:01:32Z</time></trkpt>
      <trkpt lat="46.8634853" lon="10.8274106"><ele>2754.5</ele><time>2024-04-30T09:02:12Z</time></trkpt>
      <trkpt lat="46.8641563" lon="10.8277179"><ele>2772.1</ele><time>2024-04-30T09:04:11Z</time></trkpt>
      <trkpt lat="46.8638963" lon="10.8279474"><ele>2779.5</ele><time>2024-04-30T09:05:12Z</time></trkpt>
      <trkpt lat="46.8641116" lon="10.8281049"><ele>2788.9</ele><time>2024-04-30T09:05:56Z</time></trkpt>
      <trkpt lat="46.8670875" lon="10.8285988"><ele>2851.8</ele><time>2024-04-30T09:16:52Z</time></trkpt>
      <trkpt lat="46.8695834" lon="10.8279619"><ele>2871.3</ele><time>2024-04-30T09:21:47Z</time></trkpt>
      <trkpt lat="46.8713647" lon="10.8284953"><ele>2907.5</ele><time>2024-04-30T09:27:17Z</time></trkpt>
      <trkpt lat="46.8724923" lon="10.8295674"><ele>2941.4</ele><time>2024-04-30T09:31:37Z</time></trkpt>
      <trkpt lat="46.8730566" lon="10.8303823"><ele>2963.8</ele><time>2024-04-30T09:34:22Z</time></trkpt>
      <trkpt lat="46.8734676" lon="10.8314375"><ele>2992.1</ele><time>2024-04-30T09:37:27Z</time></trkpt>
      <trkpt lat="46.8741111" lon="10.83456"><ele>3049.6</ele><time>2024-04-30T09:44:37Z</time></trkpt>
      <trkpt lat="46.8749462" lon="10.8363696"><ele>3090.7</ele><time>2024-04-30T09:50:27Z</time></trkpt>
      <trkpt lat="46.8755913" lon="10.837424"><ele>3108.5</ele><time>2024-04-30T09:53:17Z</time></trkpt>
      <trkpt lat="46.8760016" lon="10.8386611"><ele>3129.3</ele><time>2024-04-30T09:59:17Z</time></trkpt>
      <trkpt lat="46.8763938" lon="10.839047"><ele>3141.8</ele><time>2024-04-30T10:00:47Z</time></trkpt>
      <trkpt lat="46.8767379" lon="10.8397102"><ele>3159.9</ele><time>2024-04-30T10:02:52Z</time></trkpt>
      <trkpt lat="46.8773325" lon="10.8398237"><ele>3172.3</ele><time>2024-04-30T10:04:47Z</time></trkpt>
      <trkpt lat="46.8780782" lon="10.840212"><ele>3191.7</ele><time>2024-04-30T10:07:02Z</time></trkpt>
      <trkpt lat="46.8787295" lon="10.8400724"><ele>3197.1</ele><time>2024-04-30T10:08:32Z</time></trkpt>
      <trkpt lat="46.8793022" lon="10.8401756"><ele>3199.8</ele><time>2024-04-30T10:09:37Z</time></trkpt>
      <trkpt lat="46.8801161" lon="10.8406497"><ele>3215.5</ele><time>2024-04-30T10:12:08Z</time></trkpt>
      <trkpt lat="46.88" lon="10.8455073"><ele>3286.0</ele><time>2024-04-30T10:25:33Z</time></trkpt>
      <trkpt lat="46.8800862" lon="10.8485158"><ele>3336.3</ele><time>2024-04-30T10:32:33Z</time></trkpt>
      <trkpt lat="46.8801918" lon="10.848761"><ele>3341.4</ele><time>2024-04-30T10:33:23Z</time></trkpt>
      <trkpt lat="46.8808326" lon="10.8490922"><ele>3358.5</ele><time>2024-04-30T10:49:48Z</time></trkpt>
      <trkpt lat="46.8813548" lon="10.8488648"><ele>3372.8</ele><time>2024-04-30T10:51:33Z</time></trkpt>
      <trkpt lat="46.8820691" lon="10.849555"><ele>3394.9</ele><time>2024-04-30T10:54:23Z</time></trkpt>
      <trkpt lat="46.8826608" lon="10.8503741"><ele>3420.3</ele><time>2024-04-30T10:57:03Z</time></trkpt>
      <trkpt lat="46.8823421" lon="10.8505081"><ele>3422.2</ele><time>2024-04-30T10:58:33Z</time></trkpt>
      <trkpt lat="46.8824999" lon="10.8505708"><ele>3423.6</ele><time>2024-04-30T11:19:31Z</time></trkpt>
      <trkpt lat="46.8821733" lon="10.8509307"><ele>3370.0</ele><time>2024-04-30T11:20:16Z</time></trkpt>
      <trkpt lat="46.8817878" lon="10.8518915"><ele>3312.5</ele><time>2024-04-30T11:24:06Z</time></trkpt>
      <trkpt lat="46.8807961" lon="10.8534212"><ele>3260.6</ele><time>2024-04-30T11:25:10Z</time></trkpt>
      <trkpt lat="46.8802309" lon="10.8554085"><ele>3205.4</ele><time>2024-04-30T11:25:36Z</time></trkpt>
      <trkpt lat="46.8800073" lon="10.8556191"><ele>3192.8</ele><time>2024-04-30T11:27:16Z</time></trkpt>
      <trkpt lat="46.8799233" lon="10.8568068"><ele>3176.8</ele><time>2024-04-30T11:27:26Z</time></trkpt>
      <trkpt lat="46.8796093" lon="10.857373"><ele>3165.3</ele><time>2024-04-30T11:27:31Z</time></trkpt>
      <trkpt lat="46.8783069" lon="10.8587731"><ele>3144.4</ele><time>2024-04-30T11:28:01Z</time></trkpt>
      <trkpt lat="46.8775527" lon="10.8598624"><ele>3128.0</ele><time>2024-04-30T11:28:26Z</time></trkpt>
      <trkpt lat="46.8773169" lon="10.8607116"><ele>3115.8</ele><time>2024-04-30T11:29:11Z</time></trkpt>
      <trkpt lat="46.8773163" lon="10.861714"><ele>3091.8</ele><time>2024-04-30T11:29:26Z</time></trkpt>
      <trkpt lat="46.87747" lon="10.8626714"><ele>3077.2</ele><time>2024-04-30T11:29:36Z</time></trkpt>
      <trkpt lat="46.8774112" lon="10.8631518"><ele>3064.7</ele><time>2024-04-30T11:29:41Z</time></trkpt>
      <trkpt lat="46.8763234" lon="10.8650719"><ele>3050.5</ele><time>2024-04-30T11:30:41Z</time></trkpt>
      <trkpt lat="46.8756788" lon="10.8674241"><ele>3033.7</ele><time>2024-04-30T11:32:31Z</time></trkpt>
      <trkpt lat="46.8754648" lon="10.8699482"><ele>3013.1</ele><time>2024-04-30T11:34:51Z</time></trkpt>
      <trkpt lat="46.8748849" lon="10.8716201"><ele>2992.8</ele><time>2024-04-30T11:35:31Z</time></trkpt>
      <trkpt lat="46.8741815" lon="10.8725046"><ele>2978.4</ele><time>2024-04-30T11:36:01Z</time></trkpt>
      <trkpt lat="46.8725803" lon="10.8733208"><ele>2958.2</ele><time>2024-04-30T11:37:11Z</time></trkpt>
      <trkpt lat="46.8721816" lon="10.8733387"><ele>2955.2</ele><time>2024-04-30T11:37:26Z</time></trkpt>
      <trkpt lat="46.8704767" lon="10.8745659"><ele>2935.6</ele><time>2024-04-30T11:39:21Z</time></trkpt>
      <trkpt lat="46.8700933" lon="10.8749701"><ele>2931.9</ele><time>2024-04-30T11:40:11Z</time></trkpt>
      <trkpt lat="46.8699178" lon="10.8754828"><ele>2923.2</ele><time>2024-04-30T11:42:16Z</time></trkpt>
      <trkpt lat="46.8695052" lon="10.8755308"><ele>2904.2</ele><time>2024-04-30T11:42:21Z</time></trkpt>
      <trkpt lat="46.8686666" lon="10.8764114"><ele>2883.2</ele><time>2024-04-30T11:42:31Z</time></trkpt>
      <trkpt lat="46.8683991" lon="10.8770035"><ele>2879.1</ele><time>2024-04-30T11:42:41Z</time></trkpt>
      <trkpt lat="46.8680756" lon="10.879194"><ele>2851.8</ele><time>2024-04-30T11:43:16Z</time></trkpt>
      <trkpt lat="46.8681361" lon="10.8793128"><ele>2853.5</ele><time>2024-04-30T11:43:36Z</time></trkpt>
      <trkpt lat="46.8680368" lon="10.8793229"><ele>2847.7</ele><time>2024-04-30T11:43:51Z</time></trkpt>
      <trkpt lat="46.8682472" lon="10.8796695"><ele>2847.2</ele><time>2024-04-30T11:55:41Z</time></trkpt>
      <trkpt lat="46.8681676" lon="10.879862"><ele>2849.2</ele><time>2024-04-30T11:56:21Z</time></trkpt>
      <trkpt lat="46.8682472" lon="10.8796698"><ele>2847.2</ele><time>2024-04-30T11:56:26Z</time></trkpt>
      <trkpt lat="46.8684894" lon="10.879999"><ele>2850.8</ele><time>2024-04-30T11:57:01Z</time></trkpt>
      <trkpt lat="46.868246" lon="10.8796657"><ele>2847.4</ele><time>2024-04-30T12:02:21Z</time></trkpt>
      <trkpt lat="46.8681331" lon="10.879565"><ele>2848.4</ele><time>2024-05-01T03:45:45Z</time></trkpt>
      <trkpt lat="46.8683757" lon="10.8802421"><ele>2840.7</ele><time>2024-05-01T03:52:20Z</time></trkpt>
      <trkpt lat="46.8692309" lon="10.8811738"><ele>2835.5</ele><time>2024-05-01T03:52:51Z</time></trkpt>
      <trkpt lat="46.8696465" lon="10.8814332"><ele>2832.2</ele><time>2024-05-01T03:53:06Z</time></trkpt>
      <trkpt lat="46.870105" lon="10.881384"><ele>2826.5</ele><time>2024-05-01T03:53:22Z</time></trkpt>
      <trkpt lat="46.8717241" lon="10.8827272"><ele>2815.5</ele><time>2024-05-01T03:55:04Z</time></trkpt>
      <trkpt lat="46.8718158" lon="10.8831029"><ele>2794.2</ele><time>2024-05-01T03:57:46Z</time></trkpt>
      <trkpt lat="46.8722188" lon="10.883483"><ele>2783.1</ele><time>2024-05-01T03:58:02Z</time></trkpt>
      <trkpt lat="46.8723093" lon="10.8837416"><ele>2780.2</ele><time>2024-05-01T03:58:08Z</time></trkpt>
      <trkpt lat="46.8724553" lon="10.884305"><ele>2775.4</ele><time>2024-05-01T03:58:18Z</time></trkpt>
      <trkpt lat="46.8722293" lon="10.8844792"><ele>2780.4</ele><time>2024-05-01T03:59:06Z</time></trkpt>
      <trkpt lat="46.8730237" lon="10.885716"><ele>2768.7</ele><time>2024-05-01T03:59:54Z</time></trkpt>
      <trkpt lat="46.8731502" lon="10.8866328"><ele>2765.9</ele><time>2024-05-01T04:11:58Z</time></trkpt>
      <trkpt lat="46.8734439" lon="10.8866725"><ele>2778.2</ele><time>2024-05-01T04:13:25Z</time></trkpt>
      <trkpt lat="46.8735703" lon="10.8872128"><ele>2791.4</ele><time>2024-05-01T04:15:10Z</time></trkpt>
      <trkpt lat="46.8738325" lon="10.8874434"><ele>2804.8</ele><time>2024-05-01T04:16:08Z</time></trkpt>
      <trkpt lat="46.8739259" lon="10.8881255"><ele>2814.3</ele><time>2024-05-01T04:17:37Z</time></trkpt>
      <trkpt lat="46.8750263" lon="10.8893775"><ele>2819.2</ele><time>2024-05-01T04:21:12Z</time></trkpt>
      <trkpt lat="46.8754698" lon="10.8895159"><ele>2826.7</ele><time>2024-05-01T04:22:42Z</time></trkpt>
      <trkpt lat="46.8755028" lon="10.8900473"><ele>2842.9</ele><time>2024-05-01T04:24:20Z</time></trkpt>
      <trkpt lat="46.8757202" lon="10.890121"><ele>2858.2</ele><time>2024-05-01T04:25:41Z</time></trkpt>
      <trkpt lat="46.8755106" lon="10.890432"><ele>2861.7</ele><time>2024-05-01T04:26:42Z</time></trkpt>
      <trkpt lat="46.8759655" lon="10.8902293"><ele>2873.3</ele><time>2024-05-01T04:28:16Z</time></trkpt>
      <trkpt lat="46.8758509" lon="10.8905757"><ele>2875.0</ele><time>2024-05-01T04:29:22Z</time></trkpt>
      <trkpt lat="46.8761842" lon="10.8904452"><ele>2884.1</ele><time>2024-05-01T04:30:30Z</time></trkpt>
      <trkpt lat="46.875803" lon="10.8909052"><ele>2894.3</ele><time>2024-05-01T04:32:16Z</time></trkpt>
      <trkpt lat="46.8763036" lon="10.8909092"><ele>2902.4</ele><time>2024-05-01T04:33:57Z</time></trkpt>
      <trkpt lat="46.8767781" lon="10.8906163"><ele>2910.5</ele><time>2024-05-01T04:36:36Z</time></trkpt>
      <trkpt lat="46.8770051" lon="10.88993"><ele>2922.3</ele><time>2024-05-01T04:46:15Z</time></trkpt>
      <trkpt lat="46.8773588" lon="10.8894372"><ele>2938.5</ele><time>2024-05-01T04:48:11Z</time></trkpt>
      <trkpt lat="46.8772626" lon="10.889203"><ele>2944.2</ele><time>2024-05-01T04:48:57Z</time></trkpt>
      <trkpt lat="46.8782852" lon="10.8883478"><ele>2977.1</ele><time>2024-05-01T04:52:52Z</time></trkpt>
      <trkpt lat="46.8789877" lon="10.8882744"><ele>2999.6</ele><time>2024-05-01T04:55:19Z</time></trkpt>
      <trkpt lat="46.8795206" lon="10.8875713"><ele>3017.8</ele><time>2024-05-01T04:57:37Z</time></trkpt>
      <trkpt lat="46.8799162" lon="10.8853092"><ele>3063.6</ele><time>2024-05-01T05:03:05Z</time></trkpt>
      <trkpt lat="46.8801973" lon="10.8853061"><ele>3070.9</ele><time>2024-05-01T05:04:01Z</time></trkpt>
      <trkpt lat="46.8810002" lon="10.8858322"><ele>3094.8</ele><time>2024-05-01T05:06:52Z</time></trkpt>
      <trkpt lat="46.8807505" lon="10.8839983"><ele>3124.4</ele><time>2024-05-01T05:11:29Z</time></trkpt>
      <trkpt lat="46.8822789" lon="10.8841592"><ele>3161.9</ele><time>2024-05-01T05:17:21Z</time></trkpt>
      <trkpt lat="46.8834292" lon="10.8837751"><ele>3185.1</ele><time>2024-05-01T05:20:46Z</time></trkpt>
      <trkpt lat="46.8840781" lon="10.8837723"><ele>3193.0</ele><time>2024-05-01T05:22:21Z</time></trkpt>
      <trkpt lat="46.8851965" lon="10.8829487"><ele>3205.4</ele><time>2024-05-01T05:28:28Z</time></trkpt>
      <trkpt lat="46.8859755" lon="10.8818813"><ele>3229.6</ele><time>2024-05-01T05:32:01Z</time></trkpt>
      <trkpt lat="46.8861294" lon="10.8807942"><ele>3246.1</ele><time>2024-05-01T05:34:28Z</time></trkpt>
      <trkpt lat="46.8867613" lon="10.8812128"><ele>3269.5</ele><time>2024-05-01T05:37:04Z</time></trkpt>
      <trkpt lat="46.8866532" lon="10.8804971"><ele>3281.7</ele><time>2024-05-01T05:38:40Z</time></trkpt>
      <trkpt lat="46.8869536" lon="10.8805504"><ele>3287.7</ele><time>2024-05-01T05:39:49Z</time></trkpt>
      <trkpt lat="46.8868298" lon="10.8802746"><ele>3295.6</ele><time>2024-05-01T05:40:37Z</time></trkpt>
      <trkpt lat="46.8870687" lon="10.8805332"><ele>3294.3</ele><time>2024-05-01T05:41:41Z</time></trkpt>
      <trkpt lat="46.8869136" lon="10.8799174"><ele>3305.7</ele><time>2024-05-01T05:43:10Z</time></trkpt>
      <trkpt lat="46.8872446" lon="10.8799408"><ele>3309.9</ele><time>2024-05-01T05:46:06Z</time></trkpt>
      <trkpt lat="46.8870815" lon="10.8796276"><ele>3317.2</ele><time>2024-05-01T05:47:47Z</time></trkpt>
      <trkpt lat="46.8873755" lon="10.8796021"><ele>3323.3</ele><time>2024-05-01T05:48:48Z</time></trkpt>
      <trkpt lat="46.887299" lon="10.8792564"><ele>3328.7</ele><time>2024-05-01T05:54:58Z</time></trkpt>
      <trkpt lat="46.8875527" lon="10.879282"><ele>3333.7</ele><time>2024-05-01T05:55:56Z</time></trkpt>
      <trkpt lat="46.8874916" lon="10.8790728"><ele>3340.4</ele><time>2024-05-01T05:56:27Z</time></trkpt>
      <trkpt lat="46.887702" lon="10.8791355"><ele>3345.1</ele><time>2024-05-01T05:57:13Z</time></trkpt>
      <trkpt lat="46.8876561" lon="10.8788146"><ele>3353.0</ele><time>2024-05-01T05:58:03Z</time></trkpt>
      <trkpt lat="46.887783" lon="10.8787786"><ele>3355.1</ele><time>2024-05-01T05:58:28Z</time></trkpt>
      <trkpt lat="46.8877275" lon="10.8785947"><ele>3360.0</ele><time>2024-05-01T05:58:59Z</time></trkpt>
      <trkpt lat="46.8879226" lon="10.8783783"><ele>3367.9</ele><time>2024-05-01T06:00:04Z</time></trkpt>
      <trkpt lat="46.8878096" lon="10.8780189"><ele>3376.2</ele><time>2024-05-01T06:01:04Z</time></trkpt>
      <trkpt lat="46.888121" lon="10.8779375"><ele>3382.8</ele><time>2024-05-01T06:02:22Z</time></trkpt>
      <trkpt lat="46.8884032" lon="10.8781238"><ele>3389.7</ele><time>2024-05-01T06:03:37Z</time></trkpt>
      <trkpt lat="46.8880788" lon="10.8772681"><ele>3408.5</ele><time>2024-05-01T06:06:00Z</time></trkpt>
      <trkpt lat="46.8887005" lon="10.8773454"><ele>3420.5</ele><time>2024-05-01T06:08:22Z</time></trkpt>
      <trkpt lat="46.889054" lon="10.8776385"><ele>3435.0</ele><time>2024-05-01T06:09:57Z</time></trkpt>
      <trkpt lat="46.8890229" lon="10.8780856"><ele>3443.5</ele><time>2024-05-01T06:12:00Z</time></trkpt>
      <trkpt lat="46.8893715" lon="10.8780601"><ele>3446.5</ele><time>2024-05-01T06:14:48Z</time></trkpt>
      <trkpt lat="46.889145" lon="10.8780528"><ele>3458.6</ele><time>2024-05-01T06:18:35Z</time></trkpt>
      <trkpt lat="46.8895457" lon="10.8786818"><ele>3419.5</ele><time>2024-05-01T06:42:48Z</time></trkpt>
      <trkpt lat="46.8899876" lon="10.8785196"><ele>3407.8</ele><time>2024-05-01T06:44:44Z</time></trkpt>
      <trkpt lat="46.8900488" lon="10.8787976"><ele>3396.5</ele><time>2024-05-01T06:44:59Z</time></trkpt>
      <trkpt lat="46.8901853" lon="10.8788008"><ele>3394.0</ele><time>2024-05-01T06:45:04Z</time></trkpt>
      <trkpt lat="46.8900368" lon="10.8791069"><ele>3382.7</ele><time>2024-05-01T06:45:14Z</time></trkpt>
      <trkpt lat="46.8901252" lon="10.8791874"><ele>3374.6</ele><time>2024-05-01T06:45:19Z</time></trkpt>
      <trkpt lat="46.8906389" lon="10.8792637"><ele>3355.1</ele><time>2024-05-01T06:45:39Z</time></trkpt>
      <trkpt lat="46.8905108" lon="10.879512"><ele>3346.6</ele><time>2024-05-01T06:45:49Z</time></trkpt>
      <trkpt lat="46.891526" lon="10.8799872"><ele>3321.8</ele><time>2024-05-01T06:46:05Z</time></trkpt>
      <trkpt lat="46.8926391" lon="10.8808526"><ele>3304.2</ele><time>2024-05-01T06:46:26Z</time></trkpt>
      <trkpt lat="46.89321" lon="10.8820871"><ele>3284.3</ele><time>2024-05-01T06:48:15Z</time></trkpt>
      <trkpt lat="46.8936772" lon="10.8825735"><ele>3268.5</ele><time>2024-05-01T06:48:20Z</time></trkpt>
      <trkpt lat="46.8936147" lon="10.8832005"><ele>3252.9</ele><time>2024-05-01T06:48:25Z</time></trkpt>
      <trkpt lat="46.8941633" lon="10.8836672"><ele>3239.1</ele><time>2024-05-01T06:48:31Z</time></trkpt>
      <trkpt lat="46.89433" lon="10.8843831"><ele>3227.8</ele><time>2024-05-01T06:48:36Z</time></trkpt>
      <trkpt lat="46.8946788" lon="10.8850425"><ele>3211.7</ele><time>2024-05-01T06:48:41Z</time></trkpt>
      <trkpt lat="46.8951805" lon="10.8856173"><ele>3198.5</ele><time>2024-05-01T06:48:46Z</time></trkpt>
      <trkpt lat="46.8956525" lon="10.8858711"><ele>3190.8</ele><time>2024-05-01T06:48:51Z</time></trkpt>
      <trkpt lat="46.8960391" lon="10.8858339"><ele>3187.7</ele><time>2024-05-01T06:49:01Z</time></trkpt>
      <trkpt lat="46.8968954" lon="10.8863203"><ele>3168.5</ele><time>2024-05-01T06:49:11Z</time></trkpt>
      <trkpt lat="46.8978446" lon="10.8892357"><ele>3122.8</ele><time>2024-05-01T06:49:31Z</time></trkpt>
      <trkpt lat="46.8991832" lon="10.8918083"><ele>3106.3</ele><time>2024-05-01T06:53:00Z</time></trkpt>
      <trkpt lat="46.8992466" lon="10.8920887"><ele>3100.9</ele><time>2024-05-01T06:53:05Z</time></trkpt>
      <trkpt lat="46.8987699" lon="10.8924734"><ele>3087.5</ele><time>2024-05-01T06:53:16Z</time></trkpt>
      <trkpt lat="46.8988053" lon="10.8933414"><ele>3073.8</ele><time>2024-05-01T06:53:26Z</time></trkpt>
      <trkpt lat="46.9014318" lon="10.8963746"><ele>3038.2</ele><time>2024-05-01T06:54:22Z</time></trkpt>
      <trkpt lat="46.9019431" lon="10.8977531"><ele>3027.2</ele><time>2024-05-01T06:54:42Z</time></trkpt>
      <trkpt lat="46.9034549" lon="10.9003217"><ele>3005.3</ele><time>2024-05-01T06:55:22Z</time></trkpt>
      <trkpt lat="46.9035747" lon="10.9000559"><ele>3002.8</ele><time>2024-05-01T06:56:26Z</time></trkpt>
      <trkpt lat="46.9046723" lon="10.9002747"><ele>2976.8</ele><time>2024-05-01T06:56:42Z</time></trkpt>
      <trkpt lat="46.905163" lon="10.9001251"><ele>2961.7</ele><time>2024-05-01T06:56:48Z</time></trkpt>
      <trkpt lat="46.9054032" lon="10.8996828"><ele>2953.9</ele><time>2024-05-01T06:56:53Z</time></trkpt>
      <trkpt lat="46.9064932" lon="10.8997856"><ele>2927.6</ele><time>2024-05-01T06:57:04Z</time></trkpt>
      <trkpt lat="46.9076403" lon="10.8991508"><ele>2909.8</ele><time>2024-05-01T06:57:14Z</time></trkpt>
      <trkpt lat="46.9085163" lon="10.8996828"><ele>2905.3</ele><time>2024-05-01T06:57:25Z</time></trkpt>
      <trkpt lat="46.90879" lon="10.8996121"><ele>2902.4</ele><time>2024-05-01T06:59:54Z</time></trkpt>
      <trkpt lat="46.9094649" lon="10.8999541"><ele>2893.7</ele><time>2024-05-01T07:00:05Z</time></trkpt>
      <trkpt lat="46.9103845" lon="10.9008219"><ele>2882.1</ele><time>2024-05-01T07:00:21Z</time></trkpt>
      <trkpt lat="46.9118173" lon="10.9004043"><ele>2835.5</ele><time>2024-05-01T07:00:58Z</time></trkpt>
      <trkpt lat="46.9127728" lon="10.9012864"><ele>2824.3</ele><time>2024-05-01T07:01:14Z</time></trkpt>
      <trkpt lat="46.913136" lon="10.9014393"><ele>2817.1</ele><time>2024-05-01T07:01:20Z</time></trkpt>
      <trkpt lat="46.9151676" lon="10.9016574"><ele>2774.5</ele><time>2024-05-01T07:01:52Z</time></trkpt>
      <trkpt lat="46.9170396" lon="10.9014019"><ele>2752.7</ele><time>2024-05-01T07:02:13Z</time></trkpt>
      <trkpt lat="46.9181559" lon="10.9002231"><ele>2728.7</ele><time>2024-05-01T07:04:44Z</time></trkpt>
      <trkpt lat="46.9193434" lon="10.9002604"><ele>2685.3</ele><time>2024-05-01T07:05:10Z</time></trkpt>
      <trkpt lat="46.9204319" lon="10.8997897"><ele>2647.6</ele><time>2024-05-01T07:05:26Z</time></trkpt>
      <trkpt lat="46.9209179" lon="10.8998007"><ele>2639.4</ele><time>2024-05-01T07:05:31Z</time></trkpt>
      <trkpt lat="46.9225106" lon="10.9007617"><ele>2632.4</ele><time>2024-05-01T07:06:07Z</time></trkpt>
      <trkpt lat="46.9234878" lon="10.9019713"><ele>2620.9</ele><time>2024-05-01T07:06:32Z</time></trkpt>
      <trkpt lat="46.9255354" lon="10.9025837"><ele>2611.6</ele><time>2024-05-01T07:07:23Z</time></trkpt>
      <trkpt lat="46.9269557" lon="10.90354"><ele>2600.3</ele><time>2024-05-01T07:08:14Z</time></trkpt>
      <trkpt lat="46.9271414" lon="10.9033326"><ele>2598.9</ele><time>2024-05-01T07:08:34Z</time></trkpt>
      <trkpt lat="46.9273381" lon="10.9037147"><ele>2604.8</ele><time>2024-05-01T07:29:15Z</time></trkpt>
      <trkpt lat="46.9273251" lon="10.9041736"><ele>2619.1</ele><time>2024-05-01T07:30:08Z</time></trkpt>
      <trkpt lat="46.9280422" lon="10.9044553"><ele>2634.3</ele><time>2024-05-01T07:32:32Z</time></trkpt>
      <trkpt lat="46.9284968" lon="10.905054"><ele>2644.0</ele><time>2024-05-01T07:34:19Z</time></trkpt>
      <trkpt lat="46.9290849" lon="10.9064474"><ele>2642.7</ele><time>2024-05-01T07:36:27Z</time></trkpt>
      <trkpt lat="46.9291494" lon="10.907631"><ele>2648.6</ele><time>2024-05-01T07:38:13Z</time></trkpt>
      <trkpt lat="46.9295616" lon="10.9083281"><ele>2658.3</ele><time>2024-05-01T07:39:44Z</time></trkpt>
      <trkpt lat="46.9296819" lon="10.9092309"><ele>2658.9</ele><time>2024-05-01T07:40:59Z</time></trkpt>
      <trkpt lat="46.9304933" lon="10.91017"><ele>2665.6</ele><time>2024-05-01T07:44:00Z</time></trkpt>
      <trkpt lat="46.9308954" lon="10.9113147"><ele>2660.8</ele><time>2024-05-01T07:45:36Z</time></trkpt>
      <trkpt lat="46.9316665" lon="10.9122075"><ele>2664.3</ele><time>2024-05-01T07:47:21Z</time></trkpt>
      <trkpt lat="46.9323055" lon="10.9136191"><ele>2686.5</ele><time>2024-05-01T07:50:28Z</time></trkpt>
      <trkpt lat="46.9324389" lon="10.914345"><ele>2690.3</ele><time>2024-05-01T07:51:48Z</time></trkpt>
      <trkpt lat="46.9326819" lon="10.9150776"><ele>2693.3</ele><time>2024-05-01T07:52:47Z</time></trkpt>
      <trkpt lat="46.9330147" lon="10.9155793"><ele>2706.7</ele><time>2024-05-01T07:54:17Z</time></trkpt>
      <trkpt lat="46.9331718" lon="10.9163299"><ele>2716.0</ele><time>2024-05-01T07:56:03Z</time></trkpt>
      <trkpt lat="46.9335054" lon="10.9166722"><ele>2726.6</ele><time>2024-05-01T07:57:17Z</time></trkpt>
      <trkpt lat="46.9340937" lon="10.9179933"><ele>2752.5</ele><time>2024-05-01T08:00:45Z</time></trkpt>
      <trkpt lat="46.9337126" lon="10.9183045"><ele>2762.4</ele><time>2024-05-01T08:02:16Z</time></trkpt>
      <trkpt lat="46.933384" lon="10.9190076"><ele>2774.8</ele><time>2024-05-01T08:04:08Z</time></trkpt>
      <trkpt lat="46.9332761" lon="10.9214988"><ele>2826.0</ele><time>2024-05-01T08:10:43Z</time></trkpt>
      <trkpt lat="46.9324704" lon="10.9225076"><ele>2847.2</ele><time>2024-05-01T08:14:11Z</time></trkpt>
      <trkpt lat="46.9314232" lon="10.9224839"><ele>2873.7</ele><time>2024-05-01T08:18:05Z</time></trkpt>
      <trkpt lat="46.9319189" lon="10.9238026"><ele>2884.4</ele><time>2024-05-01T08:22:00Z</time></trkpt>
      <trkpt lat="46.9323819" lon="10.9242384"><ele>2901.5</ele><time>2024-05-01T08:36:35Z</time></trkpt>
      <trkpt lat="46.9323782" lon="10.9244488"><ele>2906.3</ele><time>2024-05-01T08:37:45Z</time></trkpt>
      <trkpt lat="46.9321102" lon="10.9247507"><ele>2941.3</ele><time>2024-05-01T08:41:45Z</time></trkpt>
      <trkpt lat="46.9322025" lon="10.9250818"><ele>2959.7</ele><time>2024-05-01T08:44:09Z</time></trkpt>
      <trkpt lat="46.9320488" lon="10.9254326"><ele>2971.3</ele><time>2024-05-01T08:46:01Z</time></trkpt>
      <trkpt lat="46.9320853" lon="10.9257235"><ele>2984.2</ele><time>2024-05-01T08:47:21Z</time></trkpt>
      <trkpt lat="46.9322351" lon="10.925674"><ele>2991.3</ele><time>2024-05-01T08:47:42Z</time></trkpt>
      <trkpt lat="46.9322685" lon="10.9260223"><ele>2994.0</ele><time>2024-05-01T08:48:41Z</time></trkpt>
      <trkpt lat="46.9322092" lon="10.9259606"><ele>2993.5</ele><time>2024-05-01T08:49:29Z</time></trkpt>
      <trkpt lat="46.9330316" lon="10.9259078"><ele>2983.1</ele><time>2024-05-01T09:02:00Z</time></trkpt>
      <trkpt lat="46.9334655" lon="10.9260427"><ele>2983.5</ele><time>2024-05-01T09:02:16Z</time></trkpt>
      <trkpt lat="46.9346658" lon="10.9268156"><ele>2951.8</ele><time>2024-05-01T09:03:09Z</time></trkpt>
      <trkpt lat="46.9367769" lon="10.9286449"><ele>2794.0</ele><time>2024-05-01T09:03:40Z</time></trkpt>
      <trkpt lat="46.938338" lon="10.9305857"><ele>2710.4</ele><time>2024-05-01T09:03:56Z</time></trkpt>
      <trkpt lat="46.9396481" lon="10.9318105"><ele>2685.9</ele><time>2024-05-01T09:04:06Z</time></trkpt>
      <trkpt lat="46.9412809" lon="10.9323945"><ele>2666.9</ele><time>2024-05-01T09:04:51Z</time></trkpt>
    </trkseg>
  </trk>
</gpx>
