<?xml version="1.0" encoding="UTF-8"?>
<gpx version="1.1" creator="lesgrandsraidsaski.com" xmlns="http://www.topografix.com/GPX/1/1">
  <metadata>
    <desc>Trace dérivée (simplifiée RDP epsilon=6m, une journée par segment) — voir data/gpx-sources/suisse-dammastock-2023.original.gpx pour la trace originale.</desc>
  </metadata>
  <trk>
    <name>Dammastock, traversée du massif (2023)</name>
    <trkseg>
      <trkpt lat="46.6653184" lon="8.5696592"><ele>1167.3</ele></trkpt>
      <trkpt lat="46.6648936" lon="8.568168"><ele>1177.6</ele></trkpt>
      <trkpt lat="46.664912" lon="8.5663188"><ele>1183.3</ele></trkpt>
      <trkpt lat="46.664644" lon="8.5642125"><ele>1198.3</ele></trkpt>
      <trkpt lat="46.6649301" lon="8.5632706"><ele>1196.4</ele></trkpt>
      <trkpt lat="46.6649647" lon="8.562781"><ele>1199.0</ele></trkpt>
      <trkpt lat="46.6648029" lon="8.5612258"><ele>1196.8</ele></trkpt>
      <trkpt lat="46.6644447" lon="8.5594901"><ele>1208.6</ele></trkpt>
      <trkpt lat="46.6643112" lon="8.5579115"><ele>1205.5</ele></trkpt>
      <trkpt lat="46.6648976" lon="8.5581123"><ele>1225.1</ele></trkpt>
      <trkpt lat="46.6652499" lon="8.5578629"><ele>1241.6</ele></trkpt>
      <trkpt lat="46.6655008" lon="8.5579316"><ele>1251.2</ele></trkpt>
      <trkpt lat="46.6654289" lon="8.5571739"><ele>1264.8</ele></trkpt>
      <trkpt lat="46.6655144" lon="8.5570426"><ele>1269.6</ele></trkpt>
      <trkpt lat="46.6655952" lon="8.5562297"><ele>1290.8</ele></trkpt>
      <trkpt lat="46.6657106" lon="8.5562852"><ele>1286.3</ele></trkpt>
      <trkpt lat="46.6661022" lon="8.5569668"><ele>1304.0</ele></trkpt>
      <trkpt lat="46.6661842" lon="8.5559265"><ele>1328.4</ele></trkpt>
      <trkpt lat="46.6667386" lon="8.5565618"><ele>1349.0</ele></trkpt>
      <trkpt lat="46.6668435" lon="8.556128"><ele>1370.8</ele></trkpt>
      <trkpt lat="46.6669341" lon="8.556213"><ele>1374.3</ele></trkpt>
      <trkpt lat="46.6669186" lon="8.5558134"><ele>1379.4</ele></trkpt>
      <trkpt lat="46.6671397" lon="8.5559485"><ele>1388.7</ele></trkpt>
      <trkpt lat="46.6671732" lon="8.5558644"><ele>1393.5</ele></trkpt>
      <trkpt lat="46.6672719" lon="8.5550066"><ele>1427.6</ele></trkpt>
      <trkpt lat="46.6675127" lon="8.5552648"><ele>1447.3</ele></trkpt>
      <trkpt lat="46.6676318" lon="8.5552288"><ele>1450.8</ele></trkpt>
      <trkpt lat="46.6677378" lon="8.5554578"><ele>1467.9</ele></trkpt>
      <trkpt lat="46.6677593" lon="8.5551719"><ele>1478.0</ele></trkpt>
      <trkpt lat="46.6678863" lon="8.5552214"><ele>1485.8</ele></trkpt>
      <trkpt lat="46.6684808" lon="8.5564003"><ele>1523.7</ele></trkpt>
      <trkpt lat="46.6690566" lon="8.5564244"><ele>1556.8</ele></trkpt>
      <trkpt lat="46.6697468" lon="8.557009"><ele>1587.9</ele></trkpt>
      <trkpt lat="46.6695502" lon="8.5576907"><ele>1606.4</ele></trkpt>
      <trkpt lat="46.6696691" lon="8.5581233"><ele>1616.3</ele></trkpt>
      <trkpt lat="46.6696968" lon="8.5580319"><ele>1617.6</ele></trkpt>
      <trkpt lat="46.6698203" lon="8.5582359"><ele>1625.1</ele></trkpt>
      <trkpt lat="46.669757" lon="8.5583901"><ele>1626.7</ele></trkpt>
      <trkpt lat="46.6698133" lon="8.5585629"><ele>1628.1</ele></trkpt>
      <trkpt lat="46.6698544" lon="8.5584887"><ele>1635.4</ele></trkpt>
      <trkpt lat="46.6699077" lon="8.5586726"><ele>1637.2</ele></trkpt>
      <trkpt lat="46.6699496" lon="8.5585995"><ele>1639.2</ele></trkpt>
      <trkpt lat="46.670056" lon="8.5587251"><ele>1648.2</ele></trkpt>
      <trkpt lat="46.6700744" lon="8.5590175"><ele>1645.0</ele></trkpt>
      <trkpt lat="46.670528" lon="8.5596804"><ele>1671.0</ele></trkpt>
      <trkpt lat="46.6706927" lon="8.5603985"><ele>1683.4</ele></trkpt>
      <trkpt lat="46.6708751" lon="8.5606877"><ele>1686.7</ele></trkpt>
      <trkpt lat="46.6709407" lon="8.560692"><ele>1685.0</ele></trkpt>
      <trkpt lat="46.6708829" lon="8.5606382"><ele>1688.7</ele></trkpt>
      <trkpt lat="46.6710778" lon="8.5600471"><ele>1704.6</ele></trkpt>
      <trkpt lat="46.6712311" lon="8.5603649"><ele>1706.3</ele></trkpt>
      <trkpt lat="46.6713024" lon="8.5608416"><ele>1715.1</ele></trkpt>
      <trkpt lat="46.6714084" lon="8.5604145"><ele>1726.2</ele></trkpt>
      <trkpt lat="46.6714562" lon="8.560491"><ele>1726.2</ele></trkpt>
      <trkpt lat="46.6715388" lon="8.560859"><ele>1731.7</ele></trkpt>
      <trkpt lat="46.6717874" lon="8.5612012"><ele>1739.9</ele></trkpt>
      <trkpt lat="46.6717281" lon="8.5613801"><ele>1742.6</ele></trkpt>
      <trkpt lat="46.6718153" lon="8.5619388"><ele>1756.2</ele></trkpt>
      <trkpt lat="46.6717438" lon="8.5619048"><ele>1750.2</ele></trkpt>
      <trkpt lat="46.6719591" lon="8.5622202"><ele>1758.9</ele></trkpt>
      <trkpt lat="46.6720268" lon="8.5617508"><ele>1771.5</ele></trkpt>
      <trkpt lat="46.6721573" lon="8.5619448"><ele>1770.1</ele></trkpt>
      <trkpt lat="46.6722498" lon="8.5616905"><ele>1783.0</ele></trkpt>
      <trkpt lat="46.6724487" lon="8.5619375"><ele>1782.1</ele></trkpt>
      <trkpt lat="46.6725078" lon="8.5616829"><ele>1796.4</ele></trkpt>
      <trkpt lat="46.6728021" lon="8.5619347"><ele>1799.2</ele></trkpt>
      <trkpt lat="46.6728373" lon="8.561566"><ele>1806.0</ele></trkpt>
      <trkpt lat="46.6730843" lon="8.5616023"><ele>1809.7</ele></trkpt>
      <trkpt lat="46.6730721" lon="8.5613149"><ele>1818.9</ele></trkpt>
      <trkpt lat="46.6733661" lon="8.5605506"><ele>1828.9</ele></trkpt>
      <trkpt lat="46.6734685" lon="8.5604797"><ele>1832.2</ele></trkpt>
      <trkpt lat="46.6736764" lon="8.5609401"><ele>1842.7</ele></trkpt>
      <trkpt lat="46.6740813" lon="8.5612879"><ele>1853.8</ele></trkpt>
      <trkpt lat="46.674451" lon="8.5611178"><ele>1864.0</ele></trkpt>
      <trkpt lat="46.6747065" lon="8.5612241"><ele>1870.1</ele></trkpt>
      <trkpt lat="46.6747298" lon="8.5610413"><ele>1873.7</ele></trkpt>
      <trkpt lat="46.6748544" lon="8.5609762"><ele>1880.2</ele></trkpt>
      <trkpt lat="46.6752332" lon="8.5613519"><ele>1890.1</ele></trkpt>
      <trkpt lat="46.6753675" lon="8.5613397"><ele>1896.3</ele></trkpt>
      <trkpt lat="46.6754177" lon="8.5611612"><ele>1901.8</ele></trkpt>
      <trkpt lat="46.6753116" lon="8.5606173"><ele>1910.2</ele></trkpt>
      <trkpt lat="46.6752179" lon="8.5605563"><ele>1915.5</ele></trkpt>
      <trkpt lat="46.6753094" lon="8.5601962"><ele>1922.0</ele></trkpt>
      <trkpt lat="46.6754878" lon="8.5600443"><ele>1927.7</ele></trkpt>
      <trkpt lat="46.6755594" lon="8.5592772"><ele>1937.3</ele></trkpt>
      <trkpt lat="46.6756269" lon="8.5592675"><ele>1938.2</ele></trkpt>
      <trkpt lat="46.6752428" lon="8.5579772"><ele>1944.9</ele></trkpt>
      <trkpt lat="46.6752538" lon="8.5575868"><ele>1948.8</ele></trkpt>
      <trkpt lat="46.6758267" lon="8.5577995"><ele>1962.1</ele></trkpt>
      <trkpt lat="46.6756696" lon="8.5568627"><ele>1982.0</ele></trkpt>
      <trkpt lat="46.6761277" lon="8.5572888"><ele>1990.9</ele></trkpt>
      <trkpt lat="46.6758634" lon="8.5562784"><ele>2006.5</ele></trkpt>
      <trkpt lat="46.6759939" lon="8.5558475"><ele>2012.7</ele></trkpt>
      <trkpt lat="46.6760992" lon="8.556189"><ele>2020.4</ele></trkpt>
      <trkpt lat="46.6762262" lon="8.5560055"><ele>2030.4</ele></trkpt>
      <trkpt lat="46.6768088" lon="8.5566374"><ele>2051.9</ele></trkpt>
      <trkpt lat="46.676869" lon="8.5557768"><ele>2068.4</ele></trkpt>
      <trkpt lat="46.6769719" lon="8.5554133"><ele>2073.9</ele></trkpt>
      <trkpt lat="46.6771106" lon="8.555425"><ele>2078.3</ele></trkpt>
      <trkpt lat="46.6771248" lon="8.5553267"><ele>2079.7</ele></trkpt>
      <trkpt lat="46.6767949" lon="8.5542423"><ele>2094.2</ele></trkpt>
      <trkpt lat="46.6767188" lon="8.5527193"><ele>2106.7</ele></trkpt>
      <trkpt lat="46.6764942" lon="8.5518755"><ele>2112.1</ele></trkpt>
      <trkpt lat="46.6765598" lon="8.5518719"><ele>2111.4</ele></trkpt>
      <trkpt lat="46.6764892" lon="8.5518728"><ele>2111.7</ele></trkpt>
      <trkpt lat="46.6765464" lon="8.5519352"><ele>2111.1</ele></trkpt>
      <trkpt lat="46.6766588" lon="8.5516041"><ele>2110.5</ele></trkpt>
      <trkpt lat="46.6764669" lon="8.552003"><ele>2120.4</ele></trkpt>
      <trkpt lat="46.6765592" lon="8.5518093"><ele>2125.6</ele></trkpt>
    </trkseg>
    <trkseg>
      <trkpt lat="46.6764881" lon="8.5518798"><ele>2099.2</ele></trkpt>
      <trkpt lat="46.6767069" lon="8.550592"><ele>2120.3</ele></trkpt>
      <trkpt lat="46.6766409" lon="8.549654"><ele>2113.4</ele></trkpt>
      <trkpt lat="46.6766948" lon="8.5494027"><ele>2109.8</ele></trkpt>
      <trkpt lat="46.6765941" lon="8.5490887"><ele>2108.6</ele></trkpt>
      <trkpt lat="46.6766795" lon="8.5488527"><ele>2101.0</ele></trkpt>
      <trkpt lat="46.6766317" lon="8.5484871"><ele>2094.4</ele></trkpt>
      <trkpt lat="46.67675" lon="8.5483301"><ele>2092.2</ele></trkpt>
      <trkpt lat="46.6766971" lon="8.5481816"><ele>2089.7</ele></trkpt>
      <trkpt lat="46.6769569" lon="8.5474327"><ele>2091.4</ele></trkpt>
      <trkpt lat="46.676961" lon="8.54693"><ele>2096.0</ele></trkpt>
      <trkpt lat="46.6767893" lon="8.5465001"><ele>2101.9</ele></trkpt>
      <trkpt lat="46.6768759" lon="8.5458533"><ele>2111.9</ele></trkpt>
      <trkpt lat="46.6771621" lon="8.5446187"><ele>2124.8</ele></trkpt>
      <trkpt lat="46.6774175" lon="8.5442183"><ele>2130.6</ele></trkpt>
      <trkpt lat="46.6777968" lon="8.5432194"><ele>2153.1</ele></trkpt>
      <trkpt lat="46.6779891" lon="8.5431729"><ele>2157.2</ele></trkpt>
      <trkpt lat="46.6780027" lon="8.5429875"><ele>2163.5</ele></trkpt>
      <trkpt lat="46.6781393" lon="8.5430121"><ele>2166.9</ele></trkpt>
      <trkpt lat="46.6781398" lon="8.5426522"><ele>2174.7</ele></trkpt>
      <trkpt lat="46.6783437" lon="8.5425641"><ele>2182.3</ele></trkpt>
      <trkpt lat="46.6782583" lon="8.542085"><ele>2193.0</ele></trkpt>
      <trkpt lat="46.6790113" lon="8.5424788"><ele>2213.1</ele></trkpt>
      <trkpt lat="46.6789248" lon="8.5419932"><ele>2219.9</ele></trkpt>
      <trkpt lat="46.6798902" lon="8.5428749"><ele>2244.1</ele></trkpt>
      <trkpt lat="46.6798549" lon="8.5423285"><ele>2252.7</ele></trkpt>
      <trkpt lat="46.6801143" lon="8.5424095"><ele>2259.7</ele></trkpt>
      <trkpt lat="46.6801762" lon="8.5422483"><ele>2264.9</ele></trkpt>
      <trkpt lat="46.6802729" lon="8.5423752"><ele>2267.3</ele></trkpt>
      <trkpt lat="46.6803783" lon="8.5422873"><ele>2269.7</ele></trkpt>
      <trkpt lat="46.6804446" lon="8.5430556"><ele>2285.1</ele></trkpt>
      <trkpt lat="46.6805813" lon="8.5426252"><ele>2301.7</ele></trkpt>
      <trkpt lat="46.6806727" lon="8.5432063"><ele>2305.1</ele></trkpt>
      <trkpt lat="46.6808604" lon="8.5425808"><ele>2328.1</ele></trkpt>
      <trkpt lat="46.6808113" lon="8.542195"><ele>2332.9</ele></trkpt>
      <trkpt lat="46.6810003" lon="8.5419818"><ele>2336.7</ele></trkpt>
      <trkpt lat="46.6812523" lon="8.5425359"><ele>2338.6</ele></trkpt>
      <trkpt lat="46.681229" lon="8.5430236"><ele>2352.7</ele></trkpt>
      <trkpt lat="46.6813557" lon="8.5428161"><ele>2361.7</ele></trkpt>
      <trkpt lat="46.6813973" lon="8.5428905"><ele>2363.8</ele></trkpt>
      <trkpt lat="46.6814175" lon="8.5431794"><ele>2363.7</ele></trkpt>
      <trkpt lat="46.6813196" lon="8.5435317"><ele>2370.5</ele></trkpt>
      <trkpt lat="46.6815069" lon="8.5434223"><ele>2380.1</ele></trkpt>
      <trkpt lat="46.681451" lon="8.5437006"><ele>2383.1</ele></trkpt>
      <trkpt lat="46.6815597" lon="8.5435757"><ele>2385.4</ele></trkpt>
      <trkpt lat="46.6815322" lon="8.5438699"><ele>2391.6</ele></trkpt>
      <trkpt lat="46.6815944" lon="8.5438124"><ele>2404.2</ele></trkpt>
      <trkpt lat="46.6816485" lon="8.5440005"><ele>2403.7</ele></trkpt>
      <trkpt lat="46.6816909" lon="8.5439268"><ele>2414.7</ele></trkpt>
      <trkpt lat="46.6816716" lon="8.5441206"><ele>2416.0</ele></trkpt>
      <trkpt lat="46.6818477" lon="8.5442195"><ele>2420.9</ele></trkpt>
      <trkpt lat="46.6818955" lon="8.5446242"><ele>2450.0</ele></trkpt>
      <trkpt lat="46.6818392" lon="8.5445769"><ele>2459.3</ele></trkpt>
      <trkpt lat="46.6818888" lon="8.5444995"><ele>2461.6</ele></trkpt>
      <trkpt lat="46.6820079" lon="8.5445985"><ele>2451.4</ele></trkpt>
      <trkpt lat="46.6819844" lon="8.5448912"><ele>2472.0</ele></trkpt>
      <trkpt lat="46.6820522" lon="8.5448911"><ele>2479.3</ele></trkpt>
      <trkpt lat="46.681978" lon="8.5450443"><ele>2495.0</ele></trkpt>
      <trkpt lat="46.6820991" lon="8.5452418"><ele>2501.4</ele></trkpt>
      <trkpt lat="46.6821988" lon="8.5447586"><ele>2505.4</ele></trkpt>
      <trkpt lat="46.6826841" lon="8.5439896"><ele>2506.2</ele></trkpt>
      <trkpt lat="46.6833641" lon="8.5418558"><ele>2536.2</ele></trkpt>
      <trkpt lat="46.6832493" lon="8.5417972"><ele>2543.5</ele></trkpt>
      <trkpt lat="46.6832649" lon="8.541703"><ele>2544.2</ele></trkpt>
      <trkpt lat="46.6837552" lon="8.5407587"><ele>2557.3</ele></trkpt>
      <trkpt lat="46.6835938" lon="8.54036"><ele>2567.4</ele></trkpt>
      <trkpt lat="46.6831904" lon="8.5398174"><ele>2572.4</ele></trkpt>
      <trkpt lat="46.6832474" lon="8.5396526"><ele>2573.0</ele></trkpt>
      <trkpt lat="46.6831432" lon="8.539546"><ele>2578.3</ele></trkpt>
      <trkpt lat="46.6832399" lon="8.5394081"><ele>2580.1</ele></trkpt>
      <trkpt lat="46.6831655" lon="8.539279"><ele>2583.4</ele></trkpt>
      <trkpt lat="46.6833387" lon="8.5391194"><ele>2587.1</ele></trkpt>
      <trkpt lat="46.6834572" lon="8.5387065"><ele>2586.8</ele></trkpt>
      <trkpt lat="46.6838034" lon="8.5383311"><ele>2577.8</ele></trkpt>
      <trkpt lat="46.6845126" lon="8.5384268"><ele>2593.8</ele></trkpt>
      <trkpt lat="46.6847207" lon="8.5382005"><ele>2598.4</ele></trkpt>
      <trkpt lat="46.684988" lon="8.5381311"><ele>2603.6</ele></trkpt>
      <trkpt lat="46.6849633" lon="8.5377481"><ele>2610.7</ele></trkpt>
      <trkpt lat="46.6852161" lon="8.5377138"><ele>2616.8</ele></trkpt>
      <trkpt lat="46.6852223" lon="8.5373808"><ele>2625.2</ele></trkpt>
      <trkpt lat="46.6849258" lon="8.5369916"><ele>2633.9</ele></trkpt>
      <trkpt lat="46.6854032" lon="8.5368839"><ele>2644.2</ele></trkpt>
      <trkpt lat="46.6847371" lon="8.5360806"><ele>2669.2</ele></trkpt>
      <trkpt lat="46.6849183" lon="8.5357926"><ele>2673.6</ele></trkpt>
      <trkpt lat="46.6847081" lon="8.5355534"><ele>2682.8</ele></trkpt>
      <trkpt lat="46.6849942" lon="8.53531"><ele>2683.0</ele></trkpt>
      <trkpt lat="46.6854548" lon="8.5352311"><ele>2691.6</ele></trkpt>
      <trkpt lat="46.6854582" lon="8.5348525"><ele>2696.8</ele></trkpt>
      <trkpt lat="46.6855435" lon="8.5347018"><ele>2700.6</ele></trkpt>
      <trkpt lat="46.6859422" lon="8.5346685"><ele>2707.3</ele></trkpt>
      <trkpt lat="46.6858949" lon="8.5341871"><ele>2716.3</ele></trkpt>
      <trkpt lat="46.6861632" lon="8.5342437"><ele>2723.6</ele></trkpt>
      <trkpt lat="46.6860443" lon="8.5334689"><ele>2736.3</ele></trkpt>
      <trkpt lat="46.6863091" lon="8.5334363"><ele>2747.5</ele></trkpt>
      <trkpt lat="46.6862494" lon="8.5331642"><ele>2752.8</ele></trkpt>
      <trkpt lat="46.6863275" lon="8.5328156"><ele>2759.7</ele></trkpt>
      <trkpt lat="46.6865045" lon="8.5326862"><ele>2763.2</ele></trkpt>
      <trkpt lat="46.6863712" lon="8.5323726"><ele>2773.4</ele></trkpt>
      <trkpt lat="46.6865682" lon="8.5323021"><ele>2775.7</ele></trkpt>
      <trkpt lat="46.6865514" lon="8.5321344"><ele>2780.0</ele></trkpt>
      <trkpt lat="46.6866686" lon="8.5320439"><ele>2783.2</ele></trkpt>
      <trkpt lat="46.686597" lon="8.531825"><ele>2789.6</ele></trkpt>
      <trkpt lat="46.6869894" lon="8.5314408"><ele>2799.4</ele></trkpt>
      <trkpt lat="46.6868969" lon="8.5312209"><ele>2804.7</ele></trkpt>
      <trkpt lat="46.6871251" lon="8.5309848"><ele>2808.3</ele></trkpt>
      <trkpt lat="46.686947" lon="8.5308433"><ele>2814.4</ele></trkpt>
      <trkpt lat="46.6871082" lon="8.5300194"><ele>2827.6</ele></trkpt>
      <trkpt lat="46.686779" lon="8.5299209"><ele>2839.6</ele></trkpt>
      <trkpt lat="46.686448" lon="8.5295722"><ele>2846.6</ele></trkpt>
      <trkpt lat="46.6867656" lon="8.5294089"><ele>2852.8</ele></trkpt>
      <trkpt lat="46.6865382" lon="8.5292037"><ele>2862.2</ele></trkpt>
      <trkpt lat="46.6868446" lon="8.5289718"><ele>2868.3</ele></trkpt>
      <trkpt lat="46.6866197" lon="8.5286567"><ele>2875.1</ele></trkpt>
      <trkpt lat="46.6869938" lon="8.5284413"><ele>2885.1</ele></trkpt>
      <trkpt lat="46.6867796" lon="8.5280839"><ele>2895.2</ele></trkpt>
      <trkpt lat="46.6871012" lon="8.5279229"><ele>2900.1</ele></trkpt>
      <trkpt lat="46.6865585" lon="8.5275406"><ele>2912.8</ele></trkpt>
      <trkpt lat="46.6872735" lon="8.5271979"><ele>2924.4</ele></trkpt>
      <trkpt lat="46.6871546" lon="8.5269621"><ele>2932.0</ele></trkpt>
      <trkpt lat="46.6872159" lon="8.5269163"><ele>2931.9</ele></trkpt>
      <trkpt lat="46.6877448" lon="8.5270539"><ele>2946.2</ele></trkpt>
      <trkpt lat="46.6877602" lon="8.5268714"><ele>2946.9</ele></trkpt>
      <trkpt lat="46.6881658" lon="8.5264135"><ele>2960.5</ele></trkpt>
      <trkpt lat="46.688515" lon="8.5263288"><ele>2965.6</ele></trkpt>
      <trkpt lat="46.6889749" lon="8.526418"><ele>2975.4</ele></trkpt>
      <trkpt lat="46.6888208" lon="8.5258016"><ele>2979.0</ele></trkpt>
      <trkpt lat="46.6890785" lon="8.525888"><ele>2990.7</ele></trkpt>
      <trkpt lat="46.6890255" lon="8.5256038"><ele>2993.1</ele></trkpt>
      <trkpt lat="46.6890808" lon="8.5255494"><ele>2992.4</ele></trkpt>
      <trkpt lat="46.6893322" lon="8.525596"><ele>3003.3</ele></trkpt>
      <trkpt lat="46.6906889" lon="8.5252359"><ele>3032.3</ele></trkpt>
      <trkpt lat="46.689673" lon="8.5244477"><ele>3051.1</ele></trkpt>
      <trkpt lat="46.6905112" lon="8.5241389"><ele>3070.8</ele></trkpt>
      <trkpt lat="46.6903345" lon="8.5239899"><ele>3076.3</ele></trkpt>
      <trkpt lat="46.690565" lon="8.5237956"><ele>3081.6</ele></trkpt>
      <trkpt lat="46.6908961" lon="8.5238078"><ele>3090.1</ele></trkpt>
      <trkpt lat="46.6907188" lon="8.523643"><ele>3097.9</ele></trkpt>
      <trkpt lat="46.6908504" lon="8.5236751"><ele>3101.0</ele></trkpt>
      <trkpt lat="46.6908571" lon="8.5233317"><ele>3121.3</ele></trkpt>
      <trkpt lat="46.6909855" lon="8.5233766"><ele>3125.7</ele></trkpt>
      <trkpt lat="46.6909266" lon="8.5232052"><ele>3132.2</ele></trkpt>
      <trkpt lat="46.6909892" lon="8.5231756"><ele>3133.1</ele></trkpt>
      <trkpt lat="46.6911874" lon="8.523616"><ele>3131.2</ele></trkpt>
      <trkpt lat="46.6912037" lon="8.5233886"><ele>3123.2</ele></trkpt>
      <trkpt lat="46.6911502" lon="8.5236434"><ele>3132.7</ele></trkpt>
      <trkpt lat="46.6910775" lon="8.52348"><ele>3144.7</ele></trkpt>
      <trkpt lat="46.691163" lon="8.5236315"><ele>3134.0</ele></trkpt>
      <trkpt lat="46.6911846" lon="8.5234439"><ele>3125.0</ele></trkpt>
      <trkpt lat="46.6913464" lon="8.523314"><ele>3113.9</ele></trkpt>
      <trkpt lat="46.6914577" lon="8.5234329"><ele>3093.7</ele></trkpt>
      <trkpt lat="46.6918996" lon="8.523217"><ele>3058.1</ele></trkpt>
      <trkpt lat="46.6919464" lon="8.5230832"><ele>3053.1</ele></trkpt>
      <trkpt lat="46.6919847" lon="8.5231984"><ele>3051.4</ele></trkpt>
      <trkpt lat="46.6933661" lon="8.5238452"><ele>2957.7</ele></trkpt>
      <trkpt lat="46.6936081" lon="8.5241262"><ele>2939.6</ele></trkpt>
      <trkpt lat="46.6937705" lon="8.5237232"><ele>2925.0</ele></trkpt>
      <trkpt lat="46.695067" lon="8.5234043"><ele>2842.0</ele></trkpt>
      <trkpt lat="46.6959019" lon="8.5226268"><ele>2822.2</ele></trkpt>
      <trkpt lat="46.6957368" lon="8.5228847"><ele>2811.2</ele></trkpt>
      <trkpt lat="46.6958496" lon="8.5231224"><ele>2798.8</ele></trkpt>
      <trkpt lat="46.6960271" lon="8.5232779"><ele>2780.0</ele></trkpt>
      <trkpt lat="46.6967403" lon="8.5234405"><ele>2729.1</ele></trkpt>
      <trkpt lat="46.6974915" lon="8.5241483"><ele>2676.7</ele></trkpt>
      <trkpt lat="46.6976466" lon="8.5239814"><ele>2673.5</ele></trkpt>
      <trkpt lat="46.6974864" lon="8.5233515"><ele>2665.5</ele></trkpt>
      <trkpt lat="46.6974921" lon="8.5227211"><ele>2647.9</ele></trkpt>
      <trkpt lat="46.6977709" lon="8.5223382"><ele>2605.2</ele></trkpt>
      <trkpt lat="46.698" lon="8.5214635"><ele>2583.5</ele></trkpt>
      <trkpt lat="46.6979872" lon="8.5208988"><ele>2585.7</ele></trkpt>
      <trkpt lat="46.6980501" lon="8.5208759"><ele>2587.8</ele></trkpt>
      <trkpt lat="46.6980824" lon="8.5212649"><ele>2583.6</ele></trkpt>
      <trkpt lat="46.6983144" lon="8.5215398"><ele>2566.6</ele></trkpt>
      <trkpt lat="46.6987001" lon="8.5214637"><ele>2551.9</ele></trkpt>
      <trkpt lat="46.7005951" lon="8.5217966"><ele>2447.6</ele></trkpt>
      <trkpt lat="46.7010241" lon="8.5215652"><ele>2428.6</ele></trkpt>
      <trkpt lat="46.7013915" lon="8.5207832"><ele>2423.3</ele></trkpt>
      <trkpt lat="46.7025833" lon="8.5198694"><ele>2398.6</ele></trkpt>
      <trkpt lat="46.702454" lon="8.5194613"><ele>2397.5</ele></trkpt>
      <trkpt lat="46.7028738" lon="8.518686"><ele>2409.7</ele></trkpt>
      <trkpt lat="46.7023103" lon="8.5186473"><ele>2423.6</ele></trkpt>
      <trkpt lat="46.7025622" lon="8.5179429"><ele>2431.9</ele></trkpt>
      <trkpt lat="46.702752" lon="8.5178356"><ele>2437.7</ele></trkpt>
      <trkpt lat="46.7025761" lon="8.5176027"><ele>2441.2</ele></trkpt>
      <trkpt lat="46.7027703" lon="8.5175471"><ele>2448.5</ele></trkpt>
      <trkpt lat="46.7026251" lon="8.5173364"><ele>2452.2</ele></trkpt>
      <trkpt lat="46.7027365" lon="8.5172704"><ele>2459.0</ele></trkpt>
      <trkpt lat="46.7025729" lon="8.5171087"><ele>2461.0</ele></trkpt>
      <trkpt lat="46.7026956" lon="8.5170473"><ele>2465.3</ele></trkpt>
      <trkpt lat="46.7026787" lon="8.5169499"><ele>2468.1</ele></trkpt>
      <trkpt lat="46.7025717" lon="8.5168241"><ele>2472.0</ele></trkpt>
      <trkpt lat="46.7025271" lon="8.5164185"><ele>2480.4</ele></trkpt>
      <trkpt lat="46.7023564" lon="8.5159962"><ele>2488.6</ele></trkpt>
      <trkpt lat="46.7022628" lon="8.5153348"><ele>2501.8</ele></trkpt>
      <trkpt lat="46.7027888" lon="8.5149114"><ele>2516.4</ele></trkpt>
      <trkpt lat="46.7027832" lon="8.513719"><ele>2531.2</ele></trkpt>
      <trkpt lat="46.7030438" lon="8.5130244"><ele>2538.3</ele></trkpt>
      <trkpt lat="46.7032405" lon="8.5130214"><ele>2542.9</ele></trkpt>
      <trkpt lat="46.7035955" lon="8.5127455"><ele>2552.6</ele></trkpt>
      <trkpt lat="46.7032878" lon="8.5125391"><ele>2563.6</ele></trkpt>
      <trkpt lat="46.703665" lon="8.5123426"><ele>2574.1</ele></trkpt>
      <trkpt lat="46.7031694" lon="8.5120391"><ele>2584.2</ele></trkpt>
      <trkpt lat="46.7039331" lon="8.511733"><ele>2599.4</ele></trkpt>
      <trkpt lat="46.7033993" lon="8.5111494"><ele>2614.1</ele></trkpt>
      <trkpt lat="46.7038045" lon="8.5105392"><ele>2628.8</ele></trkpt>
      <trkpt lat="46.7037846" lon="8.5104417"><ele>2632.5</ele></trkpt>
      <trkpt lat="46.7033902" lon="8.5100775"><ele>2639.5</ele></trkpt>
      <trkpt lat="46.7030544" lon="8.5103555"><ele>2649.7</ele></trkpt>
      <trkpt lat="46.7026196" lon="8.5100923"><ele>2656.3</ele></trkpt>
      <trkpt lat="46.7027749" lon="8.5098984"><ele>2660.8</ele></trkpt>
      <trkpt lat="46.7025122" lon="8.5098344"><ele>2665.8</ele></trkpt>
      <trkpt lat="46.7026438" lon="8.5096179"><ele>2666.7</ele></trkpt>
      <trkpt lat="46.7025228" lon="8.509545"><ele>2669.3</ele></trkpt>
      <trkpt lat="46.7027305" lon="8.5093476"><ele>2676.1</ele></trkpt>
      <trkpt lat="46.7023733" lon="8.5090929"><ele>2680.1</ele></trkpt>
      <trkpt lat="46.702677" lon="8.5088739"><ele>2690.3</ele></trkpt>
      <trkpt lat="46.7024816" lon="8.5087648"><ele>2694.1</ele></trkpt>
      <trkpt lat="46.7026622" lon="8.5086431"><ele>2697.2</ele></trkpt>
      <trkpt lat="46.7024347" lon="8.5084496"><ele>2702.4</ele></trkpt>
      <trkpt lat="46.702754" lon="8.5083061"><ele>2708.7</ele></trkpt>
      <trkpt lat="46.7024958" lon="8.5081584"><ele>2713.1</ele></trkpt>
      <trkpt lat="46.7026687" lon="8.5079914"><ele>2716.3</ele></trkpt>
      <trkpt lat="46.7024819" lon="8.5079058"><ele>2719.7</ele></trkpt>
      <trkpt lat="46.7028093" lon="8.5077603"><ele>2727.1</ele></trkpt>
      <trkpt lat="46.7024871" lon="8.5075787"><ele>2733.2</ele></trkpt>
      <trkpt lat="46.702943" lon="8.5074268"><ele>2739.7</ele></trkpt>
      <trkpt lat="46.7027474" lon="8.5071771"><ele>2745.7</ele></trkpt>
      <trkpt lat="46.7022186" lon="8.5069766"><ele>2757.2</ele></trkpt>
      <trkpt lat="46.7028019" lon="8.5064472"><ele>2768.2</ele></trkpt>
      <trkpt lat="46.7023629" lon="8.5061346"><ele>2776.3</ele></trkpt>
      <trkpt lat="46.7025222" lon="8.5059356"><ele>2779.7</ele></trkpt>
      <trkpt lat="46.7023544" lon="8.5057625"><ele>2784.2</ele></trkpt>
      <trkpt lat="46.7025394" lon="8.5056543"><ele>2786.8</ele></trkpt>
      <trkpt lat="46.7024066" lon="8.5054364"><ele>2793.4</ele></trkpt>
      <trkpt lat="46.7026914" lon="8.505444"><ele>2801.0</ele></trkpt>
      <trkpt lat="46.7025912" lon="8.5053196"><ele>2805.4</ele></trkpt>
      <trkpt lat="46.7029309" lon="8.5052419"><ele>2813.1</ele></trkpt>
      <trkpt lat="46.7028321" lon="8.5051237"><ele>2814.9</ele></trkpt>
      <trkpt lat="46.7030899" lon="8.5049754"><ele>2823.9</ele></trkpt>
      <trkpt lat="46.7028735" lon="8.5047899"><ele>2830.8</ele></trkpt>
      <trkpt lat="46.7030498" lon="8.5046406"><ele>2836.0</ele></trkpt>
      <trkpt lat="46.7028423" lon="8.5045916"><ele>2839.4</ele></trkpt>
      <trkpt lat="46.7025809" lon="8.5042658"><ele>2846.3</ele></trkpt>
      <trkpt lat="46.7029718" lon="8.5041127"><ele>2857.0</ele></trkpt>
      <trkpt lat="46.702683" lon="8.5038838"><ele>2862.2</ele></trkpt>
      <trkpt lat="46.7031014" lon="8.5038125"><ele>2870.5</ele></trkpt>
      <trkpt lat="46.7026785" lon="8.5034612"><ele>2879.7</ele></trkpt>
      <trkpt lat="46.7029367" lon="8.5033481"><ele>2885.6</ele></trkpt>
      <trkpt lat="46.7027755" lon="8.5031809"><ele>2891.2</ele></trkpt>
      <trkpt lat="46.703029" lon="8.5030706"><ele>2898.3</ele></trkpt>
      <trkpt lat="46.7028019" lon="8.5028582"><ele>2906.8</ele></trkpt>
      <trkpt lat="46.7029323" lon="8.5027856"><ele>2908.6</ele></trkpt>
      <trkpt lat="46.702884" lon="8.5027217"><ele>2911.3</ele></trkpt>
      <trkpt lat="46.7025429" lon="8.5026852"><ele>2919.3</ele></trkpt>
      <trkpt lat="46.7027665" lon="8.5024856"><ele>2923.8</ele></trkpt>
      <trkpt lat="46.7023805" lon="8.5023701"><ele>2930.6</ele></trkpt>
      <trkpt lat="46.7026209" lon="8.5022128"><ele>2935.6</ele></trkpt>
      <trkpt lat="46.7022016" lon="8.5018939"><ele>2947.9</ele></trkpt>
      <trkpt lat="46.7021531" lon="8.501715"><ele>2950.6</ele></trkpt>
      <trkpt lat="46.7024152" lon="8.5017435"><ele>2955.8</ele></trkpt>
      <trkpt lat="46.7023796" lon="8.5016628"><ele>2954.5</ele></trkpt>
      <trkpt lat="46.7019081" lon="8.5012991"><ele>2971.9</ele></trkpt>
      <trkpt lat="46.7015802" lon="8.501804"><ele>2965.2</ele></trkpt>
      <trkpt lat="46.7011276" lon="8.5030314"><ele>2928.6</ele></trkpt>
      <trkpt lat="46.7011859" lon="8.5035013"><ele>2904.1</ele></trkpt>
      <trkpt lat="46.7010891" lon="8.5039259"><ele>2889.9</ele></trkpt>
      <trkpt lat="46.7018459" lon="8.5054618"><ele>2809.1</ele></trkpt>
      <trkpt lat="46.7023951" lon="8.5058769"><ele>2790.7</ele></trkpt>
      <trkpt lat="46.7030685" lon="8.5061446"><ele>2790.7</ele></trkpt>
      <trkpt lat="46.7025858" lon="8.5053284"><ele>2811.2</ele></trkpt>
      <trkpt lat="46.7029223" lon="8.5052297"><ele>2817.0</ele></trkpt>
      <trkpt lat="46.7029669" lon="8.5051589"><ele>2817.3</ele></trkpt>
      <trkpt lat="46.7028345" lon="8.5051033"><ele>2820.1</ele></trkpt>
      <trkpt lat="46.7030892" lon="8.504954"><ele>2826.3</ele></trkpt>
      <trkpt lat="46.7028628" lon="8.5047791"><ele>2835.6</ele></trkpt>
      <trkpt lat="46.7030389" lon="8.5046218"><ele>2838.6</ele></trkpt>
      <trkpt lat="46.7028251" lon="8.5045736"><ele>2843.7</ele></trkpt>
      <trkpt lat="46.702568" lon="8.5042351"><ele>2850.4</ele></trkpt>
      <trkpt lat="46.7029656" lon="8.504089"><ele>2859.6</ele></trkpt>
      <trkpt lat="46.7026716" lon="8.5038443"><ele>2866.6</ele></trkpt>
      <trkpt lat="46.7031511" lon="8.5037736"><ele>2875.0</ele></trkpt>
      <trkpt lat="46.7026979" lon="8.5034584"><ele>2885.2</ele></trkpt>
      <trkpt lat="46.703" lon="8.5033323"><ele>2890.5</ele></trkpt>
      <trkpt lat="46.7027665" lon="8.5031249"><ele>2898.6</ele></trkpt>
      <trkpt lat="46.7030419" lon="8.5030611"><ele>2902.1</ele></trkpt>
      <trkpt lat="46.7028102" lon="8.5028507"><ele>2910.7</ele></trkpt>
      <trkpt lat="46.7029393" lon="8.5027667"><ele>2912.6</ele></trkpt>
      <trkpt lat="46.7025325" lon="8.5026402"><ele>2924.5</ele></trkpt>
      <trkpt lat="46.7027314" lon="8.5024979"><ele>2925.2</ele></trkpt>
      <trkpt lat="46.7023972" lon="8.5023831"><ele>2934.9</ele></trkpt>
      <trkpt lat="46.7026373" lon="8.5021804"><ele>2939.4</ele></trkpt>
      <trkpt lat="46.7022526" lon="8.5019508"><ele>2949.1</ele></trkpt>
      <trkpt lat="46.7021638" lon="8.501679"><ele>2953.4</ele></trkpt>
      <trkpt lat="46.7023629" lon="8.5017498"><ele>2957.6</ele></trkpt>
      <trkpt lat="46.7017428" lon="8.5010692"><ele>2964.1</ele></trkpt>
      <trkpt lat="46.7017309" lon="8.5006315"><ele>2956.8</ele></trkpt>
      <trkpt lat="46.7015967" lon="8.5003853"><ele>2935.2</ele></trkpt>
      <trkpt lat="46.7015071" lon="8.5003307"><ele>2936.4</ele></trkpt>
      <trkpt lat="46.7015648" lon="8.5003792"><ele>2928.5</ele></trkpt>
      <trkpt lat="46.7015059" lon="8.50047"><ele>2914.3</ele></trkpt>
      <trkpt lat="46.701206" lon="8.5007475"><ele>2908.5</ele></trkpt>
      <trkpt lat="46.7008777" lon="8.50022"><ele>2861.6</ele></trkpt>
      <trkpt lat="46.7005258" lon="8.4998735"><ele>2888.6</ele></trkpt>
      <trkpt lat="46.7007645" lon="8.5000558"><ele>2862.0</ele></trkpt>
      <trkpt lat="46.7007663" lon="8.499953"><ele>2860.7</ele></trkpt>
      <trkpt lat="46.7005918" lon="8.4998904"><ele>2842.6</ele></trkpt>
      <trkpt lat="46.7006174" lon="8.4997413"><ele>2810.2</ele></trkpt>
      <trkpt lat="46.700224" lon="8.5001091"><ele>2794.2</ele></trkpt>
      <trkpt lat="46.6999435" lon="8.4998914"><ele>2788.4</ele></trkpt>
      <trkpt lat="46.6992965" lon="8.4997324"><ele>2750.2</ele></trkpt>
      <trkpt lat="46.6990953" lon="8.5002055"><ele>2747.1</ele></trkpt>
      <trkpt lat="46.6988635" lon="8.5002539"><ele>2739.6</ele></trkpt>
      <trkpt lat="46.6983547" lon="8.500152"><ele>2719.3</ele></trkpt>
      <trkpt lat="46.6980878" lon="8.4999383"><ele>2709.0</ele></trkpt>
      <trkpt lat="46.6979014" lon="8.5001522"><ele>2702.7</ele></trkpt>
      <trkpt lat="46.6976567" lon="8.5001486"><ele>2694.1</ele></trkpt>
      <trkpt lat="46.697334" lon="8.4997496"><ele>2671.8</ele></trkpt>
      <trkpt lat="46.696903" lon="8.4994964"><ele>2654.4</ele></trkpt>
      <trkpt lat="46.6963817" lon="8.4999768"><ele>2640.7</ele></trkpt>
      <trkpt lat="46.6959631" lon="8.4992491"><ele>2611.0</ele></trkpt>
      <trkpt lat="46.6957395" lon="8.4982398"><ele>2584.0</ele></trkpt>
      <trkpt lat="46.6955963" lon="8.4981109"><ele>2579.6</ele></trkpt>
      <trkpt lat="46.6953177" lon="8.497239"><ele>2550.7</ele></trkpt>
      <trkpt lat="46.6946208" lon="8.4966925"><ele>2527.4</ele></trkpt>
      <trkpt lat="46.6945357" lon="8.4964667"><ele>2521.3</ele></trkpt>
      <trkpt lat="46.6942927" lon="8.4962904"><ele>2508.3</ele></trkpt>
      <trkpt lat="46.6941814" lon="8.4953488"><ele>2501.7</ele></trkpt>
      <trkpt lat="46.6941339" lon="8.4954359"><ele>2496.8</ele></trkpt>
      <trkpt lat="46.6937341" lon="8.4947347"><ele>2468.9</ele></trkpt>
      <trkpt lat="46.6935917" lon="8.4942741"><ele>2455.0</ele></trkpt>
      <trkpt lat="46.693385" lon="8.4942245"><ele>2446.0</ele></trkpt>
      <trkpt lat="46.6930934" lon="8.4943461"><ele>2435.6</ele></trkpt>
      <trkpt lat="46.6928664" lon="8.4946773"><ele>2430.4</ele></trkpt>
      <trkpt lat="46.6926853" lon="8.4942729"><ele>2427.2</ele></trkpt>
      <trkpt lat="46.6924179" lon="8.49414"><ele>2418.0</ele></trkpt>
      <trkpt lat="46.6923499" lon="8.4932766"><ele>2404.9</ele></trkpt>
      <trkpt lat="46.6925593" lon="8.4924828"><ele>2399.8</ele></trkpt>
      <trkpt lat="46.6925099" lon="8.4925468"><ele>2397.7</ele></trkpt>
      <trkpt lat="46.6921306" lon="8.4915312"><ele>2348.4</ele></trkpt>
      <trkpt lat="46.6920284" lon="8.4915898"><ele>2334.8</ele></trkpt>
      <trkpt lat="46.6918482" lon="8.4914607"><ele>2321.7</ele></trkpt>
      <trkpt lat="46.6917518" lon="8.4911272"><ele>2298.2</ele></trkpt>
      <trkpt lat="46.6914657" lon="8.4907882"><ele>2283.5</ele></trkpt>
      <trkpt lat="46.6915954" lon="8.4902352"><ele>2256.2</ele></trkpt>
      <trkpt lat="46.6915251" lon="8.4902633"><ele>2239.9</ele></trkpt>
      <trkpt lat="46.6914345" lon="8.4896843"><ele>2225.4</ele></trkpt>
      <trkpt lat="46.6912613" lon="8.4893198"><ele>2201.0</ele></trkpt>
      <trkpt lat="46.6907947" lon="8.4888759"><ele>2146.2</ele></trkpt>
      <trkpt lat="46.6905771" lon="8.4878641"><ele>2126.7</ele></trkpt>
      <trkpt lat="46.6904717" lon="8.4877467"><ele>2126.8</ele></trkpt>
    </trkseg>
    <trkseg>
      <trkpt lat="46.6904802" lon="8.4877967"><ele>2143.9</ele></trkpt>
      <trkpt lat="46.6905208" lon="8.4875051"><ele>2130.5</ele></trkpt>
      <trkpt lat="46.6903637" lon="8.487266"><ele>2116.6</ele></trkpt>
      <trkpt lat="46.6902278" lon="8.4860395"><ele>2089.6</ele></trkpt>
      <trkpt lat="46.6896168" lon="8.4857741"><ele>2091.2</ele></trkpt>
      <trkpt lat="46.6890277" lon="8.485966"><ele>2103.1</ele></trkpt>
      <trkpt lat="46.6888045" lon="8.4853913"><ele>2117.3</ele></trkpt>
      <trkpt lat="46.6885485" lon="8.4854704"><ele>2125.3</ele></trkpt>
      <trkpt lat="46.6885519" lon="8.4848017"><ele>2140.2</ele></trkpt>
      <trkpt lat="46.6880881" lon="8.4848638"><ele>2146.5</ele></trkpt>
      <trkpt lat="46.6879132" lon="8.4850162"><ele>2149.4</ele></trkpt>
      <trkpt lat="46.6877836" lon="8.4846857"><ele>2160.9</ele></trkpt>
      <trkpt lat="46.6876267" lon="8.4848588"><ele>2164.6</ele></trkpt>
      <trkpt lat="46.6876192" lon="8.4843859"><ele>2177.0</ele></trkpt>
      <trkpt lat="46.687423" lon="8.4844596"><ele>2178.6</ele></trkpt>
      <trkpt lat="46.6874526" lon="8.4840688"><ele>2189.4</ele></trkpt>
      <trkpt lat="46.6873201" lon="8.4840374"><ele>2190.4</ele></trkpt>
      <trkpt lat="46.6873183" lon="8.4837323"><ele>2198.1</ele></trkpt>
      <trkpt lat="46.686992" lon="8.4839191"><ele>2206.7</ele></trkpt>
      <trkpt lat="46.6868744" lon="8.4835766"><ele>2215.7</ele></trkpt>
      <trkpt lat="46.6868429" lon="8.4825917"><ele>2228.0</ele></trkpt>
      <trkpt lat="46.686741" lon="8.4825059"><ele>2231.5</ele></trkpt>
      <trkpt lat="46.6870846" lon="8.48138"><ele>2254.2</ele></trkpt>
      <trkpt lat="46.6870409" lon="8.481196"><ele>2256.9</ele></trkpt>
      <trkpt lat="46.6872069" lon="8.4810953"><ele>2260.4</ele></trkpt>
      <trkpt lat="46.6871301" lon="8.4809367"><ele>2263.9</ele></trkpt>
      <trkpt lat="46.6871879" lon="8.4805886"><ele>2271.7</ele></trkpt>
      <trkpt lat="46.6873145" lon="8.4805688"><ele>2275.4</ele></trkpt>
      <trkpt lat="46.6869078" lon="8.4798807"><ele>2294.0</ele></trkpt>
      <trkpt lat="46.6869553" lon="8.4795954"><ele>2300.1</ele></trkpt>
      <trkpt lat="46.6867727" lon="8.4794626"><ele>2306.3</ele></trkpt>
      <trkpt lat="46.6869037" lon="8.4790177"><ele>2315.1</ele></trkpt>
      <trkpt lat="46.6870243" lon="8.4791184"><ele>2316.1</ele></trkpt>
      <trkpt lat="46.6870208" lon="8.4784312"><ele>2323.1</ele></trkpt>
      <trkpt lat="46.6872662" lon="8.4785082"><ele>2331.1</ele></trkpt>
      <trkpt lat="46.6872553" lon="8.478412"><ele>2334.0</ele></trkpt>
      <trkpt lat="46.6873841" lon="8.4783657"><ele>2337.3</ele></trkpt>
      <trkpt lat="46.6872748" lon="8.4780256"><ele>2346.9</ele></trkpt>
      <trkpt lat="46.6873958" lon="8.4779407"><ele>2349.3</ele></trkpt>
      <trkpt lat="46.6872958" lon="8.47773"><ele>2357.9</ele></trkpt>
      <trkpt lat="46.6873386" lon="8.4776538"><ele>2360.5</ele></trkpt>
      <trkpt lat="46.6876657" lon="8.4776753"><ele>2368.9</ele></trkpt>
      <trkpt lat="46.6876298" lon="8.4774155"><ele>2374.2</ele></trkpt>
      <trkpt lat="46.6876898" lon="8.4773733"><ele>2376.6</ele></trkpt>
      <trkpt lat="46.6875273" lon="8.4769792"><ele>2391.1</ele></trkpt>
      <trkpt lat="46.6884302" lon="8.4767608"><ele>2419.4</ele></trkpt>
      <trkpt lat="46.6883429" lon="8.4765033"><ele>2421.6</ele></trkpt>
      <trkpt lat="46.688468" lon="8.4764713"><ele>2422.4</ele></trkpt>
      <trkpt lat="46.6882003" lon="8.4760264"><ele>2430.3</ele></trkpt>
      <trkpt lat="46.688232" lon="8.4759364"><ele>2431.7</ele></trkpt>
      <trkpt lat="46.6886576" lon="8.475848"><ele>2446.5</ele></trkpt>
      <trkpt lat="46.688861" lon="8.4753145"><ele>2459.7</ele></trkpt>
      <trkpt lat="46.6891549" lon="8.4753863"><ele>2468.3</ele></trkpt>
      <trkpt lat="46.6892231" lon="8.4750104"><ele>2475.3</ele></trkpt>
      <trkpt lat="46.6891651" lon="8.4747261"><ele>2485.8</ele></trkpt>
      <trkpt lat="46.6888576" lon="8.4745687"><ele>2496.2</ele></trkpt>
      <trkpt lat="46.6890619" lon="8.474092"><ele>2507.8</ele></trkpt>
      <trkpt lat="46.6893937" lon="8.4741804"><ele>2516.1</ele></trkpt>
      <trkpt lat="46.6896333" lon="8.4739979"><ele>2522.2</ele></trkpt>
      <trkpt lat="46.6896789" lon="8.4738279"><ele>2526.5</ele></trkpt>
      <trkpt lat="46.6891974" lon="8.4733012"><ele>2541.0</ele></trkpt>
      <trkpt lat="46.6893546" lon="8.4731217"><ele>2543.3</ele></trkpt>
      <trkpt lat="46.6892008" lon="8.4729284"><ele>2551.2</ele></trkpt>
      <trkpt lat="46.6890363" lon="8.4723889"><ele>2557.9</ele></trkpt>
      <trkpt lat="46.6888481" lon="8.472305"><ele>2560.9</ele></trkpt>
      <trkpt lat="46.6890076" lon="8.4720156"><ele>2566.8</ele></trkpt>
      <trkpt lat="46.6889827" lon="8.4718273"><ele>2570.5</ele></trkpt>
      <trkpt lat="46.6887853" lon="8.4717988"><ele>2576.4</ele></trkpt>
      <trkpt lat="46.6885877" lon="8.4715481"><ele>2581.7</ele></trkpt>
      <trkpt lat="46.6885865" lon="8.4713456"><ele>2586.1</ele></trkpt>
      <trkpt lat="46.6888717" lon="8.4710962"><ele>2594.0</ele></trkpt>
      <trkpt lat="46.6885184" lon="8.4706361"><ele>2607.6</ele></trkpt>
      <trkpt lat="46.688579" lon="8.4702797"><ele>2613.5</ele></trkpt>
      <trkpt lat="46.6884376" lon="8.4700782"><ele>2619.6</ele></trkpt>
      <trkpt lat="46.6881767" lon="8.4699775"><ele>2626.5</ele></trkpt>
      <trkpt lat="46.6881972" lon="8.4696086"><ele>2633.3</ele></trkpt>
      <trkpt lat="46.6877943" lon="8.4691226"><ele>2644.7</ele></trkpt>
      <trkpt lat="46.6878975" lon="8.4686363"><ele>2658.4</ele></trkpt>
      <trkpt lat="46.6876609" lon="8.4680756"><ele>2675.2</ele></trkpt>
      <trkpt lat="46.6877226" lon="8.4678282"><ele>2683.7</ele></trkpt>
      <trkpt lat="46.687903" lon="8.4679365"><ele>2689.4</ele></trkpt>
      <trkpt lat="46.688069" lon="8.4677857"><ele>2693.3</ele></trkpt>
      <trkpt lat="46.6878919" lon="8.4676377"><ele>2700.2</ele></trkpt>
      <trkpt lat="46.6880504" lon="8.4674619"><ele>2704.4</ele></trkpt>
      <trkpt lat="46.6878727" lon="8.4673406"><ele>2713.3</ele></trkpt>
      <trkpt lat="46.6879067" lon="8.4670591"><ele>2714.3</ele></trkpt>
      <trkpt lat="46.6878183" lon="8.4669054"><ele>2716.5</ele></trkpt>
      <trkpt lat="46.6880477" lon="8.4668516"><ele>2724.1</ele></trkpt>
      <trkpt lat="46.6880375" lon="8.4667562"><ele>2727.4</ele></trkpt>
      <trkpt lat="46.6878276" lon="8.4665123"><ele>2735.4</ele></trkpt>
      <trkpt lat="46.6876281" lon="8.4665041"><ele>2742.6</ele></trkpt>
      <trkpt lat="46.6877941" lon="8.4661991"><ele>2745.7</ele></trkpt>
      <trkpt lat="46.6876614" lon="8.466184"><ele>2751.3</ele></trkpt>
      <trkpt lat="46.6876136" lon="8.4659948"><ele>2754.2</ele></trkpt>
      <trkpt lat="46.6869475" lon="8.4654029"><ele>2773.0</ele></trkpt>
      <trkpt lat="46.687156" lon="8.4650204"><ele>2774.0</ele></trkpt>
      <trkpt lat="46.6874134" lon="8.4649035"><ele>2776.3</ele></trkpt>
      <trkpt lat="46.6886425" lon="8.4654812"><ele>2805.4</ele></trkpt>
      <trkpt lat="46.68846" lon="8.4650694"><ele>2815.8</ele></trkpt>
      <trkpt lat="46.688856" lon="8.464933"><ele>2823.9</ele></trkpt>
      <trkpt lat="46.6882047" lon="8.4638228"><ele>2843.8</ele></trkpt>
      <trkpt lat="46.6886014" lon="8.4634674"><ele>2853.0</ele></trkpt>
      <trkpt lat="46.6881434" lon="8.4632701"><ele>2865.4</ele></trkpt>
      <trkpt lat="46.6886973" lon="8.4627278"><ele>2877.8</ele></trkpt>
      <trkpt lat="46.6884526" lon="8.4624344"><ele>2887.7</ele></trkpt>
      <trkpt lat="46.6884951" lon="8.4623621"><ele>2887.1</ele></trkpt>
      <trkpt lat="46.6894635" lon="8.4616906"><ele>2905.4</ele></trkpt>
      <trkpt lat="46.6893055" lon="8.4615024"><ele>2911.7</ele></trkpt>
      <trkpt lat="46.6895352" lon="8.461307"><ele>2915.8</ele></trkpt>
      <trkpt lat="46.6894556" lon="8.4611113"><ele>2923.5</ele></trkpt>
      <trkpt lat="46.6898606" lon="8.4607878"><ele>2932.5</ele></trkpt>
      <trkpt lat="46.6896479" lon="8.4604169"><ele>2939.9</ele></trkpt>
      <trkpt lat="46.6899371" lon="8.460165"><ele>2946.2</ele></trkpt>
      <trkpt lat="46.6898367" lon="8.4598145"><ele>2948.4</ele></trkpt>
      <trkpt lat="46.6898371" lon="8.4593255"><ele>2952.5</ele></trkpt>
      <trkpt lat="46.6900615" lon="8.4590803"><ele>2967.3</ele></trkpt>
      <trkpt lat="46.6903894" lon="8.4591684"><ele>2975.6</ele></trkpt>
      <trkpt lat="46.6903583" lon="8.4589773"><ele>2974.3</ele></trkpt>
      <trkpt lat="46.6904204" lon="8.4589361"><ele>2978.6</ele></trkpt>
      <trkpt lat="46.6907556" lon="8.4590182"><ele>2991.7</ele></trkpt>
      <trkpt lat="46.6905799" lon="8.4585896"><ele>2993.5</ele></trkpt>
      <trkpt lat="46.6911673" lon="8.4583861"><ele>3009.5</ele></trkpt>
      <trkpt lat="46.691009" lon="8.4582259"><ele>3013.9</ele></trkpt>
      <trkpt lat="46.6918316" lon="8.4577981"><ele>3041.9</ele></trkpt>
      <trkpt lat="46.6917998" lon="8.45754"><ele>3031.3</ele></trkpt>
      <trkpt lat="46.69122" lon="8.4570377"><ele>3042.8</ele></trkpt>
      <trkpt lat="46.6914516" lon="8.4568473"><ele>3055.9</ele></trkpt>
      <trkpt lat="46.6910748" lon="8.4566798"><ele>3065.4</ele></trkpt>
      <trkpt lat="46.6914976" lon="8.4564042"><ele>3078.0</ele></trkpt>
      <trkpt lat="46.6910751" lon="8.4561015"><ele>3081.2</ele></trkpt>
      <trkpt lat="46.6918763" lon="8.4557193"><ele>3106.5</ele></trkpt>
      <trkpt lat="46.6915659" lon="8.4553719"><ele>3107.8</ele></trkpt>
      <trkpt lat="46.6917613" lon="8.4552797"><ele>3111.4</ele></trkpt>
      <trkpt lat="46.6915848" lon="8.4551521"><ele>3119.7</ele></trkpt>
      <trkpt lat="46.69163" lon="8.4550716"><ele>3120.8</ele></trkpt>
      <trkpt lat="46.6919538" lon="8.4549589"><ele>3131.5</ele></trkpt>
      <trkpt lat="46.6917701" lon="8.4548457"><ele>3132.1</ele></trkpt>
      <trkpt lat="46.6918263" lon="8.4547846"><ele>3134.4</ele></trkpt>
      <trkpt lat="46.6920234" lon="8.4547426"><ele>3136.4</ele></trkpt>
      <trkpt lat="46.6923214" lon="8.4549516"><ele>3145.7</ele></trkpt>
      <trkpt lat="46.6921893" lon="8.4546154"><ele>3140.0</ele></trkpt>
      <trkpt lat="46.692715" lon="8.454571"><ele>3158.7</ele></trkpt>
      <trkpt lat="46.6927287" lon="8.4542774"><ele>3159.4</ele></trkpt>
      <trkpt lat="46.6930594" lon="8.4541801"><ele>3167.4</ele></trkpt>
      <trkpt lat="46.6930014" lon="8.4539291"><ele>3163.0</ele></trkpt>
      <trkpt lat="46.692479" lon="8.4537926"><ele>3184.4</ele></trkpt>
      <trkpt lat="46.6927592" lon="8.4535967"><ele>3187.9</ele></trkpt>
      <trkpt lat="46.6925012" lon="8.4536493"><ele>3210.4</ele></trkpt>
      <trkpt lat="46.6927399" lon="8.453532"><ele>3221.4</ele></trkpt>
      <trkpt lat="46.6925601" lon="8.4534562"><ele>3222.3</ele></trkpt>
      <trkpt lat="46.6926882" lon="8.453427"><ele>3230.8</ele></trkpt>
      <trkpt lat="46.6926761" lon="8.4528623"><ele>3275.4</ele></trkpt>
      <trkpt lat="46.6927716" lon="8.4527325"><ele>3286.4</ele></trkpt>
      <trkpt lat="46.6930803" lon="8.4527413"><ele>3304.0</ele></trkpt>
      <trkpt lat="46.6934832" lon="8.4523641"><ele>3314.9</ele></trkpt>
      <trkpt lat="46.6940508" lon="8.4520799"><ele>3324.0</ele></trkpt>
      <trkpt lat="46.694922" lon="8.4518644"><ele>3336.4</ele></trkpt>
      <trkpt lat="46.6945803" lon="8.4524702"><ele>3347.6</ele></trkpt>
      <trkpt lat="46.6953827" lon="8.4524608"><ele>3364.2</ele></trkpt>
      <trkpt lat="46.6951855" lon="8.4527251"><ele>3371.2</ele></trkpt>
      <trkpt lat="46.6963552" lon="8.4531818"><ele>3396.1</ele></trkpt>
      <trkpt lat="46.6968993" lon="8.4531071"><ele>3411.9</ele></trkpt>
      <trkpt lat="46.6970033" lon="8.4533421"><ele>3415.3</ele></trkpt>
      <trkpt lat="46.6967139" lon="8.4540219"><ele>3429.4</ele></trkpt>
      <trkpt lat="46.6967594" lon="8.4540971"><ele>3432.3</ele></trkpt>
      <trkpt lat="46.6973717" lon="8.454139"><ele>3442.6</ele></trkpt>
      <trkpt lat="46.6979158" lon="8.4539552"><ele>3453.7</ele></trkpt>
      <trkpt lat="46.6981615" lon="8.4544136"><ele>3467.2</ele></trkpt>
      <trkpt lat="46.6981894" lon="8.454323"><ele>3473.1</ele></trkpt>
      <trkpt lat="46.6984428" lon="8.4545386"><ele>3473.4</ele></trkpt>
      <trkpt lat="46.6987744" lon="8.4545457"><ele>3482.7</ele></trkpt>
      <trkpt lat="46.6986919" lon="8.4548054"><ele>3488.0</ele></trkpt>
      <trkpt lat="46.6989598" lon="8.4550263"><ele>3501.5</ele></trkpt>
      <trkpt lat="46.6989534" lon="8.4551215"><ele>3504.5</ele></trkpt>
      <trkpt lat="46.6986311" lon="8.4545903"><ele>3484.4</ele></trkpt>
      <trkpt lat="46.6976354" lon="8.4540369"><ele>3451.1</ele></trkpt>
      <trkpt lat="46.6969203" lon="8.4533503"><ele>3418.6</ele></trkpt>
      <trkpt lat="46.6965112" lon="8.4531089"><ele>3398.7</ele></trkpt>
      <trkpt lat="46.6963546" lon="8.4528493"><ele>3386.4</ele></trkpt>
      <trkpt lat="46.696288" lon="8.4524366"><ele>3370.9</ele></trkpt>
      <trkpt lat="46.6965524" lon="8.4521122"><ele>3361.9</ele></trkpt>
      <trkpt lat="46.6964634" lon="8.4518208"><ele>3349.3</ele></trkpt>
      <trkpt lat="46.6965483" lon="8.4510901"><ele>3320.5</ele></trkpt>
      <trkpt lat="46.6964723" lon="8.4507002"><ele>3301.1</ele></trkpt>
      <trkpt lat="46.6966244" lon="8.4506756"><ele>3297.0</ele></trkpt>
      <trkpt lat="46.6961615" lon="8.450292"><ele>3284.2</ele></trkpt>
      <trkpt lat="46.6960833" lon="8.4499851"><ele>3271.4</ele></trkpt>
      <trkpt lat="46.6963011" lon="8.4489189"><ele>3235.8</ele></trkpt>
      <trkpt lat="46.6957207" lon="8.4458919"><ele>3152.8</ele></trkpt>
      <trkpt lat="46.6962463" lon="8.443471"><ele>3122.6</ele></trkpt>
      <trkpt lat="46.69655" lon="8.440446"><ele>3054.3</ele></trkpt>
      <trkpt lat="46.6965674" lon="8.4399883"><ele>3038.1</ele></trkpt>
      <trkpt lat="46.696217" lon="8.4380293"><ele>2987.4</ele></trkpt>
      <trkpt lat="46.6963653" lon="8.4374709"><ele>2969.6</ele></trkpt>
      <trkpt lat="46.6963158" lon="8.4370603"><ele>2965.7</ele></trkpt>
      <trkpt lat="46.6965121" lon="8.4365979"><ele>2950.6</ele></trkpt>
      <trkpt lat="46.6967251" lon="8.4364678"><ele>2935.5</ele></trkpt>
      <trkpt lat="46.6968213" lon="8.4354477"><ele>2919.8</ele></trkpt>
      <trkpt lat="46.6969975" lon="8.4350109"><ele>2911.7</ele></trkpt>
      <trkpt lat="46.6981558" lon="8.4349095"><ele>2844.7</ele></trkpt>
      <trkpt lat="46.6981462" lon="8.4348114"><ele>2850.7</ele></trkpt>
      <trkpt lat="46.6984604" lon="8.4359387"><ele>2821.0</ele></trkpt>
      <trkpt lat="46.6992899" lon="8.43637"><ele>2765.8</ele></trkpt>
      <trkpt lat="46.6996625" lon="8.4370312"><ele>2741.5</ele></trkpt>
      <trkpt lat="46.700099" lon="8.4370809"><ele>2711.4</ele></trkpt>
      <trkpt lat="46.7004838" lon="8.4373874"><ele>2694.5</ele></trkpt>
      <trkpt lat="46.700548" lon="8.4376376"><ele>2688.8</ele></trkpt>
      <trkpt lat="46.7008327" lon="8.4377243"><ele>2668.9</ele></trkpt>
      <trkpt lat="46.7008376" lon="8.4383238"><ele>2631.9</ele></trkpt>
      <trkpt lat="46.7010971" lon="8.439224"><ele>2594.0</ele></trkpt>
      <trkpt lat="46.7027747" lon="8.438991"><ele>2556.9</ele></trkpt>
      <trkpt lat="46.7030708" lon="8.4391573"><ele>2554.7</ele></trkpt>
      <trkpt lat="46.7032711" lon="8.4394101"><ele>2552.2</ele></trkpt>
      <trkpt lat="46.703605" lon="8.4403968"><ele>2543.9</ele></trkpt>
      <trkpt lat="46.7035387" lon="8.4412427"><ele>2531.9</ele></trkpt>
      <trkpt lat="46.7039266" lon="8.4414465"><ele>2504.0</ele></trkpt>
      <trkpt lat="46.7040312" lon="8.4416163"><ele>2496.1</ele></trkpt>
      <trkpt lat="46.7041507" lon="8.4415689"><ele>2486.8</ele></trkpt>
      <trkpt lat="46.704084" lon="8.441006"><ele>2484.7</ele></trkpt>
      <trkpt lat="46.7046115" lon="8.4412661"><ele>2454.8</ele></trkpt>
      <trkpt lat="46.7044803" lon="8.4409088"><ele>2442.7</ele></trkpt>
      <trkpt lat="46.7045551" lon="8.4404975"><ele>2438.7</ele></trkpt>
      <trkpt lat="46.7049181" lon="8.4405353"><ele>2410.4</ele></trkpt>
      <trkpt lat="46.7060124" lon="8.4400235"><ele>2365.5</ele></trkpt>
      <trkpt lat="46.7062598" lon="8.4401466"><ele>2346.2</ele></trkpt>
      <trkpt lat="46.7070358" lon="8.4396746"><ele>2315.6</ele></trkpt>
      <trkpt lat="46.7070499" lon="8.4397741"><ele>2311.5</ele></trkpt>
      <trkpt lat="46.7081034" lon="8.4398606"><ele>2293.5</ele></trkpt>
      <trkpt lat="46.708449" lon="8.4396466"><ele>2284.4</ele></trkpt>
      <trkpt lat="46.7086306" lon="8.4392846"><ele>2276.5</ele></trkpt>
      <trkpt lat="46.7085923" lon="8.4387685"><ele>2267.1</ele></trkpt>
      <trkpt lat="46.7091438" lon="8.4382032"><ele>2242.4</ele></trkpt>
      <trkpt lat="46.7094189" lon="8.4373891"><ele>2229.5</ele></trkpt>
      <trkpt lat="46.7094739" lon="8.4369044"><ele>2228.7</ele></trkpt>
      <trkpt lat="46.7103979" lon="8.4364404"><ele>2207.9</ele></trkpt>
      <trkpt lat="46.7112842" lon="8.4356592"><ele>2190.4</ele></trkpt>
      <trkpt lat="46.7120496" lon="8.4353922"><ele>2174.2</ele></trkpt>
      <trkpt lat="46.7128121" lon="8.434812"><ele>2165.4</ele></trkpt>
      <trkpt lat="46.7137616" lon="8.4333889"><ele>2161.4</ele></trkpt>
      <trkpt lat="46.7139924" lon="8.4333669"><ele>2162.4</ele></trkpt>
      <trkpt lat="46.7140955" lon="8.4330566"><ele>2159.9</ele></trkpt>
      <trkpt lat="46.7140644" lon="8.4321347"><ele>2162.5</ele></trkpt>
      <trkpt lat="46.7143609" lon="8.4313695"><ele>2150.0</ele></trkpt>
      <trkpt lat="46.7148071" lon="8.4309149"><ele>2144.7</ele></trkpt>
      <trkpt lat="46.714924" lon="8.4302248"><ele>2126.8</ele></trkpt>
      <trkpt lat="46.7153906" lon="8.429687"><ele>2111.6</ele></trkpt>
      <trkpt lat="46.7153569" lon="8.4292488"><ele>2105.8</ele></trkpt>
      <trkpt lat="46.7155291" lon="8.429074"><ele>2098.0</ele></trkpt>
      <trkpt lat="46.715885" lon="8.4291305"><ele>2091.0</ele></trkpt>
      <trkpt lat="46.7161653" lon="8.4289023"><ele>2085.2</ele></trkpt>
      <trkpt lat="46.7164719" lon="8.4284922"><ele>2076.9</ele></trkpt>
      <trkpt lat="46.7178292" lon="8.4272597"><ele>2050.9</ele></trkpt>
      <trkpt lat="46.7181253" lon="8.4268857"><ele>2048.7</ele></trkpt>
      <trkpt lat="46.7182826" lon="8.4264267"><ele>2047.1</ele></trkpt>
      <trkpt lat="46.7187033" lon="8.426006"><ele>2041.8</ele></trkpt>
      <trkpt lat="46.7198531" lon="8.4260755"><ele>2025.1</ele></trkpt>
      <trkpt lat="46.7203722" lon="8.4263335"><ele>2020.5</ele></trkpt>
      <trkpt lat="46.7206406" lon="8.4267537"><ele>2018.1</ele></trkpt>
      <trkpt lat="46.7209377" lon="8.4268503"><ele>2016.7</ele></trkpt>
      <trkpt lat="46.7211361" lon="8.4270693"><ele>2018.9</ele></trkpt>
      <trkpt lat="46.7211176" lon="8.4272233"><ele>2019.1</ele></trkpt>
      <trkpt lat="46.7214441" lon="8.4278378"><ele>2011.6</ele></trkpt>
      <trkpt lat="46.7217279" lon="8.4280398"><ele>2007.5</ele></trkpt>
      <trkpt lat="46.7216548" lon="8.429016"><ele>2000.0</ele></trkpt>
      <trkpt lat="46.7220323" lon="8.4293343"><ele>1991.2</ele></trkpt>
      <trkpt lat="46.7235602" lon="8.4293253"><ele>1966.8</ele></trkpt>
      <trkpt lat="46.7240929" lon="8.4295621"><ele>1959.3</ele></trkpt>
      <trkpt lat="46.724718" lon="8.430219"><ele>1953.2</ele></trkpt>
      <trkpt lat="46.7255616" lon="8.4306729"><ele>1946.5</ele></trkpt>
      <trkpt lat="46.7259868" lon="8.4307293"><ele>1946.3</ele></trkpt>
      <trkpt lat="46.7260825" lon="8.4306022"><ele>1943.0</ele></trkpt>
      <trkpt lat="46.7263004" lon="8.4307172"><ele>1943.6</ele></trkpt>
      <trkpt lat="46.7276787" lon="8.4304772"><ele>1933.6</ele></trkpt>
      <trkpt lat="46.7285574" lon="8.4310776"><ele>1924.0</ele></trkpt>
      <trkpt lat="46.7289956" lon="8.4305186"><ele>1908.9</ele></trkpt>
      <trkpt lat="46.7293077" lon="8.4304221"><ele>1901.8</ele></trkpt>
      <trkpt lat="46.7300223" lon="8.4299196"><ele>1889.0</ele></trkpt>
      <trkpt lat="46.7302564" lon="8.4296018"><ele>1885.6</ele></trkpt>
      <trkpt lat="46.7305061" lon="8.4279996"><ele>1867.8</ele></trkpt>
      <trkpt lat="46.7305068" lon="8.4274316"><ele>1864.1</ele></trkpt>
    </trkseg>
    <trkseg>
      <trkpt lat="46.7308322" lon="8.4275246"><ele>1859.2</ele></trkpt>
      <trkpt lat="46.7305634" lon="8.4276303"><ele>1883.5</ele></trkpt>
      <trkpt lat="46.7309367" lon="8.427755"><ele>1877.8</ele></trkpt>
      <trkpt lat="46.7309268" lon="8.427576"><ele>1878.4</ele></trkpt>
      <trkpt lat="46.7310896" lon="8.4272447"><ele>1875.4</ele></trkpt>
      <trkpt lat="46.7312703" lon="8.4273318"><ele>1868.6</ele></trkpt>
      <trkpt lat="46.7313323" lon="8.4270513"><ele>1870.8</ele></trkpt>
      <trkpt lat="46.7316473" lon="8.4267225"><ele>1876.9</ele></trkpt>
      <trkpt lat="46.73178" lon="8.4268771"><ele>1882.6</ele></trkpt>
      <trkpt lat="46.7318901" lon="8.4267618"><ele>1888.2</ele></trkpt>
      <trkpt lat="46.7319775" lon="8.4270362"><ele>1894.5</ele></trkpt>
      <trkpt lat="46.7319661" lon="8.4274372"><ele>1900.4</ele></trkpt>
      <trkpt lat="46.7320714" lon="8.4273199"><ele>1905.2</ele></trkpt>
      <trkpt lat="46.7320963" lon="8.4276032"><ele>1907.0</ele></trkpt>
      <trkpt lat="46.7321616" lon="8.4275484"><ele>1915.6</ele></trkpt>
      <trkpt lat="46.7321513" lon="8.42826"><ele>1946.9</ele></trkpt>
      <trkpt lat="46.7322879" lon="8.428244"><ele>1950.3</ele></trkpt>
      <trkpt lat="46.7321034" lon="8.4284981"><ele>1953.5</ele></trkpt>
      <trkpt lat="46.7324388" lon="8.4285496"><ele>1962.9</ele></trkpt>
      <trkpt lat="46.7322468" lon="8.4289193"><ele>1973.9</ele></trkpt>
      <trkpt lat="46.7324392" lon="8.4290072"><ele>1981.0</ele></trkpt>
      <trkpt lat="46.7323586" lon="8.4292815"><ele>1987.1</ele></trkpt>
      <trkpt lat="46.7324933" lon="8.4292974"><ele>1990.3</ele></trkpt>
      <trkpt lat="46.7324402" lon="8.4295766"><ele>1998.3</ele></trkpt>
      <trkpt lat="46.7325044" lon="8.4295622"><ele>2000.1</ele></trkpt>
      <trkpt lat="46.7325375" lon="8.4297339"><ele>2006.7</ele></trkpt>
      <trkpt lat="46.7324703" lon="8.430058"><ele>2011.7</ele></trkpt>
      <trkpt lat="46.7325162" lon="8.4309175"><ele>2030.2</ele></trkpt>
      <trkpt lat="46.7327318" lon="8.4319305"><ele>2053.1</ele></trkpt>
      <trkpt lat="46.7328277" lon="8.4321883"><ele>2060.2</ele></trkpt>
      <trkpt lat="46.7335395" lon="8.4329539"><ele>2082.6</ele></trkpt>
      <trkpt lat="46.7338913" lon="8.4332433"><ele>2092.6</ele></trkpt>
      <trkpt lat="46.7340114" lon="8.4330171"><ele>2101.3</ele></trkpt>
      <trkpt lat="46.734201" lon="8.4330125"><ele>2105.0</ele></trkpt>
      <trkpt lat="46.7341692" lon="8.4328195"><ele>2110.1</ele></trkpt>
      <trkpt lat="46.7342314" lon="8.4327765"><ele>2111.7</ele></trkpt>
      <trkpt lat="46.7350016" lon="8.4333553"><ele>2132.8</ele></trkpt>
      <trkpt lat="46.7352098" lon="8.4331891"><ele>2140.1</ele></trkpt>
      <trkpt lat="46.7353685" lon="8.4336039"><ele>2151.8</ele></trkpt>
      <trkpt lat="46.7354884" lon="8.4335079"><ele>2155.3</ele></trkpt>
      <trkpt lat="46.7358607" lon="8.4339144"><ele>2167.7</ele></trkpt>
      <trkpt lat="46.7360719" lon="8.4335283"><ele>2174.0</ele></trkpt>
      <trkpt lat="46.7361944" lon="8.4340824"><ele>2188.1</ele></trkpt>
      <trkpt lat="46.7363807" lon="8.4339654"><ele>2192.0</ele></trkpt>
      <trkpt lat="46.7364533" lon="8.4343378"><ele>2202.3</ele></trkpt>
      <trkpt lat="46.7366985" lon="8.4343341"><ele>2204.8</ele></trkpt>
      <trkpt lat="46.7368167" lon="8.4351895"><ele>2225.2</ele></trkpt>
      <trkpt lat="46.7369861" lon="8.4352512"><ele>2231.6</ele></trkpt>
      <trkpt lat="46.7371443" lon="8.4355574"><ele>2239.3</ele></trkpt>
      <trkpt lat="46.7371165" lon="8.4357251"><ele>2243.8</ele></trkpt>
      <trkpt lat="46.7379844" lon="8.4358386"><ele>2265.4</ele></trkpt>
      <trkpt lat="46.7382662" lon="8.4360886"><ele>2275.3</ele></trkpt>
      <trkpt lat="46.7385279" lon="8.4361078"><ele>2285.5</ele></trkpt>
      <trkpt lat="46.7387205" lon="8.4363675"><ele>2291.5</ele></trkpt>
      <trkpt lat="46.7390722" lon="8.4359277"><ele>2303.5</ele></trkpt>
      <trkpt lat="46.7392058" lon="8.4361348"><ele>2309.8</ele></trkpt>
      <trkpt lat="46.7394375" lon="8.4359818"><ele>2319.3</ele></trkpt>
      <trkpt lat="46.7395556" lon="8.4361583"><ele>2325.3</ele></trkpt>
      <trkpt lat="46.7399283" lon="8.4359393"><ele>2334.2</ele></trkpt>
      <trkpt lat="46.7401456" lon="8.4355663"><ele>2341.0</ele></trkpt>
      <trkpt lat="46.7404882" lon="8.4361923"><ele>2353.3</ele></trkpt>
      <trkpt lat="46.7408284" lon="8.4353564"><ele>2373.7</ele></trkpt>
      <trkpt lat="46.7412201" lon="8.4348157"><ele>2384.9</ele></trkpt>
      <trkpt lat="46.7414723" lon="8.4355982"><ele>2400.7</ele></trkpt>
      <trkpt lat="46.7418118" lon="8.4359136"><ele>2410.6</ele></trkpt>
      <trkpt lat="46.7426661" lon="8.4355461"><ele>2429.5</ele></trkpt>
      <trkpt lat="46.7429437" lon="8.4352766"><ele>2439.3</ele></trkpt>
      <trkpt lat="46.7431804" lon="8.435514"><ele>2448.2</ele></trkpt>
      <trkpt lat="46.743488" lon="8.4352062"><ele>2459.9</ele></trkpt>
      <trkpt lat="46.7436347" lon="8.4355375"><ele>2467.6</ele></trkpt>
      <trkpt lat="46.743815" lon="8.4354098"><ele>2472.8</ele></trkpt>
      <trkpt lat="46.7439311" lon="8.4356271"><ele>2480.9</ele></trkpt>
      <trkpt lat="46.7442292" lon="8.4372252"><ele>2516.3</ele></trkpt>
      <trkpt lat="46.74446" lon="8.4378238"><ele>2530.7</ele></trkpt>
      <trkpt lat="46.7444175" lon="8.4381074"><ele>2537.6</ele></trkpt>
      <trkpt lat="46.7442751" lon="8.4382968"><ele>2540.6</ele></trkpt>
      <trkpt lat="46.7445727" lon="8.4385131"><ele>2555.9</ele></trkpt>
      <trkpt lat="46.7447265" lon="8.4389544"><ele>2561.8</ele></trkpt>
      <trkpt lat="46.745202" lon="8.4390306"><ele>2581.4</ele></trkpt>
      <trkpt lat="46.7454093" lon="8.4392741"><ele>2586.0</ele></trkpt>
      <trkpt lat="46.7454484" lon="8.4395525"><ele>2591.5</ele></trkpt>
      <trkpt lat="46.7457817" lon="8.4394784"><ele>2604.7</ele></trkpt>
      <trkpt lat="46.7459222" lon="8.4392832"><ele>2613.7</ele></trkpt>
      <trkpt lat="46.746144" lon="8.4394759"><ele>2615.1</ele></trkpt>
      <trkpt lat="46.7463524" lon="8.4392709"><ele>2626.1</ele></trkpt>
      <trkpt lat="46.7469693" lon="8.4392959"><ele>2640.0</ele></trkpt>
      <trkpt lat="46.7471727" lon="8.4390462"><ele>2651.2</ele></trkpt>
      <trkpt lat="46.7473729" lon="8.4393205"><ele>2655.8</ele></trkpt>
      <trkpt lat="46.748149" lon="8.4382721"><ele>2692.5</ele></trkpt>
      <trkpt lat="46.7485197" lon="8.4384501"><ele>2701.4</ele></trkpt>
      <trkpt lat="46.7486984" lon="8.4374194"><ele>2724.2</ele></trkpt>
      <trkpt lat="46.7490732" lon="8.4376362"><ele>2731.3</ele></trkpt>
      <trkpt lat="46.7490751" lon="8.4373433"><ele>2740.9</ele></trkpt>
      <trkpt lat="46.7494622" lon="8.437496"><ele>2750.6</ele></trkpt>
      <trkpt lat="46.7493707" lon="8.43674"><ele>2767.8</ele></trkpt>
      <trkpt lat="46.7492649" lon="8.436661"><ele>2771.0</ele></trkpt>
      <trkpt lat="46.7496067" lon="8.4366938"><ele>2775.9</ele></trkpt>
      <trkpt lat="46.7494236" lon="8.4364269"><ele>2786.4</ele></trkpt>
      <trkpt lat="46.7495498" lon="8.4365168"><ele>2793.6</ele></trkpt>
      <trkpt lat="46.7495072" lon="8.4363217"><ele>2793.4</ele></trkpt>
      <trkpt lat="46.7493142" lon="8.4362368"><ele>2801.0</ele></trkpt>
      <trkpt lat="46.7495822" lon="8.4361847"><ele>2802.9</ele></trkpt>
      <trkpt lat="46.7497344" lon="8.4360243"><ele>2807.0</ele></trkpt>
      <trkpt lat="46.7497634" lon="8.4361623"><ele>2824.5</ele></trkpt>
      <trkpt lat="46.7500092" lon="8.4360282"><ele>2848.5</ele></trkpt>
      <trkpt lat="46.7505847" lon="8.4361439"><ele>2866.3</ele></trkpt>
      <trkpt lat="46.7509046" lon="8.4360301"><ele>2875.7</ele></trkpt>
      <trkpt lat="46.7514457" lon="8.4366277"><ele>2892.2</ele></trkpt>
      <trkpt lat="46.7513919" lon="8.436904"><ele>2897.1</ele></trkpt>
      <trkpt lat="46.7515935" lon="8.4372876"><ele>2901.5</ele></trkpt>
      <trkpt lat="46.7527487" lon="8.4380693"><ele>2943.1</ele></trkpt>
      <trkpt lat="46.7529047" lon="8.4376902"><ele>2949.6</ele></trkpt>
      <trkpt lat="46.7527902" lon="8.437038"><ele>2958.6</ele></trkpt>
      <trkpt lat="46.752854" lon="8.4366491"><ele>2973.5</ele></trkpt>
      <trkpt lat="46.7527305" lon="8.436579"><ele>2983.5</ele></trkpt>
      <trkpt lat="46.7528634" lon="8.4367284"><ele>2974.0</ele></trkpt>
      <trkpt lat="46.7527829" lon="8.4369845"><ele>2962.1</ele></trkpt>
      <trkpt lat="46.7531162" lon="8.4377137"><ele>2952.6</ele></trkpt>
      <trkpt lat="46.7535774" lon="8.4382109"><ele>2938.2</ele></trkpt>
      <trkpt lat="46.7536752" lon="8.4388548"><ele>2935.4</ele></trkpt>
      <trkpt lat="46.7539373" lon="8.4387568"><ele>2928.9</ele></trkpt>
      <trkpt lat="46.7546584" lon="8.4390745"><ele>2905.7</ele></trkpt>
      <trkpt lat="46.7548796" lon="8.4395202"><ele>2894.8</ele></trkpt>
      <trkpt lat="46.7550618" lon="8.4396468"><ele>2890.3</ele></trkpt>
      <trkpt lat="46.7551903" lon="8.4401245"><ele>2879.2</ele></trkpt>
      <trkpt lat="46.755176" lon="8.4405592"><ele>2872.7</ele></trkpt>
      <trkpt lat="46.7550276" lon="8.4408779"><ele>2869.6</ele></trkpt>
      <trkpt lat="46.7550242" lon="8.4411004"><ele>2857.9</ele></trkpt>
      <trkpt lat="46.755233" lon="8.4418114"><ele>2813.8</ele></trkpt>
      <trkpt lat="46.7553727" lon="8.4419936"><ele>2796.0</ele></trkpt>
      <trkpt lat="46.7556723" lon="8.4418336"><ele>2779.7</ele></trkpt>
      <trkpt lat="46.7560472" lon="8.4420297"><ele>2730.6</ele></trkpt>
      <trkpt lat="46.7562019" lon="8.4416013"><ele>2718.6</ele></trkpt>
      <trkpt lat="46.7565343" lon="8.4415535"><ele>2687.9</ele></trkpt>
      <trkpt lat="46.7567582" lon="8.4427642"><ele>2667.8</ele></trkpt>
      <trkpt lat="46.7568397" lon="8.4429394"><ele>2664.5</ele></trkpt>
      <trkpt lat="46.7568327" lon="8.4428251"><ele>2665.4</ele></trkpt>
      <trkpt lat="46.7570671" lon="8.4429948"><ele>2650.2</ele></trkpt>
      <trkpt lat="46.7575303" lon="8.4426395"><ele>2610.6</ele></trkpt>
      <trkpt lat="46.7584665" lon="8.4422843"><ele>2557.9</ele></trkpt>
      <trkpt lat="46.7601704" lon="8.4422177"><ele>2536.7</ele></trkpt>
      <trkpt lat="46.7602688" lon="8.4421409"><ele>2536.8</ele></trkpt>
      <trkpt lat="46.7599546" lon="8.4419343"><ele>2522.8</ele></trkpt>
      <trkpt lat="46.7600805" lon="8.4411009"><ele>2500.6</ele></trkpt>
      <trkpt lat="46.7605511" lon="8.4403597"><ele>2471.1</ele></trkpt>
      <trkpt lat="46.7618827" lon="8.4398791"><ele>2427.4</ele></trkpt>
      <trkpt lat="46.7630978" lon="8.4389208"><ele>2418.3</ele></trkpt>
      <trkpt lat="46.76614" lon="8.4420299"><ele>2480.6</ele></trkpt>
      <trkpt lat="46.7668689" lon="8.4425421"><ele>2486.7</ele></trkpt>
      <trkpt lat="46.7680522" lon="8.4436904"><ele>2513.4</ele></trkpt>
      <trkpt lat="46.7682396" lon="8.4441064"><ele>2522.7</ele></trkpt>
      <trkpt lat="46.7681769" lon="8.4445568"><ele>2535.3</ele></trkpt>
      <trkpt lat="46.7690609" lon="8.4452366"><ele>2562.4</ele></trkpt>
      <trkpt lat="46.7690617" lon="8.445431"><ele>2565.6</ele></trkpt>
      <trkpt lat="46.7694058" lon="8.4457197"><ele>2580.8</ele></trkpt>
      <trkpt lat="46.7692519" lon="8.4462537"><ele>2589.0</ele></trkpt>
      <trkpt lat="46.7693883" lon="8.446411"><ele>2595.9</ele></trkpt>
      <trkpt lat="46.7697789" lon="8.4463049"><ele>2609.6</ele></trkpt>
      <trkpt lat="46.7697225" lon="8.4465887"><ele>2614.4</ele></trkpt>
      <trkpt lat="46.770085" lon="8.4463388"><ele>2633.6</ele></trkpt>
      <trkpt lat="46.7702192" lon="8.446117"><ele>2641.5</ele></trkpt>
      <trkpt lat="46.7702777" lon="8.4461648"><ele>2645.3</ele></trkpt>
      <trkpt lat="46.7701644" lon="8.4466741"><ele>2650.7</ele></trkpt>
      <trkpt lat="46.7701724" lon="8.4467711"><ele>2653.5</ele></trkpt>
      <trkpt lat="46.7702912" lon="8.4466836"><ele>2655.3</ele></trkpt>
      <trkpt lat="46.7702535" lon="8.446784"><ele>2654.0</ele></trkpt>
      <trkpt lat="46.7702025" lon="8.4466063"><ele>2654.8</ele></trkpt>
      <trkpt lat="46.7703199" lon="8.4472028"><ele>2638.9</ele></trkpt>
      <trkpt lat="46.7701578" lon="8.4481763"><ele>2622.5</ele></trkpt>
      <trkpt lat="46.7702506" lon="8.448101"><ele>2601.6</ele></trkpt>
      <trkpt lat="46.7703647" lon="8.448497"><ele>2583.4</ele></trkpt>
      <trkpt lat="46.7702338" lon="8.4489781"><ele>2575.4</ele></trkpt>
      <trkpt lat="46.7703834" lon="8.4493083"><ele>2567.7</ele></trkpt>
      <trkpt lat="46.7711575" lon="8.4502934"><ele>2540.5</ele></trkpt>
      <trkpt lat="46.7714235" lon="8.4504465"><ele>2528.6</ele></trkpt>
      <trkpt lat="46.7720798" lon="8.4511906"><ele>2480.5</ele></trkpt>
      <trkpt lat="46.773057" lon="8.4514264"><ele>2411.2</ele></trkpt>
      <trkpt lat="46.7737944" lon="8.4518497"><ele>2374.8</ele></trkpt>
      <trkpt lat="46.774298" lon="8.4525565"><ele>2343.1</ele></trkpt>
      <trkpt lat="46.7740244" lon="8.4536644"><ele>2321.2</ele></trkpt>
      <trkpt lat="46.7742009" lon="8.4539735"><ele>2307.3</ele></trkpt>
      <trkpt lat="46.7753321" lon="8.454685"><ele>2231.3</ele></trkpt>
      <trkpt lat="46.776016" lon="8.4555716"><ele>2208.0</ele></trkpt>
      <trkpt lat="46.7760838" lon="8.4566117"><ele>2214.2</ele></trkpt>
      <trkpt lat="46.7757442" lon="8.4568983"><ele>2222.6</ele></trkpt>
      <trkpt lat="46.776004" lon="8.4571339"><ele>2230.4</ele></trkpt>
      <trkpt lat="46.7757793" lon="8.4573397"><ele>2233.4</ele></trkpt>
      <trkpt lat="46.7759901" lon="8.4575683"><ele>2245.3</ele></trkpt>
      <trkpt lat="46.7764134" lon="8.4584697"><ele>2260.8</ele></trkpt>
      <trkpt lat="46.7760418" lon="8.4583319"><ele>2265.2</ele></trkpt>
      <trkpt lat="46.7763919" lon="8.4588733"><ele>2282.1</ele></trkpt>
      <trkpt lat="46.7763872" lon="8.4589734"><ele>2283.5</ele></trkpt>
      <trkpt lat="46.7761867" lon="8.4589602"><ele>2287.4</ele></trkpt>
      <trkpt lat="46.7762666" lon="8.4591111"><ele>2294.7</ele></trkpt>
      <trkpt lat="46.7761305" lon="8.4591122"><ele>2298.5</ele></trkpt>
      <trkpt lat="46.7761894" lon="8.4592881"><ele>2303.4</ele></trkpt>
      <trkpt lat="46.7760632" lon="8.4593094"><ele>2305.5</ele></trkpt>
      <trkpt lat="46.7761299" lon="8.4594804"><ele>2312.9</ele></trkpt>
      <trkpt lat="46.7759983" lon="8.4595265"><ele>2316.0</ele></trkpt>
      <trkpt lat="46.7763096" lon="8.4602719"><ele>2327.5</ele></trkpt>
      <trkpt lat="46.7761173" lon="8.460239"><ele>2333.6</ele></trkpt>
      <trkpt lat="46.7761397" lon="8.4603311"><ele>2336.9</ele></trkpt>
      <trkpt lat="46.776294" lon="8.4605172"><ele>2339.6</ele></trkpt>
      <trkpt lat="46.7759867" lon="8.4605293"><ele>2344.8</ele></trkpt>
      <trkpt lat="46.7761018" lon="8.4607412"><ele>2354.1</ele></trkpt>
      <trkpt lat="46.7760385" lon="8.4607748"><ele>2353.4</ele></trkpt>
      <trkpt lat="46.775851" lon="8.4606665"><ele>2354.3</ele></trkpt>
      <trkpt lat="46.7760298" lon="8.4610453"><ele>2368.0</ele></trkpt>
      <trkpt lat="46.7758297" lon="8.4610541"><ele>2370.2</ele></trkpt>
      <trkpt lat="46.7756571" lon="8.4608908"><ele>2372.6</ele></trkpt>
      <trkpt lat="46.7752918" lon="8.4614308"><ele>2384.8</ele></trkpt>
      <trkpt lat="46.7760256" lon="8.4618679"><ele>2403.4</ele></trkpt>
      <trkpt lat="46.7753169" lon="8.4620832"><ele>2418.6</ele></trkpt>
      <trkpt lat="46.7756141" lon="8.462301"><ele>2433.0</ele></trkpt>
      <trkpt lat="46.7753058" lon="8.4623686"><ele>2434.2</ele></trkpt>
      <trkpt lat="46.7756025" lon="8.4625739"><ele>2448.0</ele></trkpt>
      <trkpt lat="46.7754283" lon="8.4626878"><ele>2447.5</ele></trkpt>
      <trkpt lat="46.7756291" lon="8.4627189"><ele>2458.6</ele></trkpt>
      <trkpt lat="46.7755333" lon="8.4628421"><ele>2457.3</ele></trkpt>
      <trkpt lat="46.7756642" lon="8.4628375"><ele>2463.5</ele></trkpt>
      <trkpt lat="46.7756732" lon="8.462933"><ele>2467.7</ele></trkpt>
      <trkpt lat="46.7755502" lon="8.4629999"><ele>2469.3</ele></trkpt>
      <trkpt lat="46.7756816" lon="8.4629898"><ele>2473.0</ele></trkpt>
      <trkpt lat="46.7757599" lon="8.4631732"><ele>2482.0</ele></trkpt>
      <trkpt lat="46.775699" lon="8.4632131"><ele>2481.2</ele></trkpt>
      <trkpt lat="46.7760023" lon="8.4630731"><ele>2497.2</ele></trkpt>
      <trkpt lat="46.7758292" lon="8.4635861"><ele>2502.0</ele></trkpt>
      <trkpt lat="46.7760216" lon="8.4635414"><ele>2507.8</ele></trkpt>
      <trkpt lat="46.7759594" lon="8.4637199"><ele>2511.1</ele></trkpt>
      <trkpt lat="46.7755994" lon="8.4641555"><ele>2517.9</ele></trkpt>
      <trkpt lat="46.7754407" lon="8.4636177"><ele>2526.9</ele></trkpt>
      <trkpt lat="46.7753036" lon="8.4636189"><ele>2529.1</ele></trkpt>
      <trkpt lat="46.775159" lon="8.4641499"><ele>2538.4</ele></trkpt>
      <trkpt lat="46.7748437" lon="8.4639794"><ele>2544.2</ele></trkpt>
      <trkpt lat="46.7743634" lon="8.4634635"><ele>2556.9</ele></trkpt>
      <trkpt lat="46.7741688" lon="8.4643897"><ele>2572.7</ele></trkpt>
      <trkpt lat="46.7737879" lon="8.463355"><ele>2591.2</ele></trkpt>
      <trkpt lat="46.773722" lon="8.4640307"><ele>2600.6</ele></trkpt>
      <trkpt lat="46.7736237" lon="8.464294"><ele>2604.3</ele></trkpt>
      <trkpt lat="46.7735637" lon="8.4642545"><ele>2608.0</ele></trkpt>
      <trkpt lat="46.7733465" lon="8.4634324"><ele>2618.8</ele></trkpt>
      <trkpt lat="46.7725872" lon="8.4619108"><ele>2649.4</ele></trkpt>
      <trkpt lat="46.7722486" lon="8.4624988"><ele>2663.3</ele></trkpt>
      <trkpt lat="46.7720319" lon="8.4631076"><ele>2674.3</ele></trkpt>
      <trkpt lat="46.7719676" lon="8.4630886"><ele>2677.7</ele></trkpt>
      <trkpt lat="46.771227" lon="8.4611926"><ele>2715.8</ele></trkpt>
      <trkpt lat="46.7707945" lon="8.4619491"><ele>2728.9</ele></trkpt>
      <trkpt lat="46.7704313" lon="8.4629048"><ele>2742.1</ele></trkpt>
      <trkpt lat="46.7700266" lon="8.4623582"><ele>2755.7</ele></trkpt>
      <trkpt lat="46.769666" lon="8.4620851"><ele>2764.9</ele></trkpt>
      <trkpt lat="46.7693245" lon="8.4631742"><ele>2781.3</ele></trkpt>
      <trkpt lat="46.7692105" lon="8.463273"><ele>2783.9</ele></trkpt>
      <trkpt lat="46.7688864" lon="8.4632138"><ele>2792.3</ele></trkpt>
      <trkpt lat="46.7686896" lon="8.4634597"><ele>2792.1</ele></trkpt>
      <trkpt lat="46.768713" lon="8.4639461"><ele>2780.9</ele></trkpt>
      <trkpt lat="46.7681052" lon="8.4633397"><ele>2768.5</ele></trkpt>
      <trkpt lat="46.7678096" lon="8.4632122"><ele>2761.7</ele></trkpt>
      <trkpt lat="46.767661" lon="8.4633856"><ele>2752.3</ele></trkpt>
      <trkpt lat="46.7674886" lon="8.4636843"><ele>2722.9</ele></trkpt>
      <trkpt lat="46.7678068" lon="8.4650287"><ele>2702.5</ele></trkpt>
      <trkpt lat="46.7675484" lon="8.4655755"><ele>2689.2</ele></trkpt>
      <trkpt lat="46.7672418" lon="8.4657342"><ele>2677.7</ele></trkpt>
      <trkpt lat="46.7653127" lon="8.4681865"><ele>2647.4</ele></trkpt>
      <trkpt lat="46.7628806" lon="8.4659575"><ele>2548.3</ele></trkpt>
      <trkpt lat="46.7625594" lon="8.4658288"><ele>2540.1</ele></trkpt>
      <trkpt lat="46.7618004" lon="8.466105"><ele>2516.0</ele></trkpt>
      <trkpt lat="46.761422" lon="8.4673131"><ele>2499.6</ele></trkpt>
      <trkpt lat="46.7607814" lon="8.4683684"><ele>2501.0</ele></trkpt>
      <trkpt lat="46.7608383" lon="8.4684402"><ele>2496.8</ele></trkpt>
      <trkpt lat="46.7607617" lon="8.4687126"><ele>2495.2</ele></trkpt>
      <trkpt lat="46.7605468" lon="8.4688072"><ele>2493.0</ele></trkpt>
      <trkpt lat="46.759883" lon="8.4686575"><ele>2490.9</ele></trkpt>
      <trkpt lat="46.7589945" lon="8.469149"><ele>2479.4</ele></trkpt>
      <trkpt lat="46.7581327" lon="8.4692919"><ele>2458.5</ele></trkpt>
      <trkpt lat="46.7577349" lon="8.4696637"><ele>2451.2</ele></trkpt>
      <trkpt lat="46.7573865" lon="8.4697759"><ele>2437.6</ele></trkpt>
      <trkpt lat="46.7559137" lon="8.4712088"><ele>2417.5</ele></trkpt>
      <trkpt lat="46.755652" lon="8.4714002"><ele>2412.1</ele></trkpt>
      <trkpt lat="46.7550819" lon="8.4715382"><ele>2391.6</ele></trkpt>
      <trkpt lat="46.7546666" lon="8.4723143"><ele>2380.3</ele></trkpt>
      <trkpt lat="46.7545015" lon="8.4717282"><ele>2373.1</ele></trkpt>
      <trkpt lat="46.7542147" lon="8.4718427"><ele>2356.7</ele></trkpt>
      <trkpt lat="46.7539408" lon="8.4715669"><ele>2342.3</ele></trkpt>
      <trkpt lat="46.7537422" lon="8.472078"><ele>2331.0</ele></trkpt>
      <trkpt lat="46.7534717" lon="8.4723793"><ele>2313.9</ele></trkpt>
      <trkpt lat="46.7533032" lon="8.472044"><ele>2305.8</ele></trkpt>
      <trkpt lat="46.7529114" lon="8.4719025"><ele>2278.6</ele></trkpt>
      <trkpt lat="46.7525971" lon="8.4711891"><ele>2276.6</ele></trkpt>
      <trkpt lat="46.7515967" lon="8.4708357"><ele>2259.0</ele></trkpt>
      <trkpt lat="46.7517014" lon="8.4710011"><ele>2270.4</ele></trkpt>
      <trkpt lat="46.7516929" lon="8.4709068"><ele>2260.0</ele></trkpt>
    </trkseg>
    <trkseg>
      <trkpt lat="46.7517186" lon="8.4709209"><ele>2259.4</ele></trkpt>
      <trkpt lat="46.7521234" lon="8.4709623"><ele>2268.0</ele></trkpt>
      <trkpt lat="46.752296" lon="8.4711292"><ele>2269.1</ele></trkpt>
      <trkpt lat="46.7526307" lon="8.471205"><ele>2275.6</ele></trkpt>
      <trkpt lat="46.7526379" lon="8.471305"><ele>2276.1</ele></trkpt>
      <trkpt lat="46.7529873" lon="8.47132"><ele>2281.0</ele></trkpt>
      <trkpt lat="46.7534872" lon="8.470868"><ele>2300.7</ele></trkpt>
      <trkpt lat="46.753601" lon="8.471226"><ele>2311.4</ele></trkpt>
      <trkpt lat="46.7538585" lon="8.4709128"><ele>2325.3</ele></trkpt>
      <trkpt lat="46.7540581" lon="8.4708883"><ele>2331.5</ele></trkpt>
      <trkpt lat="46.7540803" lon="8.4716531"><ele>2347.2</ele></trkpt>
      <trkpt lat="46.7541426" lon="8.4718272"><ele>2350.6</ele></trkpt>
      <trkpt lat="46.7543149" lon="8.4717112"><ele>2359.7</ele></trkpt>
      <trkpt lat="46.7544652" lon="8.4720421"><ele>2366.6</ele></trkpt>
      <trkpt lat="46.7552253" lon="8.4712938"><ele>2390.7</ele></trkpt>
      <trkpt lat="46.7568375" lon="8.4702705"><ele>2425.1</ele></trkpt>
      <trkpt lat="46.7580276" lon="8.4693165"><ele>2454.3</ele></trkpt>
      <trkpt lat="46.758695" lon="8.4692174"><ele>2469.9</ele></trkpt>
      <trkpt lat="46.7595841" lon="8.4687808"><ele>2491.7</ele></trkpt>
      <trkpt lat="46.7598586" lon="8.4688112"><ele>2493.2</ele></trkpt>
      <trkpt lat="46.7600484" lon="8.4690517"><ele>2500.3</ele></trkpt>
      <trkpt lat="46.7607914" lon="8.469041"><ele>2510.6</ele></trkpt>
      <trkpt lat="46.760948" lon="8.4688372"><ele>2513.3</ele></trkpt>
      <trkpt lat="46.7609998" lon="8.4685519"><ele>2518.1</ele></trkpt>
      <trkpt lat="46.7618975" lon="8.4677209"><ele>2535.0</ele></trkpt>
      <trkpt lat="46.7618831" lon="8.4679149"><ele>2536.6</ele></trkpt>
      <trkpt lat="46.762567" lon="8.4671689"><ele>2562.3</ele></trkpt>
      <trkpt lat="46.7632725" lon="8.4674511"><ele>2565.6</ele></trkpt>
      <trkpt lat="46.7633235" lon="8.4676765"><ele>2570.0</ele></trkpt>
      <trkpt lat="46.7635662" lon="8.4673675"><ele>2577.2</ele></trkpt>
      <trkpt lat="46.764021" lon="8.4674605"><ele>2586.8</ele></trkpt>
      <trkpt lat="46.7643013" lon="8.467206"><ele>2589.6</ele></trkpt>
      <trkpt lat="46.764349" lon="8.4674783"><ele>2591.7</ele></trkpt>
      <trkpt lat="46.7642885" lon="8.4676457"><ele>2595.6</ele></trkpt>
      <trkpt lat="46.7644943" lon="8.4676541"><ele>2602.6</ele></trkpt>
      <trkpt lat="46.7649531" lon="8.4668179"><ele>2620.3</ele></trkpt>
      <trkpt lat="46.7651948" lon="8.4666498"><ele>2625.0</ele></trkpt>
      <trkpt lat="46.7654231" lon="8.4673799"><ele>2635.6</ele></trkpt>
      <trkpt lat="46.765521" lon="8.468069"><ele>2643.6</ele></trkpt>
      <trkpt lat="46.7659525" lon="8.4676076"><ele>2658.2</ele></trkpt>
      <trkpt lat="46.7659933" lon="8.4682031"><ele>2664.8</ele></trkpt>
      <trkpt lat="46.7659249" lon="8.4686998"><ele>2669.7</ele></trkpt>
      <trkpt lat="46.7666616" lon="8.4686378"><ele>2688.6</ele></trkpt>
      <trkpt lat="46.766545" lon="8.4690973"><ele>2693.1</ele></trkpt>
      <trkpt lat="46.7663312" lon="8.469479"><ele>2698.0</ele></trkpt>
      <trkpt lat="46.7659068" lon="8.4697088"><ele>2709.6</ele></trkpt>
      <trkpt lat="46.7659171" lon="8.4698042"><ele>2709.4</ele></trkpt>
      <trkpt lat="46.7661747" lon="8.4698976"><ele>2717.0</ele></trkpt>
      <trkpt lat="46.7657921" lon="8.470784"><ele>2731.4</ele></trkpt>
      <trkpt lat="46.7663742" lon="8.4705267"><ele>2747.0</ele></trkpt>
      <trkpt lat="46.7659881" lon="8.4712182"><ele>2755.6</ele></trkpt>
      <trkpt lat="46.7665685" lon="8.4709117"><ele>2772.5</ele></trkpt>
      <trkpt lat="46.7662882" lon="8.4714786"><ele>2770.2</ele></trkpt>
      <trkpt lat="46.7666724" lon="8.4712932"><ele>2781.9</ele></trkpt>
      <trkpt lat="46.7663446" lon="8.4717821"><ele>2784.2</ele></trkpt>
      <trkpt lat="46.7666735" lon="8.4716769"><ele>2800.2</ele></trkpt>
      <trkpt lat="46.7664536" lon="8.4720283"><ele>2801.9</ele></trkpt>
      <trkpt lat="46.766716" lon="8.4719336"><ele>2811.5</ele></trkpt>
      <trkpt lat="46.7665238" lon="8.4721823"><ele>2819.8</ele></trkpt>
      <trkpt lat="46.7667218" lon="8.4721286"><ele>2829.7</ele></trkpt>
      <trkpt lat="46.7668209" lon="8.4725479"><ele>2857.3</ele></trkpt>
      <trkpt lat="46.766785" lon="8.4728169"><ele>2837.9</ele></trkpt>
      <trkpt lat="46.7667136" lon="8.4727785"><ele>2834.4</ele></trkpt>
      <trkpt lat="46.7658769" lon="8.4736221"><ele>2798.7</ele></trkpt>
      <trkpt lat="46.7660322" lon="8.4735968"><ele>2797.2</ele></trkpt>
      <trkpt lat="46.7658792" lon="8.47392"><ele>2774.8</ele></trkpt>
      <trkpt lat="46.7659182" lon="8.474254"><ele>2750.7</ele></trkpt>
      <trkpt lat="46.7656992" lon="8.4748519"><ele>2714.9</ele></trkpt>
      <trkpt lat="46.7652618" lon="8.4750844"><ele>2695.3</ele></trkpt>
      <trkpt lat="46.7647646" lon="8.4764338"><ele>2653.0</ele></trkpt>
      <trkpt lat="46.7645763" lon="8.4765214"><ele>2650.2</ele></trkpt>
      <trkpt lat="46.764417" lon="8.4773846"><ele>2626.7</ele></trkpt>
      <trkpt lat="46.7640721" lon="8.4781554"><ele>2602.5</ele></trkpt>
      <trkpt lat="46.7639607" lon="8.4786315"><ele>2585.9</ele></trkpt>
      <trkpt lat="46.7637322" lon="8.4803189"><ele>2542.9</ele></trkpt>
      <trkpt lat="46.7632767" lon="8.4814449"><ele>2512.8</ele></trkpt>
      <trkpt lat="46.7628737" lon="8.482149"><ele>2488.8</ele></trkpt>
      <trkpt lat="46.7626381" lon="8.4824048"><ele>2477.9</ele></trkpt>
      <trkpt lat="46.7622618" lon="8.4821649"><ele>2465.6</ele></trkpt>
      <trkpt lat="46.7617892" lon="8.4827748"><ele>2434.9</ele></trkpt>
      <trkpt lat="46.7616246" lon="8.4828386"><ele>2432.6</ele></trkpt>
      <trkpt lat="46.7615936" lon="8.4831422"><ele>2422.4</ele></trkpt>
      <trkpt lat="46.761406" lon="8.483377"><ele>2416.2</ele></trkpt>
      <trkpt lat="46.7608131" lon="8.4833867"><ele>2406.0</ele></trkpt>
      <trkpt lat="46.7608805" lon="8.4836476"><ele>2397.0</ele></trkpt>
      <trkpt lat="46.7605765" lon="8.4840191"><ele>2363.7</ele></trkpt>
      <trkpt lat="46.7597736" lon="8.4841394"><ele>2318.6</ele></trkpt>
      <trkpt lat="46.7593866" lon="8.4839744"><ele>2300.8</ele></trkpt>
      <trkpt lat="46.7590509" lon="8.4839903"><ele>2289.4</ele></trkpt>
      <trkpt lat="46.7588072" lon="8.484234"><ele>2281.3</ele></trkpt>
      <trkpt lat="46.7584318" lon="8.4843444"><ele>2273.6</ele></trkpt>
      <trkpt lat="46.757771" lon="8.4850807"><ele>2249.9</ele></trkpt>
      <trkpt lat="46.7577765" lon="8.4859491"><ele>2239.6</ele></trkpt>
      <trkpt lat="46.7575142" lon="8.4864817"><ele>2232.3</ele></trkpt>
      <trkpt lat="46.7573436" lon="8.487555"><ele>2217.5</ele></trkpt>
      <trkpt lat="46.7571805" lon="8.4877752"><ele>2206.8</ele></trkpt>
      <trkpt lat="46.7572044" lon="8.488106"><ele>2204.8</ele></trkpt>
      <trkpt lat="46.7575611" lon="8.4889032"><ele>2195.3</ele></trkpt>
      <trkpt lat="46.7575778" lon="8.4893832"><ele>2181.5</ele></trkpt>
      <trkpt lat="46.7573019" lon="8.4903385"><ele>2147.1</ele></trkpt>
      <trkpt lat="46.7573073" lon="8.4914636"><ele>2125.8</ele></trkpt>
      <trkpt lat="46.7578206" lon="8.4936607"><ele>2082.2</ele></trkpt>
      <trkpt lat="46.7577363" lon="8.4950215"><ele>2030.0</ele></trkpt>
      <trkpt lat="46.757841" lon="8.4956699"><ele>2004.7</ele></trkpt>
      <trkpt lat="46.7582251" lon="8.4972394"><ele>1955.2</ele></trkpt>
      <trkpt lat="46.7584019" lon="8.4974104"><ele>1948.1</ele></trkpt>
      <trkpt lat="46.7584306" lon="8.4976779"><ele>1943.6</ele></trkpt>
      <trkpt lat="46.7586157" lon="8.4978003"><ele>1930.4</ele></trkpt>
      <trkpt lat="46.7586602" lon="8.4979644"><ele>1924.0</ele></trkpt>
      <trkpt lat="46.7585145" lon="8.4984853"><ele>1903.1</ele></trkpt>
      <trkpt lat="46.758742" lon="8.4988301"><ele>1894.8</ele></trkpt>
      <trkpt lat="46.7587503" lon="8.4989889"><ele>1885.7</ele></trkpt>
      <trkpt lat="46.758843" lon="8.498929"><ele>1882.7</ele></trkpt>
      <trkpt lat="46.7589201" lon="8.4990897"><ele>1877.6</ele></trkpt>
      <trkpt lat="46.7589836" lon="8.4996556"><ele>1867.1</ele></trkpt>
      <trkpt lat="46.7591885" lon="8.4998319"><ele>1845.0</ele></trkpt>
      <trkpt lat="46.7592865" lon="8.5002703"><ele>1826.6</ele></trkpt>
      <trkpt lat="46.7594128" lon="8.5003983"><ele>1825.6</ele></trkpt>
      <trkpt lat="46.7593446" lon="8.5004494"><ele>1820.4</ele></trkpt>
      <trkpt lat="46.7594723" lon="8.5010808"><ele>1806.3</ele></trkpt>
      <trkpt lat="46.759705" lon="8.5017269"><ele>1801.4</ele></trkpt>
      <trkpt lat="46.75965" lon="8.5019621"><ele>1795.2</ele></trkpt>
      <trkpt lat="46.7589452" lon="8.5031484"><ele>1765.8</ele></trkpt>
      <trkpt lat="46.7590096" lon="8.5034169"><ele>1762.4</ele></trkpt>
      <trkpt lat="46.7584957" lon="8.5047688"><ele>1749.7</ele></trkpt>
      <trkpt lat="46.7581911" lon="8.5051771"><ele>1739.9</ele></trkpt>
      <trkpt lat="46.7579393" lon="8.5051996"><ele>1734.2</ele></trkpt>
      <trkpt lat="46.7577433" lon="8.5055661"><ele>1729.0</ele></trkpt>
      <trkpt lat="46.7566958" lon="8.5066151"><ele>1710.6</ele></trkpt>
      <trkpt lat="46.7564319" lon="8.5067304"><ele>1708.2</ele></trkpt>
      <trkpt lat="46.7545623" lon="8.5064811"><ele>1689.3</ele></trkpt>
      <trkpt lat="46.7541035" lon="8.5066766"><ele>1686.2</ele></trkpt>
      <trkpt lat="46.7538025" lon="8.5066312"><ele>1682.0</ele></trkpt>
      <trkpt lat="46.7534069" lon="8.5069252"><ele>1675.0</ele></trkpt>
      <trkpt lat="46.7519374" lon="8.5075976"><ele>1629.4</ele></trkpt>
      <trkpt lat="46.7516859" lon="8.5079865"><ele>1636.9</ele></trkpt>
      <trkpt lat="46.7503912" lon="8.5079491"><ele>1627.6</ele></trkpt>
      <trkpt lat="46.7495751" lon="8.5077406"><ele>1628.3</ele></trkpt>
      <trkpt lat="46.7484798" lon="8.5080441"><ele>1618.1</ele></trkpt>
      <trkpt lat="46.7479172" lon="8.5085503"><ele>1610.0</ele></trkpt>
      <trkpt lat="46.7473183" lon="8.5088287"><ele>1600.6</ele></trkpt>
      <trkpt lat="46.7450515" lon="8.5086189"><ele>1602.6</ele></trkpt>
      <trkpt lat="46.7444335" lon="8.5087655"><ele>1606.4</ele></trkpt>
      <trkpt lat="46.7436013" lon="8.5086093"><ele>1602.4</ele></trkpt>
    </trkseg>
  </trk>
</gpx>
