<?xml version="1.0" encoding="UTF-8"?>
<gpx version="1.1" creator="lesgrandsraidsaski.com" xmlns="http://www.topografix.com/GPX/1/1">
  <metadata>
    <desc>Trace dérivée (simplifiée RDP epsilon=6m, une journée par segment) — voir data/gpx-sources/ecrins-tour-des-agneaux-2025.original.gpx pour la trace originale.</desc>
  </metadata>
  <trk>
    <name>Tour des Agneaux, massif des Écrins (2025)</name>
    <trkseg>
      <trkpt lat="44.9348258" lon="6.4915893"><ele>2765.4</ele></trkpt>
      <trkpt lat="44.9353438" lon="6.4916294"><ele>2769.9</ele></trkpt>
      <trkpt lat="44.9356921" lon="6.4912425"><ele>2764.0</ele></trkpt>
      <trkpt lat="44.9357783" lon="6.4906653"><ele>2729.8</ele></trkpt>
      <trkpt lat="44.9356542" lon="6.4891347"><ele>2688.7</ele></trkpt>
      <trkpt lat="44.9352715" lon="6.4879112"><ele>2678.7</ele></trkpt>
      <trkpt lat="44.9350819" lon="6.4879379"><ele>2689.9</ele></trkpt>
      <trkpt lat="44.9346813" lon="6.4869491"><ele>2711.7</ele></trkpt>
      <trkpt lat="44.9346203" lon="6.4871293"><ele>2716.8</ele></trkpt>
      <trkpt lat="44.9344903" lon="6.4868663"><ele>2721.7</ele></trkpt>
      <trkpt lat="44.9348112" lon="6.4860359"><ele>2751.2</ele></trkpt>
      <trkpt lat="44.9349554" lon="6.4850887"><ele>2749.0</ele></trkpt>
      <trkpt lat="44.9348174" lon="6.4847663"><ele>2730.0</ele></trkpt>
      <trkpt lat="44.9348177" lon="6.4844332"><ele>2723.9</ele></trkpt>
      <trkpt lat="44.9347089" lon="6.4844372"><ele>2707.2</ele></trkpt>
      <trkpt lat="44.9345012" lon="6.4840944"><ele>2698.9</ele></trkpt>
      <trkpt lat="44.9342528" lon="6.4840159"><ele>2687.3</ele></trkpt>
      <trkpt lat="44.9339774" lon="6.4825694"><ele>2655.9</ele></trkpt>
      <trkpt lat="44.9340282" lon="6.4821612"><ele>2652.6</ele></trkpt>
      <trkpt lat="44.934306" lon="6.48159"><ele>2638.2</ele></trkpt>
      <trkpt lat="44.9348132" lon="6.4808438"><ele>2623.6</ele></trkpt>
      <trkpt lat="44.9353822" lon="6.47973"><ele>2609.3</ele></trkpt>
      <trkpt lat="44.9360098" lon="6.4789148"><ele>2598.0</ele></trkpt>
      <trkpt lat="44.9361947" lon="6.4782312"><ele>2591.2</ele></trkpt>
      <trkpt lat="44.9366924" lon="6.4772387"><ele>2584.7</ele></trkpt>
      <trkpt lat="44.9367792" lon="6.476878"><ele>2582.6</ele></trkpt>
      <trkpt lat="44.9369698" lon="6.4709857"><ele>2607.1</ele></trkpt>
      <trkpt lat="44.9368067" lon="6.4703219"><ele>2623.7</ele></trkpt>
      <trkpt lat="44.9368582" lon="6.470172"><ele>2628.1</ele></trkpt>
      <trkpt lat="44.9367218" lon="6.4699925"><ele>2633.3</ele></trkpt>
      <trkpt lat="44.9368333" lon="6.4697717"><ele>2642.7</ele></trkpt>
      <trkpt lat="44.9365601" lon="6.4694734"><ele>2649.5</ele></trkpt>
      <trkpt lat="44.9366784" lon="6.4693434"><ele>2652.5</ele></trkpt>
      <trkpt lat="44.936488" lon="6.4693707"><ele>2659.4</ele></trkpt>
      <trkpt lat="44.9365804" lon="6.4692308"><ele>2661.9</ele></trkpt>
      <trkpt lat="44.936478" lon="6.4691875"><ele>2662.6</ele></trkpt>
      <trkpt lat="44.9365176" lon="6.4690858"><ele>2664.0</ele></trkpt>
      <trkpt lat="44.9364093" lon="6.4690439"><ele>2665.8</ele></trkpt>
      <trkpt lat="44.9364601" lon="6.468931"><ele>2672.9</ele></trkpt>
      <trkpt lat="44.9363268" lon="6.4688188"><ele>2678.3</ele></trkpt>
      <trkpt lat="44.9363976" lon="6.4686379"><ele>2683.4</ele></trkpt>
      <trkpt lat="44.9361985" lon="6.4685702"><ele>2690.8</ele></trkpt>
      <trkpt lat="44.9362828" lon="6.4680086"><ele>2703.5</ele></trkpt>
      <trkpt lat="44.9360024" lon="6.4681486"><ele>2715.7</ele></trkpt>
      <trkpt lat="44.9359588" lon="6.467877"><ele>2720.6</ele></trkpt>
      <trkpt lat="44.9360006" lon="6.4669758"><ele>2740.1</ele></trkpt>
      <trkpt lat="44.9361284" lon="6.4666591"><ele>2751.0</ele></trkpt>
      <trkpt lat="44.936005" lon="6.4664399"><ele>2754.7</ele></trkpt>
      <trkpt lat="44.9364124" lon="6.4662897"><ele>2770.9</ele></trkpt>
      <trkpt lat="44.9360995" lon="6.4658866"><ele>2785.0</ele></trkpt>
      <trkpt lat="44.9362978" lon="6.4657671"><ele>2788.2</ele></trkpt>
      <trkpt lat="44.9359951" lon="6.4655098"><ele>2804.1</ele></trkpt>
      <trkpt lat="44.9358331" lon="6.4651754"><ele>2799.6</ele></trkpt>
      <trkpt lat="44.9357633" lon="6.4646768"><ele>2801.6</ele></trkpt>
      <trkpt lat="44.9355699" lon="6.4643633"><ele>2811.1</ele></trkpt>
      <trkpt lat="44.9353067" lon="6.4632836"><ele>2827.6</ele></trkpt>
      <trkpt lat="44.9350173" lon="6.4628638"><ele>2830.3</ele></trkpt>
      <trkpt lat="44.9341294" lon="6.4620413"><ele>2861.4</ele></trkpt>
      <trkpt lat="44.933754" lon="6.4620381"><ele>2862.0</ele></trkpt>
      <trkpt lat="44.9333969" lon="6.4622288"><ele>2875.6</ele></trkpt>
      <trkpt lat="44.9334745" lon="6.4618546"><ele>2896.0</ele></trkpt>
      <trkpt lat="44.9325758" lon="6.4620005"><ele>2911.1</ele></trkpt>
      <trkpt lat="44.9320883" lon="6.4622336"><ele>2923.6</ele></trkpt>
      <trkpt lat="44.9317039" lon="6.4625891"><ele>2939.8</ele></trkpt>
      <trkpt lat="44.9315867" lon="6.4620226"><ele>2953.3</ele></trkpt>
      <trkpt lat="44.9314049" lon="6.4621054"><ele>2957.0</ele></trkpt>
      <trkpt lat="44.9314364" lon="6.4617418"><ele>2963.8</ele></trkpt>
      <trkpt lat="44.9317036" lon="6.4612591"><ele>2977.7</ele></trkpt>
      <trkpt lat="44.9315242" lon="6.4612166"><ele>2984.0</ele></trkpt>
      <trkpt lat="44.9316507" lon="6.4609944"><ele>2986.7</ele></trkpt>
      <trkpt lat="44.9310493" lon="6.4610117"><ele>2991.8</ele></trkpt>
      <trkpt lat="44.9306384" lon="6.4613126"><ele>3006.7</ele></trkpt>
      <trkpt lat="44.9304127" lon="6.461304"><ele>3016.0</ele></trkpt>
      <trkpt lat="44.9304199" lon="6.4610768"><ele>3021.4</ele></trkpt>
      <trkpt lat="44.9300972" lon="6.4611868"><ele>3031.2</ele></trkpt>
      <trkpt lat="44.9302066" lon="6.4608294"><ele>3042.7</ele></trkpt>
      <trkpt lat="44.9296209" lon="6.4611538"><ele>3054.2</ele></trkpt>
      <trkpt lat="44.9298555" lon="6.4605465"><ele>3070.4</ele></trkpt>
      <trkpt lat="44.9299523" lon="6.459676"><ele>3084.2</ele></trkpt>
      <trkpt lat="44.9301562" lon="6.4589212"><ele>3100.8</ele></trkpt>
      <trkpt lat="44.9298501" lon="6.4589334"><ele>3104.4</ele></trkpt>
      <trkpt lat="44.9294454" lon="6.4591316"><ele>3121.4</ele></trkpt>
      <trkpt lat="44.9294736" lon="6.4581849"><ele>3138.9</ele></trkpt>
      <trkpt lat="44.9295941" lon="6.4578799"><ele>3147.4</ele></trkpt>
      <trkpt lat="44.9292194" lon="6.457766"><ele>3157.5</ele></trkpt>
      <trkpt lat="44.9292611" lon="6.4575384"><ele>3160.2</ele></trkpt>
      <trkpt lat="44.9293938" lon="6.4574078"><ele>3167.2</ele></trkpt>
      <trkpt lat="44.9290781" lon="6.457206"><ele>3177.5</ele></trkpt>
      <trkpt lat="44.9291859" lon="6.4568905"><ele>3181.8</ele></trkpt>
      <trkpt lat="44.9289668" lon="6.4566053"><ele>3192.6</ele></trkpt>
      <trkpt lat="44.9291818" lon="6.4561376"><ele>3199.6</ele></trkpt>
      <trkpt lat="44.9290951" lon="6.4555835"><ele>3212.6</ele></trkpt>
      <trkpt lat="44.9293523" lon="6.4552891"><ele>3221.8</ele></trkpt>
      <trkpt lat="44.9294266" lon="6.4549527"><ele>3222.5</ele></trkpt>
      <trkpt lat="44.9292767" lon="6.4545846"><ele>3234.8</ele></trkpt>
      <trkpt lat="44.9294493" lon="6.4543154"><ele>3238.7</ele></trkpt>
      <trkpt lat="44.9291954" lon="6.4539125"><ele>3251.9</ele></trkpt>
      <trkpt lat="44.9292892" lon="6.4536933"><ele>3255.6</ele></trkpt>
      <trkpt lat="44.9295959" lon="6.4534184"><ele>3268.9</ele></trkpt>
      <trkpt lat="44.9292918" lon="6.4529067"><ele>3288.4</ele></trkpt>
      <trkpt lat="44.9296345" lon="6.4524616"><ele>3299.1</ele></trkpt>
      <trkpt lat="44.9293441" lon="6.4520719"><ele>3311.5</ele></trkpt>
      <trkpt lat="44.9290459" lon="6.4518624"><ele>3318.3</ele></trkpt>
      <trkpt lat="44.9297198" lon="6.4501083"><ele>3352.0</ele></trkpt>
      <trkpt lat="44.930406" lon="6.4487039"><ele>3346.9</ele></trkpt>
      <trkpt lat="44.9314023" lon="6.4472748"><ele>3349.1</ele></trkpt>
      <trkpt lat="44.9320529" lon="6.4457827"><ele>3348.8</ele></trkpt>
      <trkpt lat="44.9323196" lon="6.4449351"><ele>3347.3</ele></trkpt>
      <trkpt lat="44.9327765" lon="6.4441126"><ele>3332.9</ele></trkpt>
      <trkpt lat="44.9331835" lon="6.4436985"><ele>3339.9</ele></trkpt>
      <trkpt lat="44.933187" lon="6.4433483"><ele>3342.5</ele></trkpt>
      <trkpt lat="44.9338303" lon="6.4426264"><ele>3353.8</ele></trkpt>
      <trkpt lat="44.9336331" lon="6.4425617"><ele>3365.8</ele></trkpt>
      <trkpt lat="44.9337601" lon="6.4422692"><ele>3374.1</ele></trkpt>
      <trkpt lat="44.9335023" lon="6.4423074"><ele>3381.7</ele></trkpt>
      <trkpt lat="44.9331094" lon="6.4419611"><ele>3393.6</ele></trkpt>
      <trkpt lat="44.93354" lon="6.4419866"><ele>3390.4</ele></trkpt>
      <trkpt lat="44.9337521" lon="6.441809"><ele>3385.2</ele></trkpt>
      <trkpt lat="44.9342755" lon="6.4403036"><ele>3366.2</ele></trkpt>
      <trkpt lat="44.934507" lon="6.439106"><ele>3355.5</ele></trkpt>
      <trkpt lat="44.9348352" lon="6.4385003"><ele>3355.4</ele></trkpt>
      <trkpt lat="44.9353585" lon="6.4394614"><ele>3326.1</ele></trkpt>
      <trkpt lat="44.9354906" lon="6.4401566"><ele>3323.0</ele></trkpt>
      <trkpt lat="44.9359673" lon="6.4400754"><ele>3298.8</ele></trkpt>
      <trkpt lat="44.9363546" lon="6.4392304"><ele>3286.6</ele></trkpt>
      <trkpt lat="44.9362562" lon="6.4398857"><ele>3285.2</ele></trkpt>
      <trkpt lat="44.9363015" lon="6.4401248"><ele>3284.3</ele></trkpt>
      <trkpt lat="44.9364022" lon="6.4404535"><ele>3283.8</ele></trkpt>
      <trkpt lat="44.9366605" lon="6.4407809"><ele>3246.4</ele></trkpt>
      <trkpt lat="44.9368014" lon="6.4405645"><ele>3232.1</ele></trkpt>
      <trkpt lat="44.9368622" lon="6.4390504"><ele>3209.7</ele></trkpt>
      <trkpt lat="44.9370835" lon="6.4380286"><ele>3200.7</ele></trkpt>
      <trkpt lat="44.9374497" lon="6.4381549"><ele>3185.7</ele></trkpt>
      <trkpt lat="44.9375413" lon="6.4383438"><ele>3173.7</ele></trkpt>
      <trkpt lat="44.9377749" lon="6.4382746"><ele>3165.4</ele></trkpt>
      <trkpt lat="44.9383384" lon="6.4375703"><ele>3149.0</ele></trkpt>
      <trkpt lat="44.9392685" lon="6.4387199"><ele>3108.4</ele></trkpt>
      <trkpt lat="44.939884" lon="6.4389684"><ele>3103.9</ele></trkpt>
      <trkpt lat="44.941115" lon="6.4388986"><ele>3126.9</ele></trkpt>
      <trkpt lat="44.9413351" lon="6.4386143"><ele>3125.7</ele></trkpt>
      <trkpt lat="44.9416741" lon="6.4384187"><ele>3137.7</ele></trkpt>
      <trkpt lat="44.9420077" lon="6.4379639"><ele>3147.6</ele></trkpt>
      <trkpt lat="44.9417581" lon="6.4378419"><ele>3154.2</ele></trkpt>
      <trkpt lat="44.9425831" lon="6.4361295"><ele>3186.3</ele></trkpt>
      <trkpt lat="44.9421169" lon="6.436099"><ele>3198.4</ele></trkpt>
      <trkpt lat="44.9424943" lon="6.435486"><ele>3213.0</ele></trkpt>
      <trkpt lat="44.9430108" lon="6.434978"><ele>3232.0</ele></trkpt>
      <trkpt lat="44.9431348" lon="6.4345159"><ele>3245.1</ele></trkpt>
      <trkpt lat="44.9434339" lon="6.4341068"><ele>3252.5</ele></trkpt>
      <trkpt lat="44.94406" lon="6.4338278"><ele>3269.0</ele></trkpt>
      <trkpt lat="44.9433198" lon="6.4333555"><ele>3297.4</ele></trkpt>
      <trkpt lat="44.9440208" lon="6.4330617"><ele>3307.3</ele></trkpt>
      <trkpt lat="44.9437279" lon="6.43289"><ele>3315.7</ele></trkpt>
      <trkpt lat="44.9439121" lon="6.4328062"><ele>3323.0</ele></trkpt>
      <trkpt lat="44.9437873" lon="6.4327261"><ele>3327.9</ele></trkpt>
      <trkpt lat="44.9439308" lon="6.4325479"><ele>3343.9</ele></trkpt>
      <trkpt lat="44.9438683" lon="6.4322843"><ele>3341.4</ele></trkpt>
      <trkpt lat="44.9440162" lon="6.4320959"><ele>3333.4</ele></trkpt>
      <trkpt lat="44.944059" lon="6.4317269"><ele>3322.3</ele></trkpt>
      <trkpt lat="44.9445947" lon="6.4311791"><ele>3301.7</ele></trkpt>
      <trkpt lat="44.9443697" lon="6.430037"><ele>3273.0</ele></trkpt>
      <trkpt lat="44.9439692" lon="6.4295836"><ele>3257.3</ele></trkpt>
      <trkpt lat="44.9436747" lon="6.430063"><ele>3235.5</ele></trkpt>
      <trkpt lat="44.9427118" lon="6.4304911"><ele>3164.9</ele></trkpt>
      <trkpt lat="44.9422451" lon="6.4309719"><ele>3126.3</ele></trkpt>
      <trkpt lat="44.9418484" lon="6.4320291"><ele>3097.8</ele></trkpt>
      <trkpt lat="44.941543" lon="6.4322924"><ele>3087.8</ele></trkpt>
      <trkpt lat="44.9412597" lon="6.4323"><ele>3074.2</ele></trkpt>
      <trkpt lat="44.9410907" lon="6.4321281"><ele>3066.7</ele></trkpt>
      <trkpt lat="44.9401951" lon="6.4319514"><ele>3046.6</ele></trkpt>
      <trkpt lat="44.9399806" lon="6.4313204"><ele>3024.6</ele></trkpt>
      <trkpt lat="44.9394481" lon="6.430829"><ele>3011.1</ele></trkpt>
      <trkpt lat="44.9395141" lon="6.430789"><ele>3007.5</ele></trkpt>
      <trkpt lat="44.9395943" lon="6.4299865"><ele>2975.0</ele></trkpt>
      <trkpt lat="44.9393993" lon="6.4295701"><ele>2967.9</ele></trkpt>
      <trkpt lat="44.9402246" lon="6.4288631"><ele>2933.7</ele></trkpt>
      <trkpt lat="44.9405438" lon="6.4283942"><ele>2930.1</ele></trkpt>
      <trkpt lat="44.9406342" lon="6.4276863"><ele>2921.3</ele></trkpt>
      <trkpt lat="44.9403681" lon="6.427352"><ele>2899.2</ele></trkpt>
      <trkpt lat="44.9404955" lon="6.426994"><ele>2892.2</ele></trkpt>
      <trkpt lat="44.9403988" lon="6.4265726"><ele>2871.4</ele></trkpt>
      <trkpt lat="44.9407156" lon="6.4259841"><ele>2856.8</ele></trkpt>
      <trkpt lat="44.9405806" lon="6.4258403"><ele>2849.0</ele></trkpt>
      <trkpt lat="44.9407837" lon="6.4253703"><ele>2841.3</ele></trkpt>
      <trkpt lat="44.9399981" lon="6.4255251"><ele>2820.6</ele></trkpt>
      <trkpt lat="44.939379" lon="6.4245672"><ele>2803.6</ele></trkpt>
      <trkpt lat="44.939221" lon="6.4237173"><ele>2794.3</ele></trkpt>
      <trkpt lat="44.9393326" lon="6.4220744"><ele>2770.8</ele></trkpt>
      <trkpt lat="44.939412" lon="6.421542"><ele>2756.8</ele></trkpt>
      <trkpt lat="44.939519" lon="6.4214442"><ele>2749.7</ele></trkpt>
      <trkpt lat="44.9392806" lon="6.4206339"><ele>2723.7</ele></trkpt>
      <trkpt lat="44.9392001" lon="6.4189915"><ele>2705.1</ele></trkpt>
      <trkpt lat="44.9392457" lon="6.4181767"><ele>2693.2</ele></trkpt>
      <trkpt lat="44.9394731" lon="6.4180557"><ele>2693.2</ele></trkpt>
      <trkpt lat="44.9397302" lon="6.4173316"><ele>2686.1</ele></trkpt>
      <trkpt lat="44.9396823" lon="6.4150101"><ele>2653.5</ele></trkpt>
      <trkpt lat="44.9390694" lon="6.4147493"><ele>2625.8</ele></trkpt>
      <trkpt lat="44.9386364" lon="6.4142963"><ele>2593.9</ele></trkpt>
      <trkpt lat="44.9381949" lon="6.4132992"><ele>2574.9</ele></trkpt>
      <trkpt lat="44.9380803" lon="6.4127589"><ele>2572.9</ele></trkpt>
      <trkpt lat="44.9381409" lon="6.4124821"><ele>2569.5</ele></trkpt>
      <trkpt lat="44.9382964" lon="6.4123878"><ele>2566.0</ele></trkpt>
      <trkpt lat="44.9384576" lon="6.4117911"><ele>2562.7</ele></trkpt>
      <trkpt lat="44.9379815" lon="6.4114873"><ele>2550.5</ele></trkpt>
      <trkpt lat="44.9375609" lon="6.4115138"><ele>2540.4</ele></trkpt>
    </trkseg>
    <trkseg>
      <trkpt lat="44.9375226" lon="6.411417"><ele>2557.0</ele></trkpt>
      <trkpt lat="44.9377343" lon="6.4114701"><ele>2555.6</ele></trkpt>
      <trkpt lat="44.9380648" lon="6.4113547"><ele>2562.2</ele></trkpt>
      <trkpt lat="44.9382093" lon="6.4115344"><ele>2570.1</ele></trkpt>
      <trkpt lat="44.938518" lon="6.4114858"><ele>2574.5</ele></trkpt>
      <trkpt lat="44.9389054" lon="6.4115798"><ele>2582.9</ele></trkpt>
      <trkpt lat="44.9389973" lon="6.4117225"><ele>2582.7</ele></trkpt>
      <trkpt lat="44.9391134" lon="6.4114752"><ele>2589.4</ele></trkpt>
      <trkpt lat="44.9391956" lon="6.4118837"><ele>2588.4</ele></trkpt>
      <trkpt lat="44.9393587" lon="6.4113739"><ele>2602.2</ele></trkpt>
      <trkpt lat="44.939448" lon="6.4116252"><ele>2598.7</ele></trkpt>
      <trkpt lat="44.9395119" lon="6.4114629"><ele>2602.3</ele></trkpt>
      <trkpt lat="44.9395045" lon="6.4117574"><ele>2613.0</ele></trkpt>
      <trkpt lat="44.9396365" lon="6.4116009"><ele>2616.5</ele></trkpt>
      <trkpt lat="44.9396284" lon="6.411791"><ele>2619.0</ele></trkpt>
      <trkpt lat="44.9398723" lon="6.4113516"><ele>2633.7</ele></trkpt>
      <trkpt lat="44.9398519" lon="6.4111965"><ele>2637.3</ele></trkpt>
      <trkpt lat="44.9401691" lon="6.4112426"><ele>2643.4</ele></trkpt>
      <trkpt lat="44.9403776" lon="6.411109"><ele>2655.7</ele></trkpt>
      <trkpt lat="44.940332" lon="6.4109456"><ele>2661.9</ele></trkpt>
      <trkpt lat="44.9404736" lon="6.4103345"><ele>2662.0</ele></trkpt>
      <trkpt lat="44.940953" lon="6.409807"><ele>2676.4</ele></trkpt>
      <trkpt lat="44.9413201" lon="6.4090356"><ele>2691.6</ele></trkpt>
      <trkpt lat="44.9413617" lon="6.4092656"><ele>2698.1</ele></trkpt>
      <trkpt lat="44.9415149" lon="6.4094314"><ele>2697.3</ele></trkpt>
      <trkpt lat="44.9421337" lon="6.4088747"><ele>2714.7</ele></trkpt>
      <trkpt lat="44.9422717" lon="6.4087003"><ele>2719.8</ele></trkpt>
      <trkpt lat="44.9422399" lon="6.4085795"><ele>2722.0</ele></trkpt>
      <trkpt lat="44.9425323" lon="6.4084242"><ele>2731.0</ele></trkpt>
      <trkpt lat="44.9427283" lon="6.408843"><ele>2720.1</ele></trkpt>
      <trkpt lat="44.9430156" lon="6.4083991"><ele>2719.4</ele></trkpt>
      <trkpt lat="44.9437494" lon="6.4077236"><ele>2693.7</ele></trkpt>
      <trkpt lat="44.9438365" lon="6.4079543"><ele>2638.2</ele></trkpt>
      <trkpt lat="44.9437996" lon="6.4081839"><ele>2664.0</ele></trkpt>
      <trkpt lat="44.9434868" lon="6.4081297"><ele>2732.3</ele></trkpt>
      <trkpt lat="44.9434886" lon="6.4076073"><ele>2771.6</ele></trkpt>
      <trkpt lat="44.9439281" lon="6.4077467"><ele>2780.7</ele></trkpt>
      <trkpt lat="44.9442132" lon="6.4064744"><ele>2804.2</ele></trkpt>
      <trkpt lat="44.9444007" lon="6.4065221"><ele>2811.0</ele></trkpt>
      <trkpt lat="44.9444303" lon="6.4062865"><ele>2814.7</ele></trkpt>
      <trkpt lat="44.9445362" lon="6.4061752"><ele>2818.7</ele></trkpt>
      <trkpt lat="44.9444289" lon="6.406013"><ele>2823.7</ele></trkpt>
      <trkpt lat="44.9446975" lon="6.406135"><ele>2829.3</ele></trkpt>
      <trkpt lat="44.9447108" lon="6.4059032"><ele>2831.3</ele></trkpt>
      <trkpt lat="44.944933" lon="6.4055188"><ele>2839.3</ele></trkpt>
      <trkpt lat="44.9458608" lon="6.4044758"><ele>2839.7</ele></trkpt>
      <trkpt lat="44.9462321" lon="6.4027975"><ele>2835.6</ele></trkpt>
      <trkpt lat="44.9455168" lon="6.4004882"><ele>2870.3</ele></trkpt>
      <trkpt lat="44.9461032" lon="6.3993853"><ele>2897.7</ele></trkpt>
      <trkpt lat="44.9454642" lon="6.3982234"><ele>2916.2</ele></trkpt>
      <trkpt lat="44.9466329" lon="6.3966944"><ele>2951.3</ele></trkpt>
      <trkpt lat="44.9471463" lon="6.3963564"><ele>2959.0</ele></trkpt>
      <trkpt lat="44.9473657" lon="6.3958866"><ele>2964.6</ele></trkpt>
      <trkpt lat="44.9473258" lon="6.3935589"><ele>2981.3</ele></trkpt>
      <trkpt lat="44.9474311" lon="6.3917881"><ele>3000.0</ele></trkpt>
      <trkpt lat="44.9479694" lon="6.3896076"><ele>3023.7</ele></trkpt>
      <trkpt lat="44.9481472" lon="6.3891074"><ele>3027.6</ele></trkpt>
      <trkpt lat="44.9484202" lon="6.3886824"><ele>3031.8</ele></trkpt>
      <trkpt lat="44.9483282" lon="6.3877956"><ele>3026.9</ele></trkpt>
      <trkpt lat="44.9483881" lon="6.3887198"><ele>3031.9</ele></trkpt>
      <trkpt lat="44.9485609" lon="6.3882522"><ele>3046.4</ele></trkpt>
      <trkpt lat="44.9488437" lon="6.38796"><ele>3046.5</ele></trkpt>
      <trkpt lat="44.9489154" lon="6.3879514"><ele>3049.0</ele></trkpt>
      <trkpt lat="44.9492073" lon="6.3886034"><ele>3056.5</ele></trkpt>
      <trkpt lat="44.9494677" lon="6.3879939"><ele>3071.8</ele></trkpt>
      <trkpt lat="44.9496418" lon="6.388485"><ele>3081.4</ele></trkpt>
      <trkpt lat="44.9498335" lon="6.3879245"><ele>3089.4</ele></trkpt>
      <trkpt lat="44.9499526" lon="6.3884805"><ele>3104.4</ele></trkpt>
      <trkpt lat="44.9501584" lon="6.3881233"><ele>3111.6</ele></trkpt>
      <trkpt lat="44.9501176" lon="6.3891062"><ele>3131.6</ele></trkpt>
      <trkpt lat="44.9505686" lon="6.3888561"><ele>3137.6</ele></trkpt>
      <trkpt lat="44.9504509" lon="6.3894602"><ele>3152.3</ele></trkpt>
      <trkpt lat="44.9507908" lon="6.3894015"><ele>3153.8</ele></trkpt>
      <trkpt lat="44.951192" lon="6.3889695"><ele>3158.7</ele></trkpt>
      <trkpt lat="44.9514689" lon="6.3896178"><ele>3181.6</ele></trkpt>
      <trkpt lat="44.9515745" lon="6.3895227"><ele>3179.2</ele></trkpt>
      <trkpt lat="44.9517737" lon="6.3889037"><ele>3186.7</ele></trkpt>
      <trkpt lat="44.9520359" lon="6.389654"><ele>3216.8</ele></trkpt>
      <trkpt lat="44.9524269" lon="6.3888637"><ele>3223.0</ele></trkpt>
      <trkpt lat="44.9525836" lon="6.3896522"><ele>3247.4</ele></trkpt>
      <trkpt lat="44.9529288" lon="6.3890544"><ele>3250.0</ele></trkpt>
      <trkpt lat="44.9530154" lon="6.3895916"><ele>3265.9</ele></trkpt>
      <trkpt lat="44.953158" lon="6.3890202"><ele>3278.4</ele></trkpt>
      <trkpt lat="44.9533587" lon="6.3894561"><ele>3273.3</ele></trkpt>
      <trkpt lat="44.9533297" lon="6.3899664"><ele>3294.5</ele></trkpt>
      <trkpt lat="44.9536234" lon="6.3895026"><ele>3299.4</ele></trkpt>
      <trkpt lat="44.9537941" lon="6.3888929"><ele>3306.2</ele></trkpt>
      <trkpt lat="44.953707" lon="6.3885579"><ele>3320.2</ele></trkpt>
      <trkpt lat="44.9537236" lon="6.3881037"><ele>3336.6</ele></trkpt>
      <trkpt lat="44.9538453" lon="6.3879308"><ele>3334.9</ele></trkpt>
      <trkpt lat="44.9539134" lon="6.3881988"><ele>3336.8</ele></trkpt>
      <trkpt lat="44.9540366" lon="6.3879348"><ele>3339.0</ele></trkpt>
      <trkpt lat="44.9541296" lon="6.3881649"><ele>3345.0</ele></trkpt>
      <trkpt lat="44.954244" lon="6.387874"><ele>3351.3</ele></trkpt>
      <trkpt lat="44.9542671" lon="6.3874485"><ele>3354.6</ele></trkpt>
      <trkpt lat="44.9544674" lon="6.3876637"><ele>3364.2</ele></trkpt>
      <trkpt lat="44.9544098" lon="6.3872754"><ele>3368.7</ele></trkpt>
      <trkpt lat="44.9545384" lon="6.3874652"><ele>3375.8</ele></trkpt>
      <trkpt lat="44.9545261" lon="6.3872616"><ele>3376.3</ele></trkpt>
      <trkpt lat="44.9546456" lon="6.387433"><ele>3386.2</ele></trkpt>
      <trkpt lat="44.9547132" lon="6.3873829"><ele>3378.7</ele></trkpt>
      <trkpt lat="44.9546307" lon="6.3868979"><ele>3396.0</ele></trkpt>
      <trkpt lat="44.9548773" lon="6.3871782"><ele>3396.4</ele></trkpt>
      <trkpt lat="44.954744" lon="6.3868821"><ele>3415.5</ele></trkpt>
      <trkpt lat="44.9548235" lon="6.3870513"><ele>3416.5</ele></trkpt>
      <trkpt lat="44.9547697" lon="6.3871126"><ele>3427.7</ele></trkpt>
      <trkpt lat="44.9544803" lon="6.3869778"><ele>3483.2</ele></trkpt>
      <trkpt lat="44.9543303" lon="6.3870865"><ele>3514.7</ele></trkpt>
      <trkpt lat="44.9546942" lon="6.3870668"><ele>3460.5</ele></trkpt>
      <trkpt lat="44.95488" lon="6.3867019"><ele>3456.0</ele></trkpt>
      <trkpt lat="44.9554886" lon="6.3865557"><ele>3479.6</ele></trkpt>
      <trkpt lat="44.955923" lon="6.3866038"><ele>3467.7</ele></trkpt>
      <trkpt lat="44.9561255" lon="6.3864459"><ele>3458.5</ele></trkpt>
      <trkpt lat="44.9564863" lon="6.3866635"><ele>3429.8</ele></trkpt>
      <trkpt lat="44.9567068" lon="6.3865058"><ele>3423.2</ele></trkpt>
      <trkpt lat="44.9569643" lon="6.3866272"><ele>3402.3</ele></trkpt>
      <trkpt lat="44.9578074" lon="6.3859952"><ele>3318.4</ele></trkpt>
      <trkpt lat="44.958243" lon="6.3857956"><ele>3295.3</ele></trkpt>
      <trkpt lat="44.9584756" lon="6.3858936"><ele>3293.8</ele></trkpt>
      <trkpt lat="44.9588058" lon="6.3854069"><ele>3268.0</ele></trkpt>
      <trkpt lat="44.9589784" lon="6.3853148"><ele>3252.2</ele></trkpt>
      <trkpt lat="44.9589489" lon="6.3849158"><ele>3243.6</ele></trkpt>
      <trkpt lat="44.9591278" lon="6.3846567"><ele>3228.7</ele></trkpt>
      <trkpt lat="44.959961" lon="6.3849362"><ele>3190.6</ele></trkpt>
      <trkpt lat="44.9601981" lon="6.3851224"><ele>3183.6</ele></trkpt>
      <trkpt lat="44.9613669" lon="6.3847846"><ele>3115.8</ele></trkpt>
      <trkpt lat="44.9620493" lon="6.384713"><ele>3082.9</ele></trkpt>
      <trkpt lat="44.962272" lon="6.3849413"><ele>3072.5</ele></trkpt>
      <trkpt lat="44.9623277" lon="6.3846905"><ele>3060.5</ele></trkpt>
      <trkpt lat="44.9627085" lon="6.3843706"><ele>3029.9</ele></trkpt>
      <trkpt lat="44.9627666" lon="6.3841142"><ele>3015.7</ele></trkpt>
      <trkpt lat="44.9629743" lon="6.384027"><ele>3001.1</ele></trkpt>
      <trkpt lat="44.9631417" lon="6.3836977"><ele>2976.6</ele></trkpt>
      <trkpt lat="44.9634688" lon="6.3839722"><ele>2963.9</ele></trkpt>
      <trkpt lat="44.9637033" lon="6.3831834"><ele>2915.7</ele></trkpt>
      <trkpt lat="44.9635032" lon="6.3826016"><ele>2900.3</ele></trkpt>
      <trkpt lat="44.963942" lon="6.3823095"><ele>2857.9</ele></trkpt>
      <trkpt lat="44.9641862" lon="6.3824303"><ele>2846.3</ele></trkpt>
      <trkpt lat="44.964833" lon="6.3819199"><ele>2801.0</ele></trkpt>
      <trkpt lat="44.9654326" lon="6.3817406"><ele>2783.9</ele></trkpt>
      <trkpt lat="44.9653276" lon="6.3816012"><ele>2776.7</ele></trkpt>
      <trkpt lat="44.9653264" lon="6.3812895"><ele>2756.6</ele></trkpt>
      <trkpt lat="44.9650908" lon="6.3808492"><ele>2737.8</ele></trkpt>
      <trkpt lat="44.9657639" lon="6.3795348"><ele>2707.1</ele></trkpt>
      <trkpt lat="44.9656265" lon="6.3793422"><ele>2698.9</ele></trkpt>
      <trkpt lat="44.9655595" lon="6.3787772"><ele>2680.4</ele></trkpt>
      <trkpt lat="44.9651923" lon="6.377657"><ele>2639.6</ele></trkpt>
      <trkpt lat="44.9648859" lon="6.3775024"><ele>2633.2</ele></trkpt>
      <trkpt lat="44.964968" lon="6.3772815"><ele>2619.3</ele></trkpt>
      <trkpt lat="44.9649325" lon="6.3768128"><ele>2601.3</ele></trkpt>
      <trkpt lat="44.9641975" lon="6.3761258"><ele>2568.1</ele></trkpt>
      <trkpt lat="44.9639636" lon="6.3760415"><ele>2563.8</ele></trkpt>
      <trkpt lat="44.9641635" lon="6.3754392"><ele>2551.5</ele></trkpt>
      <trkpt lat="44.9643781" lon="6.3752128"><ele>2542.2</ele></trkpt>
      <trkpt lat="44.9645653" lon="6.3740156"><ele>2499.1</ele></trkpt>
      <trkpt lat="44.9644675" lon="6.3738408"><ele>2483.8</ele></trkpt>
      <trkpt lat="44.9643087" lon="6.3723075"><ele>2440.8</ele></trkpt>
      <trkpt lat="44.9638059" lon="6.3716944"><ele>2411.4</ele></trkpt>
      <trkpt lat="44.9638629" lon="6.3714974"><ele>2397.2</ele></trkpt>
      <trkpt lat="44.963953" lon="6.3714935"><ele>2395.3</ele></trkpt>
      <trkpt lat="44.9639908" lon="6.371344"><ele>2386.3</ele></trkpt>
      <trkpt lat="44.9643522" lon="6.3713438"><ele>2377.3</ele></trkpt>
      <trkpt lat="44.9644553" lon="6.3711389"><ele>2358.9</ele></trkpt>
      <trkpt lat="44.96436" lon="6.3708387"><ele>2339.9</ele></trkpt>
      <trkpt lat="44.9644455" lon="6.370765"><ele>2329.7</ele></trkpt>
      <trkpt lat="44.9645283" lon="6.3703492"><ele>2321.3</ele></trkpt>
      <trkpt lat="44.9654978" lon="6.370088"><ele>2299.4</ele></trkpt>
      <trkpt lat="44.965687" lon="6.3697256"><ele>2287.8</ele></trkpt>
      <trkpt lat="44.9679263" lon="6.3691289"><ele>2242.0</ele></trkpt>
      <trkpt lat="44.9691752" lon="6.3683946"><ele>2222.4</ele></trkpt>
      <trkpt lat="44.9694647" lon="6.3683259"><ele>2219.1</ele></trkpt>
      <trkpt lat="44.9702881" lon="6.3678592"><ele>2209.4</ele></trkpt>
      <trkpt lat="44.9710871" lon="6.3669657"><ele>2199.8</ele></trkpt>
      <trkpt lat="44.9718455" lon="6.3663581"><ele>2185.6</ele></trkpt>
      <trkpt lat="44.9723729" lon="6.3662499"><ele>2179.3</ele></trkpt>
      <trkpt lat="44.9732133" lon="6.3662799"><ele>2172.9</ele></trkpt>
      <trkpt lat="44.9742851" lon="6.3668301"><ele>2158.5</ele></trkpt>
      <trkpt lat="44.9757992" lon="6.3661867"><ele>2142.3</ele></trkpt>
      <trkpt lat="44.9770084" lon="6.3662808"><ele>2122.6</ele></trkpt>
      <trkpt lat="44.9778878" lon="6.3660417"><ele>2113.0</ele></trkpt>
      <trkpt lat="44.9794008" lon="6.3661463"><ele>2092.2</ele></trkpt>
      <trkpt lat="44.9793436" lon="6.3659123"><ele>2089.3</ele></trkpt>
      <trkpt lat="44.9794771" lon="6.3658517"><ele>2087.4</ele></trkpt>
      <trkpt lat="44.9800444" lon="6.3663673"><ele>2070.1</ele></trkpt>
      <trkpt lat="44.9808825" lon="6.3665819"><ele>2062.6</ele></trkpt>
      <trkpt lat="44.9815948" lon="6.3674088"><ele>2059.9</ele></trkpt>
      <trkpt lat="44.9824241" lon="6.367788"><ele>2056.5</ele></trkpt>
      <trkpt lat="44.983169" lon="6.3685478"><ele>2054.0</ele></trkpt>
      <trkpt lat="44.9836342" lon="6.3694178"><ele>2052.7</ele></trkpt>
      <trkpt lat="44.9838245" lon="6.3695918"><ele>2051.0</ele></trkpt>
      <trkpt lat="44.9839895" lon="6.3700171"><ele>2047.9</ele></trkpt>
      <trkpt lat="44.9841457" lon="6.370869"><ele>2042.4</ele></trkpt>
      <trkpt lat="44.984879" lon="6.3721082"><ele>2029.5</ele></trkpt>
      <trkpt lat="44.986423" lon="6.3743093"><ele>2014.8</ele></trkpt>
      <trkpt lat="44.9868914" lon="6.3748342"><ele>2012.2</ele></trkpt>
      <trkpt lat="44.9876987" lon="6.3769354"><ele>2009.6</ele></trkpt>
      <trkpt lat="44.9882681" lon="6.3777629"><ele>2005.5</ele></trkpt>
      <trkpt lat="44.9891758" lon="6.3786817"><ele>2005.0</ele></trkpt>
      <trkpt lat="44.9902397" lon="6.3801562"><ele>1995.0</ele></trkpt>
      <trkpt lat="44.9907617" lon="6.3803963"><ele>1996.0</ele></trkpt>
      <trkpt lat="44.993228" lon="6.3801617"><ele>1988.6</ele></trkpt>
      <trkpt lat="44.9938029" lon="6.3802293"><ele>1986.0</ele></trkpt>
      <trkpt lat="44.9940813" lon="6.3800763"><ele>1986.3</ele></trkpt>
      <trkpt lat="44.9945724" lon="6.3801339"><ele>1986.8</ele></trkpt>
      <trkpt lat="44.9947936" lon="6.3804705"><ele>1989.0</ele></trkpt>
      <trkpt lat="44.9948707" lon="6.3809696"><ele>1990.9</ele></trkpt>
      <trkpt lat="44.9950576" lon="6.3814426"><ele>1993.3</ele></trkpt>
      <trkpt lat="44.9948569" lon="6.3820046"><ele>1991.1</ele></trkpt>
      <trkpt lat="44.9942321" lon="6.3828616"><ele>2021.4</ele></trkpt>
      <trkpt lat="44.9943079" lon="6.3830463"><ele>2023.7</ele></trkpt>
      <trkpt lat="44.9949615" lon="6.3836309"><ele>2039.8</ele></trkpt>
      <trkpt lat="44.9945543" lon="6.384033"><ele>2053.6</ele></trkpt>
      <trkpt lat="44.9953234" lon="6.384312"><ele>2069.9</ele></trkpt>
      <trkpt lat="44.995712" lon="6.3841994"><ele>2082.0</ele></trkpt>
      <trkpt lat="44.9960302" lon="6.3843834"><ele>2084.4</ele></trkpt>
      <trkpt lat="44.9963666" lon="6.3842411"><ele>2087.9</ele></trkpt>
    </trkseg>
    <trkseg>
      <trkpt lat="44.9962474" lon="6.384202"><ele>2088.8</ele></trkpt>
      <trkpt lat="44.9962144" lon="6.3841346"><ele>2091.8</ele></trkpt>
      <trkpt lat="44.9962963" lon="6.3843916"><ele>2079.1</ele></trkpt>
      <trkpt lat="44.9963012" lon="6.3853796"><ele>2078.3</ele></trkpt>
      <trkpt lat="44.9960634" lon="6.3862042"><ele>2092.8</ele></trkpt>
      <trkpt lat="44.9960951" lon="6.3867787"><ele>2097.9</ele></trkpt>
      <trkpt lat="44.9942747" lon="6.3871809"><ele>2148.9</ele></trkpt>
      <trkpt lat="44.9930124" lon="6.3877744"><ele>2154.7</ele></trkpt>
      <trkpt lat="44.9926581" lon="6.3881181"><ele>2155.6</ele></trkpt>
      <trkpt lat="44.9914754" lon="6.3897372"><ele>2166.0</ele></trkpt>
      <trkpt lat="44.9909725" lon="6.3909383"><ele>2165.5</ele></trkpt>
      <trkpt lat="44.9897028" lon="6.3926411"><ele>2177.4</ele></trkpt>
      <trkpt lat="44.9887595" lon="6.393405"><ele>2186.3</ele></trkpt>
      <trkpt lat="44.9881215" lon="6.3941859"><ele>2185.8</ele></trkpt>
      <trkpt lat="44.9873293" lon="6.3954175"><ele>2182.3</ele></trkpt>
      <trkpt lat="44.9867267" lon="6.3960809"><ele>2188.6</ele></trkpt>
      <trkpt lat="44.9860299" lon="6.39708"><ele>2202.3</ele></trkpt>
      <trkpt lat="44.9852793" lon="6.3985012"><ele>2209.6</ele></trkpt>
      <trkpt lat="44.9841539" lon="6.3997513"><ele>2221.1</ele></trkpt>
      <trkpt lat="44.9817222" lon="6.4020362"><ele>2240.0</ele></trkpt>
      <trkpt lat="44.981119" lon="6.4028353"><ele>2236.8</ele></trkpt>
      <trkpt lat="44.9805889" lon="6.4038465"><ele>2243.0</ele></trkpt>
      <trkpt lat="44.9801352" lon="6.4044557"><ele>2252.9</ele></trkpt>
      <trkpt lat="44.9787745" lon="6.4055608"><ele>2288.3</ele></trkpt>
      <trkpt lat="44.9785517" lon="6.4061856"><ele>2298.1</ele></trkpt>
      <trkpt lat="44.9783936" lon="6.4061153"><ele>2304.8</ele></trkpt>
      <trkpt lat="44.9779975" lon="6.4065467"><ele>2318.1</ele></trkpt>
      <trkpt lat="44.9783288" lon="6.4068854"><ele>2329.5</ele></trkpt>
      <trkpt lat="44.9776724" lon="6.4078296"><ele>2346.7</ele></trkpt>
      <trkpt lat="44.9771704" lon="6.4091026"><ele>2351.4</ele></trkpt>
      <trkpt lat="44.9768825" lon="6.4095536"><ele>2351.1</ele></trkpt>
      <trkpt lat="44.9767504" lon="6.4099036"><ele>2348.8</ele></trkpt>
      <trkpt lat="44.9766891" lon="6.4104762"><ele>2355.3</ele></trkpt>
      <trkpt lat="44.9765343" lon="6.4107732"><ele>2358.9</ele></trkpt>
      <trkpt lat="44.9768418" lon="6.4120235"><ele>2354.5</ele></trkpt>
      <trkpt lat="44.9767473" lon="6.4127299"><ele>2361.5</ele></trkpt>
      <trkpt lat="44.9768655" lon="6.4132959"><ele>2374.1</ele></trkpt>
      <trkpt lat="44.9768175" lon="6.4135304"><ele>2374.8</ele></trkpt>
      <trkpt lat="44.9768986" lon="6.4136806"><ele>2372.4</ele></trkpt>
      <trkpt lat="44.9766524" lon="6.4147177"><ele>2365.6</ele></trkpt>
      <trkpt lat="44.976305" lon="6.4151543"><ele>2370.4</ele></trkpt>
      <trkpt lat="44.9762457" lon="6.4154776"><ele>2366.7</ele></trkpt>
      <trkpt lat="44.9759399" lon="6.4160437"><ele>2373.7</ele></trkpt>
      <trkpt lat="44.9754777" lon="6.4164823"><ele>2377.8</ele></trkpt>
      <trkpt lat="44.9753366" lon="6.416043"><ele>2384.4</ele></trkpt>
      <trkpt lat="44.9751835" lon="6.416294"><ele>2387.1</ele></trkpt>
      <trkpt lat="44.9750997" lon="6.4161465"><ele>2390.3</ele></trkpt>
      <trkpt lat="44.9749486" lon="6.4166109"><ele>2396.5</ele></trkpt>
      <trkpt lat="44.9742769" lon="6.4172368"><ele>2407.4</ele></trkpt>
      <trkpt lat="44.9733527" lon="6.4176966"><ele>2419.0</ele></trkpt>
      <trkpt lat="44.9725868" lon="6.4183011"><ele>2422.7</ele></trkpt>
      <trkpt lat="44.9711821" lon="6.4187596"><ele>2419.7</ele></trkpt>
      <trkpt lat="44.9711079" lon="6.4192366"><ele>2427.3</ele></trkpt>
      <trkpt lat="44.9709804" lon="6.4192041"><ele>2433.0</ele></trkpt>
      <trkpt lat="44.9709932" lon="6.4194482"><ele>2438.2</ele></trkpt>
      <trkpt lat="44.9708455" lon="6.4193666"><ele>2440.8</ele></trkpt>
      <trkpt lat="44.9708193" lon="6.4195735"><ele>2444.3</ele></trkpt>
      <trkpt lat="44.9707277" lon="6.4195069"><ele>2448.1</ele></trkpt>
      <trkpt lat="44.9698232" lon="6.4201294"><ele>2475.1</ele></trkpt>
      <trkpt lat="44.9697835" lon="6.4203494"><ele>2480.4</ele></trkpt>
      <trkpt lat="44.9699119" lon="6.420399"><ele>2482.9</ele></trkpt>
      <trkpt lat="44.9697056" lon="6.4210519"><ele>2492.1</ele></trkpt>
      <trkpt lat="44.9697215" lon="6.421461"><ele>2500.7</ele></trkpt>
      <trkpt lat="44.9693912" lon="6.4214125"><ele>2508.7</ele></trkpt>
      <trkpt lat="44.9694035" lon="6.4216359"><ele>2511.8</ele></trkpt>
      <trkpt lat="44.9692549" lon="6.4219122"><ele>2524.6</ele></trkpt>
      <trkpt lat="44.9693462" lon="6.4220507"><ele>2529.6</ele></trkpt>
      <trkpt lat="44.9688223" lon="6.4231981"><ele>2545.5</ele></trkpt>
      <trkpt lat="44.9685765" lon="6.4242034"><ele>2561.8</ele></trkpt>
      <trkpt lat="44.9685723" lon="6.424529"><ele>2567.7</ele></trkpt>
      <trkpt lat="44.9681785" lon="6.4242213"><ele>2584.0</ele></trkpt>
      <trkpt lat="44.9680001" lon="6.423898"><ele>2589.7</ele></trkpt>
      <trkpt lat="44.9678862" lon="6.4241478"><ele>2593.8</ele></trkpt>
      <trkpt lat="44.9678992" lon="6.4246331"><ele>2604.2</ele></trkpt>
      <trkpt lat="44.9674845" lon="6.4241361"><ele>2619.9</ele></trkpt>
      <trkpt lat="44.9673843" lon="6.4245841"><ele>2631.1</ele></trkpt>
      <trkpt lat="44.9672044" lon="6.4242295"><ele>2640.4</ele></trkpt>
      <trkpt lat="44.9671555" lon="6.4246934"><ele>2646.7</ele></trkpt>
      <trkpt lat="44.9669515" lon="6.4244714"><ele>2657.3</ele></trkpt>
      <trkpt lat="44.9669277" lon="6.4247617"><ele>2659.8</ele></trkpt>
      <trkpt lat="44.9667872" lon="6.4246757"><ele>2665.8</ele></trkpt>
      <trkpt lat="44.9666717" lon="6.4251322"><ele>2685.6</ele></trkpt>
      <trkpt lat="44.9667218" lon="6.4260475"><ele>2708.2</ele></trkpt>
      <trkpt lat="44.9666436" lon="6.4266796"><ele>2711.2</ele></trkpt>
      <trkpt lat="44.9666595" lon="6.4277079"><ele>2717.1</ele></trkpt>
      <trkpt lat="44.9664363" lon="6.4281378"><ele>2726.1</ele></trkpt>
      <trkpt lat="44.9665284" lon="6.4283467"><ele>2736.2</ele></trkpt>
      <trkpt lat="44.9664042" lon="6.4290018"><ele>2749.8</ele></trkpt>
      <trkpt lat="44.9662496" lon="6.429115"><ele>2749.5</ele></trkpt>
      <trkpt lat="44.9660505" lon="6.429586"><ele>2760.1</ele></trkpt>
      <trkpt lat="44.9656793" lon="6.4299198"><ele>2773.0</ele></trkpt>
      <trkpt lat="44.9658222" lon="6.4304467"><ele>2782.5</ele></trkpt>
      <trkpt lat="44.9651442" lon="6.4303829"><ele>2798.1</ele></trkpt>
      <trkpt lat="44.9651785" lon="6.4306849"><ele>2812.5</ele></trkpt>
      <trkpt lat="44.9649343" lon="6.4305985"><ele>2815.1</ele></trkpt>
      <trkpt lat="44.9648881" lon="6.4309131"><ele>2825.7</ele></trkpt>
      <trkpt lat="44.9644769" lon="6.4305171"><ele>2839.6</ele></trkpt>
      <trkpt lat="44.9644393" lon="6.4306836"><ele>2838.6</ele></trkpt>
      <trkpt lat="44.9642555" lon="6.4302208"><ele>2849.0</ele></trkpt>
      <trkpt lat="44.9641741" lon="6.4307396"><ele>2858.1</ele></trkpt>
      <trkpt lat="44.9640031" lon="6.4303857"><ele>2863.2</ele></trkpt>
      <trkpt lat="44.963949" lon="6.4312565"><ele>2883.8</ele></trkpt>
      <trkpt lat="44.9640466" lon="6.4317875"><ele>2901.0</ele></trkpt>
      <trkpt lat="44.9642003" lon="6.4320264"><ele>2910.4</ele></trkpt>
      <trkpt lat="44.9640524" lon="6.4321232"><ele>2910.7</ele></trkpt>
      <trkpt lat="44.9641231" lon="6.4323692"><ele>2920.2</ele></trkpt>
      <trkpt lat="44.9634101" lon="6.4319114"><ele>2945.7</ele></trkpt>
      <trkpt lat="44.9624846" lon="6.4306888"><ele>2985.9</ele></trkpt>
      <trkpt lat="44.9623899" lon="6.4300865"><ele>2995.7</ele></trkpt>
      <trkpt lat="44.9625539" lon="6.4292525"><ele>3020.6</ele></trkpt>
      <trkpt lat="44.9621607" lon="6.4295115"><ele>3036.8</ele></trkpt>
      <trkpt lat="44.9621677" lon="6.4291831"><ele>3041.2</ele></trkpt>
      <trkpt lat="44.9622973" lon="6.4288112"><ele>3048.4</ele></trkpt>
      <trkpt lat="44.961673" lon="6.4292738"><ele>3073.3</ele></trkpt>
      <trkpt lat="44.9612476" lon="6.4302339"><ele>3079.8</ele></trkpt>
      <trkpt lat="44.9609927" lon="6.4297337"><ele>3091.0</ele></trkpt>
      <trkpt lat="44.9602533" lon="6.4291614"><ele>3115.8</ele></trkpt>
      <trkpt lat="44.9603903" lon="6.4305024"><ele>3127.2</ele></trkpt>
      <trkpt lat="44.9598632" lon="6.4301154"><ele>3145.9</ele></trkpt>
      <trkpt lat="44.9599587" lon="6.4308405"><ele>3160.7</ele></trkpt>
      <trkpt lat="44.9597047" lon="6.4307317"><ele>3171.8</ele></trkpt>
      <trkpt lat="44.9599493" lon="6.4311983"><ele>3188.1</ele></trkpt>
      <trkpt lat="44.9598592" lon="6.4313657"><ele>3192.3</ele></trkpt>
      <trkpt lat="44.9598644" lon="6.4317072"><ele>3210.8</ele></trkpt>
      <trkpt lat="44.9597199" lon="6.4318848"><ele>3217.7</ele></trkpt>
      <trkpt lat="44.959736" lon="6.4321742"><ele>3237.7</ele></trkpt>
      <trkpt lat="44.9595264" lon="6.4324258"><ele>3241.8</ele></trkpt>
      <trkpt lat="44.9595891" lon="6.4326382"><ele>3265.2</ele></trkpt>
      <trkpt lat="44.9594615" lon="6.4326811"><ele>3267.6</ele></trkpt>
      <trkpt lat="44.9592413" lon="6.4323715"><ele>3270.2</ele></trkpt>
      <trkpt lat="44.9595074" lon="6.4326562"><ele>3265.0</ele></trkpt>
      <trkpt lat="44.9592528" lon="6.4324082"><ele>3266.2</ele></trkpt>
      <trkpt lat="44.9592766" lon="6.4328617"><ele>3229.2</ele></trkpt>
      <trkpt lat="44.9591615" lon="6.433163"><ele>3208.9</ele></trkpt>
      <trkpt lat="44.9588328" lon="6.4333078"><ele>3180.9</ele></trkpt>
      <trkpt lat="44.9585172" lon="6.4331108"><ele>3165.7</ele></trkpt>
      <trkpt lat="44.9580973" lon="6.4332596"><ele>3160.0</ele></trkpt>
      <trkpt lat="44.9579893" lon="6.4347683"><ele>3122.5</ele></trkpt>
      <trkpt lat="44.9574527" lon="6.4361433"><ele>3104.3</ele></trkpt>
      <trkpt lat="44.9571653" lon="6.4388003"><ele>3072.7</ele></trkpt>
      <trkpt lat="44.9573858" lon="6.4411454"><ele>3047.6</ele></trkpt>
      <trkpt lat="44.9575125" lon="6.4414268"><ele>3044.7</ele></trkpt>
      <trkpt lat="44.9574482" lon="6.4420774"><ele>3048.8</ele></trkpt>
      <trkpt lat="44.9570259" lon="6.4415297"><ele>3062.8</ele></trkpt>
      <trkpt lat="44.9564235" lon="6.4404457"><ele>3090.6</ele></trkpt>
      <trkpt lat="44.9562892" lon="6.4407171"><ele>3093.7</ele></trkpt>
      <trkpt lat="44.9560705" lon="6.4418042"><ele>3111.2</ele></trkpt>
      <trkpt lat="44.9560961" lon="6.4427097"><ele>3127.3</ele></trkpt>
      <trkpt lat="44.9561994" lon="6.4431953"><ele>3134.1</ele></trkpt>
      <trkpt lat="44.9571039" lon="6.4440932"><ele>3122.8</ele></trkpt>
      <trkpt lat="44.9573105" lon="6.44444"><ele>3129.1</ele></trkpt>
      <trkpt lat="44.9576007" lon="6.4445867"><ele>3124.2</ele></trkpt>
      <trkpt lat="44.957799" lon="6.4449719"><ele>3125.1</ele></trkpt>
      <trkpt lat="44.9578361" lon="6.4446031"><ele>3114.9</ele></trkpt>
      <trkpt lat="44.9579499" lon="6.4445501"><ele>3113.5</ele></trkpt>
      <trkpt lat="44.9579092" lon="6.4446795"><ele>3089.4</ele></trkpt>
      <trkpt lat="44.9580157" lon="6.4448135"><ele>3081.3</ele></trkpt>
      <trkpt lat="44.9581185" lon="6.4447029"><ele>3079.0</ele></trkpt>
      <trkpt lat="44.9579862" lon="6.4448903"><ele>3078.1</ele></trkpt>
      <trkpt lat="44.958175" lon="6.4451133"><ele>3054.5</ele></trkpt>
      <trkpt lat="44.9582362" lon="6.4453653"><ele>3049.3</ele></trkpt>
      <trkpt lat="44.9584615" lon="6.4452586"><ele>3033.0</ele></trkpt>
      <trkpt lat="44.9585606" lon="6.4453576"><ele>3024.0</ele></trkpt>
      <trkpt lat="44.9586728" lon="6.4452375"><ele>3006.4</ele></trkpt>
      <trkpt lat="44.9592598" lon="6.4452464"><ele>2954.2</ele></trkpt>
      <trkpt lat="44.959316" lon="6.4451372"><ele>2947.0</ele></trkpt>
      <trkpt lat="44.9598732" lon="6.4450358"><ele>2917.1</ele></trkpt>
      <trkpt lat="44.9599278" lon="6.4448886"><ele>2900.6</ele></trkpt>
      <trkpt lat="44.9601218" lon="6.4450357"><ele>2885.8</ele></trkpt>
      <trkpt lat="44.9605727" lon="6.4449318"><ele>2844.6</ele></trkpt>
      <trkpt lat="44.9605226" lon="6.4448817"><ele>2840.1</ele></trkpt>
      <trkpt lat="44.960547" lon="6.4450039"><ele>2835.0</ele></trkpt>
      <trkpt lat="44.9608158" lon="6.4449646"><ele>2819.5</ele></trkpt>
      <trkpt lat="44.9609544" lon="6.4448492"><ele>2804.2</ele></trkpt>
      <trkpt lat="44.96137" lon="6.444966"><ele>2777.6</ele></trkpt>
      <trkpt lat="44.9614587" lon="6.4448305"><ele>2758.5</ele></trkpt>
      <trkpt lat="44.9618587" lon="6.4446968"><ele>2721.6</ele></trkpt>
      <trkpt lat="44.9619543" lon="6.4449265"><ele>2714.9</ele></trkpt>
      <trkpt lat="44.9623763" lon="6.4448706"><ele>2683.2</ele></trkpt>
      <trkpt lat="44.9625952" lon="6.4450358"><ele>2659.9</ele></trkpt>
      <trkpt lat="44.9631765" lon="6.4450051"><ele>2618.5</ele></trkpt>
      <trkpt lat="44.9634394" lon="6.4449167"><ele>2595.7</ele></trkpt>
      <trkpt lat="44.9635137" lon="6.4447232"><ele>2581.2</ele></trkpt>
      <trkpt lat="44.9637553" lon="6.4447224"><ele>2558.6</ele></trkpt>
      <trkpt lat="44.9641267" lon="6.4447969"><ele>2535.6</ele></trkpt>
      <trkpt lat="44.9641928" lon="6.4450033"><ele>2515.6</ele></trkpt>
      <trkpt lat="44.9646609" lon="6.4450327"><ele>2486.1</ele></trkpt>
      <trkpt lat="44.9651532" lon="6.4448561"><ele>2447.2</ele></trkpt>
      <trkpt lat="44.9651513" lon="6.4446462"><ele>2440.4</ele></trkpt>
      <trkpt lat="44.9653674" lon="6.4450351"><ele>2427.1</ele></trkpt>
      <trkpt lat="44.9653841" lon="6.4449045"><ele>2417.3</ele></trkpt>
      <trkpt lat="44.9655986" lon="6.4447653"><ele>2400.3</ele></trkpt>
      <trkpt lat="44.9656423" lon="6.4444599"><ele>2396.5</ele></trkpt>
      <trkpt lat="44.9657802" lon="6.4447362"><ele>2391.9</ele></trkpt>
      <trkpt lat="44.9659223" lon="6.444738"><ele>2385.6</ele></trkpt>
      <trkpt lat="44.9660182" lon="6.4443056"><ele>2374.6</ele></trkpt>
      <trkpt lat="44.9661577" lon="6.4443266"><ele>2367.3</ele></trkpt>
      <trkpt lat="44.966276" lon="6.4446858"><ele>2354.1</ele></trkpt>
      <trkpt lat="44.9665712" lon="6.4447058"><ele>2341.5</ele></trkpt>
      <trkpt lat="44.9667457" lon="6.44458"><ele>2329.0</ele></trkpt>
      <trkpt lat="44.9669245" lon="6.4446728"><ele>2316.4</ele></trkpt>
      <trkpt lat="44.9671891" lon="6.4450323"><ele>2297.6</ele></trkpt>
      <trkpt lat="44.9672252" lon="6.4453272"><ele>2287.4</ele></trkpt>
      <trkpt lat="44.9674398" lon="6.4454113"><ele>2272.4</ele></trkpt>
      <trkpt lat="44.9675565" lon="6.4452295"><ele>2268.5</ele></trkpt>
      <trkpt lat="44.9675288" lon="6.4458349"><ele>2259.2</ele></trkpt>
      <trkpt lat="44.9681864" lon="6.4460102"><ele>2219.0</ele></trkpt>
      <trkpt lat="44.9682358" lon="6.446265"><ele>2209.6</ele></trkpt>
      <trkpt lat="44.9683892" lon="6.446258"><ele>2198.9</ele></trkpt>
      <trkpt lat="44.9684589" lon="6.4465167"><ele>2192.4</ele></trkpt>
      <trkpt lat="44.9688255" lon="6.4468213"><ele>2169.3</ele></trkpt>
      <trkpt lat="44.9688968" lon="6.4472543"><ele>2156.0</ele></trkpt>
      <trkpt lat="44.9694097" lon="6.4479536"><ele>2136.4</ele></trkpt>
      <trkpt lat="44.9695376" lon="6.4484125"><ele>2133.0</ele></trkpt>
      <trkpt lat="44.9699457" lon="6.4488295"><ele>2118.0</ele></trkpt>
      <trkpt lat="44.9702344" lon="6.4488183"><ele>2108.8</ele></trkpt>
      <trkpt lat="44.9706785" lon="6.450544"><ele>2073.8</ele></trkpt>
      <trkpt lat="44.9710795" lon="6.4504882"><ele>2054.8</ele></trkpt>
      <trkpt lat="44.971258" lon="6.4507951"><ele>2043.7</ele></trkpt>
      <trkpt lat="44.9712019" lon="6.4511298"><ele>2032.2</ele></trkpt>
      <trkpt lat="44.9714492" lon="6.453416"><ele>1979.7</ele></trkpt>
      <trkpt lat="44.9716333" lon="6.4535834"><ele>1975.0</ele></trkpt>
      <trkpt lat="44.9717294" lon="6.4539006"><ele>1964.4</ele></trkpt>
      <trkpt lat="44.9723861" lon="6.4543622"><ele>1938.5</ele></trkpt>
      <trkpt lat="44.972649" lon="6.4548802"><ele>1917.9</ele></trkpt>
      <trkpt lat="44.9733104" lon="6.455566"><ele>1879.5</ele></trkpt>
      <trkpt lat="44.9733109" lon="6.4558272"><ele>1869.0</ele></trkpt>
      <trkpt lat="44.9734567" lon="6.4562189"><ele>1859.4</ele></trkpt>
      <trkpt lat="44.9733031" lon="6.4563389"><ele>1856.9</ele></trkpt>
      <trkpt lat="44.9730046" lon="6.4572841"><ele>1841.3</ele></trkpt>
      <trkpt lat="44.9731676" lon="6.4574301"><ele>1837.7</ele></trkpt>
      <trkpt lat="44.9731547" lon="6.4578059"><ele>1832.6</ele></trkpt>
      <trkpt lat="44.9738541" lon="6.4581265"><ele>1811.5</ele></trkpt>
      <trkpt lat="44.9740168" lon="6.4589644"><ele>1792.1</ele></trkpt>
      <trkpt lat="44.9741558" lon="6.4592535"><ele>1786.8</ele></trkpt>
      <trkpt lat="44.9741225" lon="6.4598004"><ele>1778.1</ele></trkpt>
      <trkpt lat="44.9743673" lon="6.4599191"><ele>1770.8</ele></trkpt>
      <trkpt lat="44.9745163" lon="6.4602656"><ele>1765.1</ele></trkpt>
      <trkpt lat="44.9748096" lon="6.4605104"><ele>1760.4</ele></trkpt>
      <trkpt lat="44.9751633" lon="6.4605085"><ele>1756.2</ele></trkpt>
      <trkpt lat="44.9756573" lon="6.4610255"><ele>1737.8</ele></trkpt>
      <trkpt lat="44.9758567" lon="6.460863"><ele>1736.2</ele></trkpt>
      <trkpt lat="44.9762169" lon="6.4614076"><ele>1733.9</ele></trkpt>
      <trkpt lat="44.9768315" lon="6.4618115"><ele>1727.7</ele></trkpt>
      <trkpt lat="44.9775595" lon="6.4620992"><ele>1714.2</ele></trkpt>
      <trkpt lat="44.9777808" lon="6.4624886"><ele>1707.5</ele></trkpt>
      <trkpt lat="44.9785963" lon="6.4629494"><ele>1707.1</ele></trkpt>
      <trkpt lat="44.9788302" lon="6.4636694"><ele>1692.9</ele></trkpt>
      <trkpt lat="44.9790248" lon="6.4637486"><ele>1686.7</ele></trkpt>
      <trkpt lat="44.9792484" lon="6.464366"><ele>1683.0</ele></trkpt>
      <trkpt lat="44.9799061" lon="6.4653232"><ele>1675.1</ele></trkpt>
      <trkpt lat="44.9801501" lon="6.4662225"><ele>1666.4</ele></trkpt>
      <trkpt lat="44.9803395" lon="6.4653762"><ele>1661.1</ele></trkpt>
      <trkpt lat="44.980564" lon="6.4653698"><ele>1656.1</ele></trkpt>
      <trkpt lat="44.9805663" lon="6.4660385"><ele>1650.1</ele></trkpt>
      <trkpt lat="44.9806936" lon="6.466621"><ele>1643.0</ele></trkpt>
      <trkpt lat="44.980907" lon="6.4671751"><ele>1640.0</ele></trkpt>
      <trkpt lat="44.9812652" lon="6.4676833"><ele>1634.3</ele></trkpt>
      <trkpt lat="44.9812581" lon="6.4682461"><ele>1631.2</ele></trkpt>
      <trkpt lat="44.9817651" lon="6.4680079"><ele>1623.8</ele></trkpt>
      <trkpt lat="44.9818387" lon="6.468486"><ele>1619.2</ele></trkpt>
      <trkpt lat="44.9832238" lon="6.4700936"><ele>1599.5</ele></trkpt>
      <trkpt lat="44.9834382" lon="6.4704995"><ele>1594.3</ele></trkpt>
      <trkpt lat="44.9831345" lon="6.4707476"><ele>1590.3</ele></trkpt>
      <trkpt lat="44.9832353" lon="6.4710858"><ele>1587.0</ele></trkpt>
      <trkpt lat="44.9835114" lon="6.4708621"><ele>1581.2</ele></trkpt>
      <trkpt lat="44.9835686" lon="6.4712025"><ele>1575.1</ele></trkpt>
      <trkpt lat="44.9841307" lon="6.4722899"><ele>1568.4</ele></trkpt>
      <trkpt lat="44.9845189" lon="6.4738779"><ele>1557.2</ele></trkpt>
      <trkpt lat="44.9846828" lon="6.4749822"><ele>1552.4</ele></trkpt>
      <trkpt lat="44.9852352" lon="6.4762588"><ele>1546.6</ele></trkpt>
      <trkpt lat="44.9856591" lon="6.4780959"><ele>1537.8</ele></trkpt>
      <trkpt lat="44.9862598" lon="6.4793133"><ele>1533.4</ele></trkpt>
      <trkpt lat="44.9863488" lon="6.4796588"><ele>1531.8</ele></trkpt>
      <trkpt lat="44.9863024" lon="6.4799411"><ele>1531.2</ele></trkpt>
      <trkpt lat="44.9866637" lon="6.4806486"><ele>1528.1</ele></trkpt>
      <trkpt lat="44.9870788" lon="6.4807872"><ele>1526.8</ele></trkpt>
      <trkpt lat="44.9874115" lon="6.4811388"><ele>1524.2</ele></trkpt>
    </trkseg>
  </trk>
</gpx>
