<?xml version="1.0" encoding="UTF-8"?>
<gpx version="1.1" creator="lgrs-site-migration" xmlns="http://www.topografix.com/GPX/1/1">
  <trk><name>georgie-raid-ski-rando-traversee</name>
    <trkseg>
      <trkpt lat="42.915706" lon="43.013326"></trkpt>
      <trkpt lat="42.91777" lon="43.01551"></trkpt>
      <trkpt lat="42.914976" lon="43.022965"></trkpt>
      <trkpt lat="42.915194" lon="43.026449"></trkpt>
      <trkpt lat="42.916272" lon="43.029111"></trkpt>
      <trkpt lat="42.916194" lon="43.033523"></trkpt>
      <trkpt lat="42.918617" lon="43.035195"></trkpt>
      <trkpt lat="42.918033" lon="43.03859"></trkpt>
      <trkpt lat="42.920211" lon="43.039856"></trkpt>
      <trkpt lat="42.921568" lon="43.04246"></trkpt>
      <trkpt lat="42.923287" lon="43.04272"></trkpt>
      <trkpt lat="42.92388" lon="43.049861"></trkpt>
      <trkpt lat="42.92804" lon="43.060826"></trkpt>
      <trkpt lat="42.927534" lon="43.065962"></trkpt>
      <trkpt lat="42.92855" lon="43.068621"></trkpt>
      <trkpt lat="42.931123" lon="43.071178"></trkpt>
      <trkpt lat="42.932179" lon="43.073439"></trkpt>
      <trkpt lat="42.931831" lon="43.076069"></trkpt>
      <trkpt lat="42.930048" lon="43.078375"></trkpt>
      <trkpt lat="42.931054" lon="43.090267"></trkpt>
      <trkpt lat="42.935468" lon="43.092734"></trkpt>
      <trkpt lat="42.936454" lon="43.094602"></trkpt>
      <trkpt lat="42.937639" lon="43.094764"></trkpt>
      <trkpt lat="42.943491" lon="43.090188"></trkpt>
      <trkpt lat="42.945801" lon="43.084999"></trkpt>
      <trkpt lat="42.948902" lon="43.082329"></trkpt>
      <trkpt lat="42.949595" lon="43.076678"></trkpt>
      <trkpt lat="42.950663" lon="43.075564"></trkpt>
      <trkpt lat="42.950491" lon="43.064074"></trkpt>
      <trkpt lat="42.951681" lon="43.062656"></trkpt>
      <trkpt lat="42.954955" lon="43.062698"></trkpt>
      <trkpt lat="42.956309" lon="43.060017"></trkpt>
      <trkpt lat="42.956109" lon="43.057536"></trkpt>
      <trkpt lat="42.957437" lon="43.055968"></trkpt>
      <trkpt lat="42.957389" lon="43.054572"></trkpt>
      <trkpt lat="42.958686" lon="43.053987"></trkpt>
      <trkpt lat="42.960328" lon="43.055342"></trkpt>
      <trkpt lat="42.970449" lon="43.055379"></trkpt>
      <trkpt lat="42.971406" lon="43.05751"></trkpt>
      <trkpt lat="42.972601" lon="43.056984"></trkpt>
      <trkpt lat="42.972721" lon="43.058159"></trkpt>
      <trkpt lat="42.974176" lon="43.057839"></trkpt>
      <trkpt lat="42.978179" lon="43.061933"></trkpt>
      <trkpt lat="42.978823" lon="43.059855"></trkpt>
      <trkpt lat="42.979753" lon="43.060197"></trkpt>
      <trkpt lat="42.979881" lon="43.059147"></trkpt>
      <trkpt lat="42.98252" lon="43.057417"></trkpt>
      <trkpt lat="42.985997" lon="43.041792"></trkpt>
      <trkpt lat="42.98712" lon="43.038995"></trkpt>
      <trkpt lat="42.990295" lon="43.036014"></trkpt>
      <trkpt lat="42.992377" lon="43.031903"></trkpt>
      <trkpt lat="42.992085" lon="43.028315"></trkpt>
      <trkpt lat="42.988686" lon="43.022435"></trkpt>
      <trkpt lat="42.984998" lon="43.018372"></trkpt>
      <trkpt lat="42.984406" lon="43.015342"></trkpt>
      <trkpt lat="42.98214" lon="43.014487"></trkpt>
      <trkpt lat="42.979457" lon="43.010101"></trkpt>
      <trkpt lat="42.975419" lon="43.006768"></trkpt>
      <trkpt lat="42.971319" lon="42.994026"></trkpt>
      <trkpt lat="42.969" lon="42.99198"></trkpt>
      <trkpt lat="42.967576" lon="42.988886"></trkpt>
      <trkpt lat="42.968372" lon="42.982579"></trkpt>
      <trkpt lat="42.967878" lon="42.979813"></trkpt>
      <trkpt lat="42.968786" lon="42.979084"></trkpt>
      <trkpt lat="42.970181" lon="42.981693"></trkpt>
      <trkpt lat="42.970099" lon="42.978595"></trkpt>
      <trkpt lat="42.971241" lon="42.977252"></trkpt>
      <trkpt lat="42.971911" lon="42.979972"></trkpt>
      <trkpt lat="42.973793" lon="42.981348"></trkpt>
      <trkpt lat="42.975406" lon="42.981284"></trkpt>
      <trkpt lat="42.975316" lon="42.981973"></trkpt>
      <trkpt lat="42.976999" lon="42.981976"></trkpt>
      <trkpt lat="42.978462" lon="42.984952"></trkpt>
      <trkpt lat="42.98355" lon="42.981807"></trkpt>
      <trkpt lat="42.985404" lon="42.97517"></trkpt>
      <trkpt lat="42.9845" lon="42.973486"></trkpt>
      <trkpt lat="42.985298" lon="42.971462"></trkpt>
      <trkpt lat="42.983902" lon="42.962141"></trkpt>
      <trkpt lat="42.984947" lon="42.954554"></trkpt>
      <trkpt lat="42.99371" lon="42.924769"></trkpt>
      <trkpt lat="42.996774" lon="42.919289"></trkpt>
      <trkpt lat="42.996962" lon="42.915781"></trkpt>
      <trkpt lat="42.997862" lon="42.914626"></trkpt>
      <trkpt lat="42.996637" lon="42.913877"></trkpt>
      <trkpt lat="42.997833" lon="42.91417"></trkpt>
      <trkpt lat="42.998684" lon="42.910272"></trkpt>
      <trkpt lat="42.999707" lon="42.909316"></trkpt>
      <trkpt lat="43.000367" lon="42.911646"></trkpt>
      <trkpt lat="43.000948" lon="42.911077"></trkpt>
      <trkpt lat="43.003122" lon="42.912464"></trkpt>
      <trkpt lat="43.00497" lon="42.91202"></trkpt>
      <trkpt lat="43.005046" lon="42.913069"></trkpt>
      <trkpt lat="43.005844" lon="42.913111"></trkpt>
      <trkpt lat="43.007687" lon="42.916258"></trkpt>
      <trkpt lat="43.009195" lon="42.915315"></trkpt>
      <trkpt lat="43.01446" lon="42.921568"></trkpt>
      <trkpt lat="43.015389" lon="42.921118"></trkpt>
      <trkpt lat="43.016789" lon="42.925048"></trkpt>
      <trkpt lat="43.017924" lon="42.925139"></trkpt>
      <trkpt lat="43.019575" lon="42.927438"></trkpt>
      <trkpt lat="43.022478" lon="42.928463"></trkpt>
      <trkpt lat="43.024489" lon="42.931034"></trkpt>
      <trkpt lat="43.028127" lon="42.932523"></trkpt>
      <trkpt lat="43.029063" lon="42.934949"></trkpt>
      <trkpt lat="43.028435" lon="42.936315"></trkpt>
      <trkpt lat="43.030765" lon="42.938554"></trkpt>
      <trkpt lat="43.031261" lon="42.937808"></trkpt>
      <trkpt lat="43.032319" lon="42.938241"></trkpt>
      <trkpt lat="43.032172" lon="42.939697"></trkpt>
      <trkpt lat="43.031799" lon="42.936015"></trkpt>
      <trkpt lat="43.036005" lon="42.934081"></trkpt>
      <trkpt lat="43.032625" lon="42.936116"></trkpt>
      <trkpt lat="43.031858" lon="42.935694"></trkpt>
      <trkpt lat="43.03242" lon="42.931839"></trkpt>
      <trkpt lat="43.033636" lon="42.930411"></trkpt>
      <trkpt lat="43.032955" lon="42.929442"></trkpt>
      <trkpt lat="43.033933" lon="42.925281"></trkpt>
      <trkpt lat="43.032953" lon="42.921434"></trkpt>
      <trkpt lat="43.035237" lon="42.91833"></trkpt>
      <trkpt lat="43.035939" lon="42.913583"></trkpt>
      <trkpt lat="43.038037" lon="42.911889"></trkpt>
      <trkpt lat="43.039261" lon="42.908884"></trkpt>
      <trkpt lat="43.038777" lon="42.908294"></trkpt>
      <trkpt lat="43.03973" lon="42.908681"></trkpt>
      <trkpt lat="43.040339" lon="42.902621"></trkpt>
      <trkpt lat="43.042828" lon="42.900618"></trkpt>
      <trkpt lat="43.044571" lon="42.895702"></trkpt>
      <trkpt lat="43.044407" lon="42.893936"></trkpt>
      <trkpt lat="43.048464" lon="42.889061"></trkpt>
      <trkpt lat="43.048919" lon="42.887534"></trkpt>
      <trkpt lat="43.048932" lon="42.884311"></trkpt>
      <trkpt lat="43.047875" lon="42.880922"></trkpt>
      <trkpt lat="43.048716" lon="42.876849"></trkpt>
      <trkpt lat="43.045641" lon="42.869477"></trkpt>
      <trkpt lat="43.046641" lon="42.866229"></trkpt>
      <trkpt lat="43.046428" lon="42.863796"></trkpt>
      <trkpt lat="43.047593" lon="42.86251"></trkpt>
      <trkpt lat="43.047482" lon="42.85758"></trkpt>
      <trkpt lat="43.045924" lon="42.85286"></trkpt>
      <trkpt lat="43.046361" lon="42.8452"></trkpt>
      <trkpt lat="43.044968" lon="42.842605"></trkpt>
      <trkpt lat="43.043495" lon="42.842139"></trkpt>
      <trkpt lat="43.043358" lon="42.834177"></trkpt>
      <trkpt lat="43.045074" lon="42.832675"></trkpt>
      <trkpt lat="43.045268" lon="42.830669"></trkpt>
      <trkpt lat="43.045995" lon="42.8305"></trkpt>
      <trkpt lat="43.046839" lon="42.827927"></trkpt>
      <trkpt lat="43.048773" lon="42.828859"></trkpt>
      <trkpt lat="43.049813" lon="42.819689"></trkpt>
      <trkpt lat="43.050993" lon="42.81823"></trkpt>
      <trkpt lat="43.050271" lon="42.817485"></trkpt>
      <trkpt lat="43.05101" lon="42.81445"></trkpt>
      <trkpt lat="43.050565" lon="42.812109"></trkpt>
      <trkpt lat="43.052008" lon="42.8121"></trkpt>
      <trkpt lat="43.051964" lon="42.805107"></trkpt>
      <trkpt lat="43.051274" lon="42.804266"></trkpt>
      <trkpt lat="43.053445" lon="42.800192"></trkpt>
      <trkpt lat="43.055664" lon="42.799304"></trkpt>
      <trkpt lat="43.056118" lon="42.798027"></trkpt>
      <trkpt lat="43.057363" lon="42.798027"></trkpt>
      <trkpt lat="43.058373" lon="42.796326"></trkpt>
      <trkpt lat="43.059535" lon="42.791006"></trkpt>
      <trkpt lat="43.059013" lon="42.786984"></trkpt>
      <trkpt lat="43.060746" lon="42.78388"></trkpt>
      <trkpt lat="43.059993" lon="42.780843"></trkpt>
      <trkpt lat="43.064645" lon="42.780888"></trkpt>
      <trkpt lat="43.064994" lon="42.780229"></trkpt>
      <trkpt lat="43.067409" lon="42.781318"></trkpt>
      <trkpt lat="43.064585" lon="42.776904"></trkpt>
      <trkpt lat="43.064051" lon="42.772056"></trkpt>
      <trkpt lat="43.063017" lon="42.771447"></trkpt>
      <trkpt lat="43.063554" lon="42.769694"></trkpt>
      <trkpt lat="43.061554" lon="42.765105"></trkpt>
      <trkpt lat="43.056468" lon="42.763351"></trkpt>
      <trkpt lat="43.052777" lon="42.760502"></trkpt>
      <trkpt lat="43.047023" lon="42.750736"></trkpt>
      <trkpt lat="43.043014" lon="42.741283"></trkpt>
      <trkpt lat="43.043443" lon="42.736379"></trkpt>
      <trkpt lat="43.045505" lon="42.739716"></trkpt>
      <trkpt lat="43.046459" lon="42.738726"></trkpt>
      <trkpt lat="43.044501" lon="42.734077"></trkpt>
      <trkpt lat="43.045526" lon="42.733086"></trkpt>
      <trkpt lat="43.049275" lon="42.736973"></trkpt>
      <trkpt lat="43.049688" lon="42.736578"></trkpt>
      <trkpt lat="43.049313" lon="42.737037"></trkpt>
      <trkpt lat="43.048625" lon="42.735195"></trkpt>
      <trkpt lat="43.049125" lon="42.734729"></trkpt>
      <trkpt lat="43.052295" lon="42.739086"></trkpt>
      <trkpt lat="43.060006" lon="42.740807"></trkpt>
      <trkpt lat="43.061141" lon="42.739944"></trkpt>
      <trkpt lat="43.062639" lon="42.740834"></trkpt>
      <trkpt lat="43.061934" lon="42.740052"></trkpt>
      <trkpt lat="43.064986" lon="42.739446"></trkpt>
      <trkpt lat="43.063052" lon="42.738632"></trkpt>
      <trkpt lat="43.063242" lon="42.737148"></trkpt>
      <trkpt lat="43.061431" lon="42.73624"></trkpt>
      <trkpt lat="43.061243" lon="42.735356"></trkpt>
      <trkpt lat="43.061628" lon="42.734773"></trkpt>
      <trkpt lat="43.062073" lon="42.735764"></trkpt>
      <trkpt lat="43.06297" lon="42.735219"></trkpt>
      <trkpt lat="43.067248" lon="42.727648"></trkpt>
      <trkpt lat="43.067491" lon="42.725993"></trkpt>
      <trkpt lat="43.066438" lon="42.725843"></trkpt>
      <trkpt lat="43.066303" lon="42.723958"></trkpt>
      <trkpt lat="43.067436" lon="42.721781"></trkpt>
      <trkpt lat="43.06685" lon="42.71754"></trkpt>
      <trkpt lat="43.069881" lon="42.711923"></trkpt>
      <trkpt lat="43.073175" lon="42.711269"></trkpt>
      <trkpt lat="43.075948" lon="42.713195"></trkpt>
      <trkpt lat="43.079022" lon="42.713195"></trkpt>
      <trkpt lat="43.080111" lon="42.714066"></trkpt>
      <trkpt lat="43.081776" lon="42.711105"></trkpt>
      <trkpt lat="43.084195" lon="42.709202"></trkpt>
      <trkpt lat="43.08876" lon="42.703012"></trkpt>
      <trkpt lat="43.088843" lon="42.701472"></trkpt>
      <trkpt lat="43.090226" lon="42.701191"></trkpt>
      <trkpt lat="43.091089" lon="42.698604"></trkpt>
      <trkpt lat="43.092446" lon="42.698613"></trkpt>
      <trkpt lat="43.0927" lon="42.697023"></trkpt>
      <trkpt lat="43.093485" lon="42.697427"></trkpt>
      <trkpt lat="43.093996" lon="42.695695"></trkpt>
      <trkpt lat="43.095247" lon="42.696302"></trkpt>
      <trkpt lat="43.096253" lon="42.695217"></trkpt>
      <trkpt lat="43.096802" lon="42.695643"></trkpt>
      <trkpt lat="43.097343" lon="42.693449"></trkpt>
      <trkpt lat="43.09834" lon="42.694836"></trkpt>
      <trkpt lat="43.098648" lon="42.690764"></trkpt>
      <trkpt lat="43.102206" lon="42.688926"></trkpt>
      <trkpt lat="43.102788" lon="42.691228"></trkpt>
      <trkpt lat="43.105087" lon="42.690033"></trkpt>
      <trkpt lat="43.104729" lon="42.688212"></trkpt>
      <trkpt lat="43.102827" lon="42.687886"></trkpt>
      <trkpt lat="43.102737" lon="42.686555"></trkpt>
      <trkpt lat="43.101608" lon="42.686951"></trkpt>
      <trkpt lat="43.10157" lon="42.68466"></trkpt>
      <trkpt lat="43.100487" lon="42.683611"></trkpt>
      <trkpt lat="43.10014" lon="42.684028"></trkpt>
      <trkpt lat="43.099626" lon="42.681586"></trkpt>
      <trkpt lat="43.101555" lon="42.682035"></trkpt>
      <trkpt lat="43.09951" lon="42.682112"></trkpt>
      <trkpt lat="43.097611" lon="42.679961"></trkpt>
      <trkpt lat="43.096386" lon="42.676725"></trkpt>
      <trkpt lat="43.094046" lon="42.67511"></trkpt>
      <trkpt lat="43.092523" lon="42.669104"></trkpt>
      <trkpt lat="43.089795" lon="42.664612"></trkpt>
      <trkpt lat="43.086804" lon="42.664765"></trkpt>
      <trkpt lat="43.083495" lon="42.654289"></trkpt>
      <trkpt lat="43.082725" lon="42.653973"></trkpt>
      <trkpt lat="43.083096" lon="42.648159"></trkpt>
      <trkpt lat="43.08162" lon="42.647542"></trkpt>
      <trkpt lat="43.080084" lon="42.648972"></trkpt>
      <trkpt lat="43.079703" lon="42.646143"></trkpt>
      <trkpt lat="43.078126" lon="42.643593"></trkpt>
      <trkpt lat="43.077831" lon="42.638777"></trkpt>
      <trkpt lat="43.075967" lon="42.636464"></trkpt>
      <trkpt lat="43.07467" lon="42.631508"></trkpt>
      <trkpt lat="43.070765" lon="42.627993"></trkpt>
      <trkpt lat="43.068205" lon="42.622896"></trkpt>
      <trkpt lat="43.068867" lon="42.614884"></trkpt>
      <trkpt lat="43.070487" lon="42.613524"></trkpt>
      <trkpt lat="43.07082" lon="42.611823"></trkpt>
      <trkpt lat="43.073067" lon="42.612105"></trkpt>
      <trkpt lat="43.075788" lon="42.610729"></trkpt>
      <trkpt lat="43.077659" lon="42.605946"></trkpt>
      <trkpt lat="43.080276" lon="42.602355"></trkpt>
      <trkpt lat="43.078677" lon="42.598305"></trkpt>
      <trkpt lat="43.077544" lon="42.596927"></trkpt>
      <trkpt lat="43.07495" lon="42.598378"></trkpt>
      <trkpt lat="43.073766" lon="42.593548"></trkpt>
      <trkpt lat="43.074172" lon="42.591565"></trkpt>
      <trkpt lat="43.073" lon="42.591773"></trkpt>
      <trkpt lat="43.072449" lon="42.593544"></trkpt>
      <trkpt lat="43.069057" lon="42.593992"></trkpt>
      <trkpt lat="43.068771" lon="42.592824"></trkpt>
      <trkpt lat="43.06565" lon="42.590656"></trkpt>
      <trkpt lat="43.065578" lon="42.592465"></trkpt>
      <trkpt lat="43.064098" lon="42.595298"></trkpt>
      <trkpt lat="43.062879" lon="42.593237"></trkpt>
      <trkpt lat="43.061525" lon="42.592619"></trkpt>
      <trkpt lat="43.060465" lon="42.58891"></trkpt>
      <trkpt lat="43.058807" lon="42.589053"></trkpt>
      <trkpt lat="43.058188" lon="42.587312"></trkpt>
      <trkpt lat="43.059887" lon="42.583347"></trkpt>
      <trkpt lat="43.063307" lon="42.579627"></trkpt>
      <trkpt lat="43.063497" lon="42.575887"></trkpt>
      <trkpt lat="43.061924" lon="42.570954"></trkpt>
      <trkpt lat="43.062668" lon="42.568197"></trkpt>
      <trkpt lat="43.064302" lon="42.566091"></trkpt>
      <trkpt lat="43.066882" lon="42.564628"></trkpt>
      <trkpt lat="43.069631" lon="42.564405"></trkpt>
      <trkpt lat="43.07563" lon="42.560338"></trkpt>
      <trkpt lat="43.076811" lon="42.560521"></trkpt>
      <trkpt lat="43.076909" lon="42.559394"></trkpt>
      <trkpt lat="43.077611" lon="42.559951"></trkpt>
      <trkpt lat="43.078319" lon="42.558595"></trkpt>
      <trkpt lat="43.079222" lon="42.559619"></trkpt>
      <trkpt lat="43.079637" lon="42.558523"></trkpt>
      <trkpt lat="43.082017" lon="42.559212"></trkpt>
      <trkpt lat="43.084239" lon="42.55862"></trkpt>
      <trkpt lat="43.084854" lon="42.559219"></trkpt>
      <trkpt lat="43.085502" lon="42.558499"></trkpt>
      <trkpt lat="43.085469" lon="42.559215"></trkpt>
      <trkpt lat="43.089025" lon="42.558033"></trkpt>
      <trkpt lat="43.088937" lon="42.558684"></trkpt>
      <trkpt lat="43.090195" lon="42.558135"></trkpt>
      <trkpt lat="43.092002" lon="42.560035"></trkpt>
      <trkpt lat="43.093501" lon="42.560465"></trkpt>
      <trkpt lat="43.093586" lon="42.559476"></trkpt>
      <trkpt lat="43.091516" lon="42.55685"></trkpt>
      <trkpt lat="43.090616" lon="42.554223"></trkpt>
      <trkpt lat="43.085832" lon="42.549315"></trkpt>
      <trkpt lat="43.083838" lon="42.54819"></trkpt>
      <trkpt lat="43.078575" lon="42.547755"></trkpt>
      <trkpt lat="43.078038" lon="42.546459"></trkpt>
      <trkpt lat="43.075257" lon="42.54648"></trkpt>
      <trkpt lat="43.071047" lon="42.544745"></trkpt>
      <trkpt lat="43.06927" lon="42.541544"></trkpt>
      <trkpt lat="43.064356" lon="42.539313"></trkpt>
      <trkpt lat="43.060769" lon="42.536133"></trkpt>
      <trkpt lat="43.05872" lon="42.533075"></trkpt>
      <trkpt lat="43.056524" lon="42.532896"></trkpt>
      <trkpt lat="43.053053" lon="42.530739"></trkpt>
      <trkpt lat="43.052988" lon="42.527897"></trkpt>
      <trkpt lat="43.051871" lon="42.526544"></trkpt>
    </trkseg>
  </trk>
</gpx>