<?xml version="1.0" encoding="UTF-8"?>
<gpx version="1.1" creator="lgrs-site-migration" xmlns="http://www.topografix.com/GPX/1/1">
  <trk><name>raid-ski-kazakhstan-ile-alatau</name>
    <trkseg>
      <trkpt lat="43.1129376" lon="77.1112803"></trkpt>
      <trkpt lat="43.1126228" lon="77.110806"></trkpt>
      <trkpt lat="43.1121568" lon="77.1106821"></trkpt>
      <trkpt lat="43.1100483" lon="77.1119525"></trkpt>
      <trkpt lat="43.109529" lon="77.1120374"></trkpt>
      <trkpt lat="43.1088695" lon="77.1114103"></trkpt>
      <trkpt lat="43.1076187" lon="77.1106677"></trkpt>
      <trkpt lat="43.1067998" lon="77.1106513"></trkpt>
      <trkpt lat="43.1060183" lon="77.1115051"></trkpt>
      <trkpt lat="43.1061169" lon="77.1124623"></trkpt>
      <trkpt lat="43.1057583" lon="77.1124914"></trkpt>
      <trkpt lat="43.1055948" lon="77.1128939"></trkpt>
      <trkpt lat="43.1050897" lon="77.1128672"></trkpt>
      <trkpt lat="43.104439" lon="77.1125787"></trkpt>
      <trkpt lat="43.1037826" lon="77.1124941"></trkpt>
      <trkpt lat="43.1033685" lon="77.1122463"></trkpt>
      <trkpt lat="43.1031371" lon="77.1118267"></trkpt>
      <trkpt lat="43.1026426" lon="77.1116247"></trkpt>
      <trkpt lat="43.1027315" lon="77.1111331"></trkpt>
      <trkpt lat="43.1024545" lon="77.110107"></trkpt>
      <trkpt lat="43.1016755" lon="77.1088532"></trkpt>
      <trkpt lat="43.1010835" lon="77.1081834"></trkpt>
      <trkpt lat="43.1005688" lon="77.1077195"></trkpt>
      <trkpt lat="43.0993597" lon="77.1069397"></trkpt>
      <trkpt lat="43.0990203" lon="77.1065587"></trkpt>
      <trkpt lat="43.0983886" lon="77.1063739"></trkpt>
      <trkpt lat="43.0981117" lon="77.1060199"></trkpt>
      <trkpt lat="43.0978952" lon="77.1061093"></trkpt>
      <trkpt lat="43.098111" lon="77.1059434"></trkpt>
      <trkpt lat="43.097888" lon="77.1060746"></trkpt>
      <trkpt lat="43.0977717" lon="77.1058376"></trkpt>
      <trkpt lat="43.0979087" lon="77.1060716"></trkpt>
      <trkpt lat="43.09784" lon="77.1057185"></trkpt>
      <trkpt lat="43.0973799" lon="77.105179"></trkpt>
      <trkpt lat="43.0967467" lon="77.1046288"></trkpt>
      <trkpt lat="43.0967558" lon="77.1049663"></trkpt>
      <trkpt lat="43.0964072" lon="77.105058"></trkpt>
      <trkpt lat="43.0959734" lon="77.1049427"></trkpt>
      <trkpt lat="43.0956091" lon="77.1049908"></trkpt>
      <trkpt lat="43.0953085" lon="77.1048571"></trkpt>
      <trkpt lat="43.094963" lon="77.1051212"></trkpt>
      <trkpt lat="43.0938715" lon="77.1050308"></trkpt>
      <trkpt lat="43.0931011" lon="77.1046626"></trkpt>
      <trkpt lat="43.0917984" lon="77.1049124"></trkpt>
      <trkpt lat="43.0914158" lon="77.1045446"></trkpt>
      <trkpt lat="43.0904431" lon="77.1043626"></trkpt>
      <trkpt lat="43.0900251" lon="77.1041515"></trkpt>
      <trkpt lat="43.089256" lon="77.1041995"></trkpt>
      <trkpt lat="43.0893245" lon="77.1040515"></trkpt>
      <trkpt lat="43.0887295" lon="77.1043862"></trkpt>
      <trkpt lat="43.0884551" lon="77.104662"></trkpt>
      <trkpt lat="43.0882527" lon="77.1045598"></trkpt>
      <trkpt lat="43.0880938" lon="77.1046032"></trkpt>
      <trkpt lat="43.0873856" lon="77.1039322"></trkpt>
      <trkpt lat="43.0871262" lon="77.1035751"></trkpt>
      <trkpt lat="43.0869153" lon="77.1029991"></trkpt>
      <trkpt lat="43.0860184" lon="77.1014261"></trkpt>
      <trkpt lat="43.0859034" lon="77.1010183"></trkpt>
      <trkpt lat="43.085804" lon="77.1009934"></trkpt>
      <trkpt lat="43.0856444" lon="77.1010868"></trkpt>
      <trkpt lat="43.0853466" lon="77.1016101"></trkpt>
      <trkpt lat="43.0853093" lon="77.1022939"></trkpt>
      <trkpt lat="43.0850449" lon="77.1024833"></trkpt>
      <trkpt lat="43.0848847" lon="77.1022873"></trkpt>
      <trkpt lat="43.0847778" lon="77.1025678"></trkpt>
      <trkpt lat="43.0848311" lon="77.1024729"></trkpt>
      <trkpt lat="43.0846829" lon="77.1020975"></trkpt>
      <trkpt lat="43.0845727" lon="77.1019663"></trkpt>
      <trkpt lat="43.0844321" lon="77.1021038"></trkpt>
      <trkpt lat="43.0841304" lon="77.1017544"></trkpt>
      <trkpt lat="43.0840933" lon="77.1018871"></trkpt>
      <trkpt lat="43.0842548" lon="77.1026197"></trkpt>
      <trkpt lat="43.0837627" lon="77.1021671"></trkpt>
      <trkpt lat="43.0839097" lon="77.1021746"></trkpt>
      <trkpt lat="43.0835451" lon="77.1020793"></trkpt>
      <trkpt lat="43.0835601" lon="77.1018922"></trkpt>
      <trkpt lat="43.0830817" lon="77.1023938"></trkpt>
      <trkpt lat="43.0830465" lon="77.1021072"></trkpt>
      <trkpt lat="43.0825731" lon="77.1021278"></trkpt>
      <trkpt lat="43.0823942" lon="77.1022409"></trkpt>
      <trkpt lat="43.0819253" lon="77.101377"></trkpt>
      <trkpt lat="43.081504" lon="77.1009903"></trkpt>
      <trkpt lat="43.0813173" lon="77.1006153"></trkpt>
      <trkpt lat="43.0811023" lon="77.1005403"></trkpt>
      <trkpt lat="43.0811142" lon="77.100249"></trkpt>
      <trkpt lat="43.0809205" lon="77.1000958"></trkpt>
      <trkpt lat="43.0802996" lon="77.099955"></trkpt>
      <trkpt lat="43.0800289" lon="77.0990199"></trkpt>
      <trkpt lat="43.0797133" lon="77.0985005"></trkpt>
      <trkpt lat="43.0796212" lon="77.0981327"></trkpt>
      <trkpt lat="43.0794126" lon="77.0981153"></trkpt>
      <trkpt lat="43.0788856" lon="77.0977274"></trkpt>
      <trkpt lat="43.0786604" lon="77.0974093"></trkpt>
      <trkpt lat="43.0791103" lon="77.0972105"></trkpt>
      <trkpt lat="43.0792267" lon="77.096812"></trkpt>
      <trkpt lat="43.0789429" lon="77.0964322"></trkpt>
      <trkpt lat="43.0786317" lon="77.0963875"></trkpt>
      <trkpt lat="43.0786395" lon="77.0959117"></trkpt>
      <trkpt lat="43.0780662" lon="77.0961006"></trkpt>
      <trkpt lat="43.0777006" lon="77.0957386"></trkpt>
      <trkpt lat="43.077723" lon="77.0950875"></trkpt>
      <trkpt lat="43.0775929" lon="77.0947848"></trkpt>
      <trkpt lat="43.0773943" lon="77.0946785"></trkpt>
      <trkpt lat="43.0771038" lon="77.0935043"></trkpt>
      <trkpt lat="43.0767944" lon="77.091207"></trkpt>
      <trkpt lat="43.0767079" lon="77.0896978"></trkpt>
      <trkpt lat="43.0764029" lon="77.0889909"></trkpt>
      <trkpt lat="43.0760833" lon="77.0885606"></trkpt>
      <trkpt lat="43.0761041" lon="77.0881512"></trkpt>
      <trkpt lat="43.0759438" lon="77.0878595"></trkpt>
      <trkpt lat="43.0755259" lon="77.087546"></trkpt>
      <trkpt lat="43.0756931" lon="77.0874524"></trkpt>
      <trkpt lat="43.075604" lon="77.0872237"></trkpt>
      <trkpt lat="43.0754994" lon="77.087177"></trkpt>
      <trkpt lat="43.0755605" lon="77.0869721"></trkpt>
      <trkpt lat="43.075345" lon="77.0866065"></trkpt>
      <trkpt lat="43.0752183" lon="77.0866053"></trkpt>
      <trkpt lat="43.074924" lon="77.0863299"></trkpt>
      <trkpt lat="43.073884" lon="77.0864855"></trkpt>
      <trkpt lat="43.0737127" lon="77.0863216"></trkpt>
      <trkpt lat="43.073679" lon="77.0864508"></trkpt>
      <trkpt lat="43.0731548" lon="77.0862726"></trkpt>
      <trkpt lat="43.0728738" lon="77.0860489"></trkpt>
      <trkpt lat="43.0726851" lon="77.0856452"></trkpt>
      <trkpt lat="43.0720147" lon="77.0851928"></trkpt>
      <trkpt lat="43.0715629" lon="77.084438"></trkpt>
      <trkpt lat="43.0711887" lon="77.0842644"></trkpt>
      <trkpt lat="43.071036" lon="77.0840417"></trkpt>
      <trkpt lat="43.0705947" lon="77.0839802"></trkpt>
      <trkpt lat="43.0701451" lon="77.0833531"></trkpt>
      <trkpt lat="43.0699181" lon="77.0832821"></trkpt>
      <trkpt lat="43.0695394" lon="77.0833539"></trkpt>
      <trkpt lat="43.0694018" lon="77.0836897"></trkpt>
      <trkpt lat="43.069086" lon="77.0834106"></trkpt>
      <trkpt lat="43.0689687" lon="77.0835234"></trkpt>
      <trkpt lat="43.0688773" lon="77.083391"></trkpt>
      <trkpt lat="43.0684138" lon="77.0835683"></trkpt>
      <trkpt lat="43.0682653" lon="77.0835196"></trkpt>
      <trkpt lat="43.0676839" lon="77.0839935"></trkpt>
      <trkpt lat="43.0676388" lon="77.0839063"></trkpt>
      <trkpt lat="43.067456" lon="77.083906"></trkpt>
      <trkpt lat="43.0670917" lon="77.0826521"></trkpt>
      <trkpt lat="43.0670642" lon="77.0823838"></trkpt>
      <trkpt lat="43.067181" lon="77.0823517"></trkpt>
      <trkpt lat="43.0671532" lon="77.0815407"></trkpt>
      <trkpt lat="43.0670292" lon="77.0812794"></trkpt>
      <trkpt lat="43.0663617" lon="77.0811096"></trkpt>
      <trkpt lat="43.0659132" lon="77.0817269"></trkpt>
      <trkpt lat="43.0655598" lon="77.0819992"></trkpt>
      <trkpt lat="43.0654483" lon="77.0823515"></trkpt>
      <trkpt lat="43.0651848" lon="77.082323"></trkpt>
      <trkpt lat="43.0641667" lon="77.0828405"></trkpt>
      <trkpt lat="43.0637997" lon="77.082785"></trkpt>
      <trkpt lat="43.0635704" lon="77.0825671"></trkpt>
      <trkpt lat="43.063508" lon="77.0829265"></trkpt>
      <trkpt lat="43.0630023" lon="77.0827721"></trkpt>
      <trkpt lat="43.0629147" lon="77.0828466"></trkpt>
      <trkpt lat="43.0624158" lon="77.0828872"></trkpt>
      <trkpt lat="43.0624331" lon="77.0830501"></trkpt>
      <trkpt lat="43.0619266" lon="77.0827943"></trkpt>
      <trkpt lat="43.0615118" lon="77.0829039"></trkpt>
      <trkpt lat="43.0614338" lon="77.082811"></trkpt>
      <trkpt lat="43.0612074" lon="77.0829497"></trkpt>
      <trkpt lat="43.0612203" lon="77.0828577"></trkpt>
      <trkpt lat="43.0610403" lon="77.0829205"></trkpt>
      <trkpt lat="43.0611274" lon="77.0828489"></trkpt>
      <trkpt lat="43.0612285" lon="77.0829905"></trkpt>
      <trkpt lat="43.0606885" lon="77.0832423"></trkpt>
      <trkpt lat="43.0603517" lon="77.0830503"></trkpt>
      <trkpt lat="43.0598985" lon="77.0831923"></trkpt>
      <trkpt lat="43.0584082" lon="77.0832941"></trkpt>
      <trkpt lat="43.0575551" lon="77.0832378"></trkpt>
      <trkpt lat="43.0569968" lon="77.0830748"></trkpt>
      <trkpt lat="43.056288" lon="77.0831421"></trkpt>
      <trkpt lat="43.0554773" lon="77.0830438"></trkpt>
      <trkpt lat="43.0538333" lon="77.0826174"></trkpt>
      <trkpt lat="43.053042" lon="77.0816302"></trkpt>
      <trkpt lat="43.0514942" lon="77.0819426"></trkpt>
      <trkpt lat="43.0506046" lon="77.0812711"></trkpt>
      <trkpt lat="43.0491351" lon="77.0805067"></trkpt>
      <trkpt lat="43.0482394" lon="77.0802216"></trkpt>
      <trkpt lat="43.0475878" lon="77.0801901"></trkpt>
      <trkpt lat="43.0466972" lon="77.0803449"></trkpt>
      <trkpt lat="43.04633" lon="77.0803207"></trkpt>
      <trkpt lat="43.045579" lon="77.0805186"></trkpt>
      <trkpt lat="43.0444544" lon="77.0805792"></trkpt>
      <trkpt lat="43.0440638" lon="77.0807061"></trkpt>
      <trkpt lat="43.0428342" lon="77.080668"></trkpt>
      <trkpt lat="43.0414391" lon="77.0803421"></trkpt>
      <trkpt lat="43.0403492" lon="77.0802845"></trkpt>
      <trkpt lat="43.0402197" lon="77.0806079"></trkpt>
      <trkpt lat="43.0401036" lon="77.0806497"></trkpt>
      <trkpt lat="43.0399269" lon="77.0812151"></trkpt>
      <trkpt lat="43.0399718" lon="77.0813902"></trkpt>
      <trkpt lat="43.0394123" lon="77.0807211"></trkpt>
      <trkpt lat="43.0393634" lon="77.0813452"></trkpt>
      <trkpt lat="43.039163" lon="77.0808671"></trkpt>
      <trkpt lat="43.0389466" lon="77.081096"></trkpt>
      <trkpt lat="43.0387612" lon="77.0816645"></trkpt>
      <trkpt lat="43.0384757" lon="77.0818656"></trkpt>
      <trkpt lat="43.0384081" lon="77.0820553"></trkpt>
      <trkpt lat="43.0380824" lon="77.0822712"></trkpt>
      <trkpt lat="43.0379806" lon="77.0825894"></trkpt>
      <trkpt lat="43.0372111" lon="77.0829344"></trkpt>
      <trkpt lat="43.0369762" lon="77.0824879"></trkpt>
      <trkpt lat="43.0370589" lon="77.0835466"></trkpt>
      <trkpt lat="43.0371792" lon="77.0834357"></trkpt>
      <trkpt lat="43.0372646" lon="77.0838488"></trkpt>
      <trkpt lat="43.0375264" lon="77.0840019"></trkpt>
      <trkpt lat="43.0370422" lon="77.0842495"></trkpt>
      <trkpt lat="43.0367662" lon="77.083932"></trkpt>
      <trkpt lat="43.0365991" lon="77.0842366"></trkpt>
      <trkpt lat="43.0366073" lon="77.0844097"></trkpt>
      <trkpt lat="43.0364296" lon="77.0838978"></trkpt>
      <trkpt lat="43.0367718" lon="77.0853308"></trkpt>
      <trkpt lat="43.0365207" lon="77.0853231"></trkpt>
      <trkpt lat="43.0363326" lon="77.0854485"></trkpt>
      <trkpt lat="43.0363523" lon="77.085237"></trkpt>
      <trkpt lat="43.0364717" lon="77.0855016"></trkpt>
      <trkpt lat="43.036715" lon="77.085644"></trkpt>
      <trkpt lat="43.0364435" lon="77.0856643"></trkpt>
      <trkpt lat="43.0361928" lon="77.0859709"></trkpt>
      <trkpt lat="43.036502" lon="77.0859455"></trkpt>
      <trkpt lat="43.036498" lon="77.0860011"></trkpt>
      <trkpt lat="43.0370942" lon="77.0861396"></trkpt>
      <trkpt lat="43.0370204" lon="77.0868174"></trkpt>
      <trkpt lat="43.0372836" lon="77.0865761"></trkpt>
      <trkpt lat="43.0373256" lon="77.0878185"></trkpt>
      <trkpt lat="43.0371587" lon="77.0878016"></trkpt>
      <trkpt lat="43.0373178" lon="77.0879759"></trkpt>
      <trkpt lat="43.0371071" lon="77.0882343"></trkpt>
      <trkpt lat="43.0370111" lon="77.0881831"></trkpt>
      <trkpt lat="43.0374379" lon="77.0885192"></trkpt>
      <trkpt lat="43.037684" lon="77.0884844"></trkpt>
      <trkpt lat="43.0375145" lon="77.0888289"></trkpt>
      <trkpt lat="43.0381044" lon="77.0883059"></trkpt>
      <trkpt lat="43.0382875" lon="77.0878463"></trkpt>
      <trkpt lat="43.038526" lon="77.0879935"></trkpt>
      <trkpt lat="43.0385735" lon="77.0881294"></trkpt>
      <trkpt lat="43.0387856" lon="77.0881938"></trkpt>
      <trkpt lat="43.0392884" lon="77.0892517"></trkpt>
      <trkpt lat="43.0399447" lon="77.0892328"></trkpt>
      <trkpt lat="43.0392762" lon="77.0895311"></trkpt>
      <trkpt lat="43.0399498" lon="77.0907717"></trkpt>
      <trkpt lat="43.0400155" lon="77.0913461"></trkpt>
      <trkpt lat="43.0398731" lon="77.0914628"></trkpt>
      <trkpt lat="43.0400109" lon="77.0923037"></trkpt>
      <trkpt lat="43.040349" lon="77.0925663"></trkpt>
      <trkpt lat="43.0406656" lon="77.0929752"></trkpt>
      <trkpt lat="43.040967" lon="77.0931708"></trkpt>
      <trkpt lat="43.0404789" lon="77.0939632"></trkpt>
      <trkpt lat="43.0407893" lon="77.094107"></trkpt>
      <trkpt lat="43.0410688" lon="77.094561"></trkpt>
      <trkpt lat="43.0411782" lon="77.0949548"></trkpt>
      <trkpt lat="43.0410932" lon="77.0951307"></trkpt>
      <trkpt lat="43.0414743" lon="77.0956879"></trkpt>
      <trkpt lat="43.0413438" lon="77.0956615"></trkpt>
      <trkpt lat="43.0408215" lon="77.0960874"></trkpt>
      <trkpt lat="43.0402918" lon="77.0979262"></trkpt>
      <trkpt lat="43.0402069" lon="77.0986077"></trkpt>
      <trkpt lat="43.040266" lon="77.0991051"></trkpt>
      <trkpt lat="43.0406624" lon="77.0998097"></trkpt>
      <trkpt lat="43.0402405" lon="77.1002796"></trkpt>
      <trkpt lat="43.0392312" lon="77.1007933"></trkpt>
      <trkpt lat="43.0392372" lon="77.1011794"></trkpt>
      <trkpt lat="43.0395942" lon="77.1014135"></trkpt>
      <trkpt lat="43.0395697" lon="77.1014725"></trkpt>
      <trkpt lat="43.0388" lon="77.1018799"></trkpt>
      <trkpt lat="43.0384169" lon="77.1025167"></trkpt>
      <trkpt lat="43.0382024" lon="77.1032042"></trkpt>
      <trkpt lat="43.0379409" lon="77.1033854"></trkpt>
      <trkpt lat="43.0371942" lon="77.1049243"></trkpt>
      <trkpt lat="43.0360879" lon="77.1055659"></trkpt>
      <trkpt lat="43.0358742" lon="77.1062137"></trkpt>
      <trkpt lat="43.0358201" lon="77.1066762"></trkpt>
      <trkpt lat="43.0354326" lon="77.10764"></trkpt>
      <trkpt lat="43.0353191" lon="77.1081393"></trkpt>
      <trkpt lat="43.0350007" lon="77.108547"></trkpt>
      <trkpt lat="43.0348215" lon="77.1091126"></trkpt>
      <trkpt lat="43.0347977" lon="77.1097339"></trkpt>
      <trkpt lat="43.034112" lon="77.1133164"></trkpt>
      <trkpt lat="43.0342178" lon="77.1139926"></trkpt>
      <trkpt lat="43.0343791" lon="77.1143558"></trkpt>
      <trkpt lat="43.0342479" lon="77.1163437"></trkpt>
      <trkpt lat="43.0345048" lon="77.1172675"></trkpt>
      <trkpt lat="43.0343321" lon="77.1193625"></trkpt>
      <trkpt lat="43.0344216" lon="77.1205395"></trkpt>
      <trkpt lat="43.0340283" lon="77.1218139"></trkpt>
      <trkpt lat="43.0338268" lon="77.1219195"></trkpt>
      <trkpt lat="43.0329916" lon="77.1232364"></trkpt>
      <trkpt lat="43.0328984" lon="77.1235603"></trkpt>
      <trkpt lat="43.0329451" lon="77.124669"></trkpt>
      <trkpt lat="43.0328719" lon="77.1262219"></trkpt>
      <trkpt lat="43.0329329" lon="77.1263302"></trkpt>
      <trkpt lat="43.0326903" lon="77.1275044"></trkpt>
      <trkpt lat="43.0325702" lon="77.1280672"></trkpt>
      <trkpt lat="43.0311282" lon="77.1320751"></trkpt>
      <trkpt lat="43.0312753" lon="77.132248"></trkpt>
      <trkpt lat="43.0318177" lon="77.1325031"></trkpt>
      <trkpt lat="43.0320538" lon="77.1343478"></trkpt>
      <trkpt lat="43.0323975" lon="77.1356795"></trkpt>
      <trkpt lat="43.0328441" lon="77.1368261"></trkpt>
      <trkpt lat="43.0329687" lon="77.1380544"></trkpt>
      <trkpt lat="43.0330798" lon="77.1382085"></trkpt>
      <trkpt lat="43.0332512" lon="77.1381384"></trkpt>
      <trkpt lat="43.0336076" lon="77.1382831"></trkpt>
      <trkpt lat="43.0340217" lon="77.1386256"></trkpt>
      <trkpt lat="43.0345333" lon="77.1393291"></trkpt>
      <trkpt lat="43.034948" lon="77.1396285"></trkpt>
      <trkpt lat="43.0362337" lon="77.1408662"></trkpt>
      <trkpt lat="43.0369079" lon="77.1421222"></trkpt>
      <trkpt lat="43.0369282" lon="77.1427707"></trkpt>
      <trkpt lat="43.0371196" lon="77.143917"></trkpt>
      <trkpt lat="43.0368772" lon="77.1446796"></trkpt>
      <trkpt lat="43.0369514" lon="77.1448455"></trkpt>
      <trkpt lat="43.0369193" lon="77.145113"></trkpt>
      <trkpt lat="43.0367341" lon="77.1457731"></trkpt>
      <trkpt lat="43.0369395" lon="77.1460659"></trkpt>
      <trkpt lat="43.0369307" lon="77.1468606"></trkpt>
      <trkpt lat="43.0373014" lon="77.1479833"></trkpt>
      <trkpt lat="43.0373059" lon="77.1491054"></trkpt>
      <trkpt lat="43.0375742" lon="77.1498705"></trkpt>
      <trkpt lat="43.0378023" lon="77.1510861"></trkpt>
      <trkpt lat="43.0376825" lon="77.1518499"></trkpt>
      <trkpt lat="43.0384099" lon="77.1528399"></trkpt>
      <trkpt lat="43.0388998" lon="77.1537574"></trkpt>
      <trkpt lat="43.0390129" lon="77.1542592"></trkpt>
      <trkpt lat="43.0400915" lon="77.1553192"></trkpt>
      <trkpt lat="43.0402004" lon="77.1553212"></trkpt>
      <trkpt lat="43.0405462" lon="77.1557502"></trkpt>
      <trkpt lat="43.0406058" lon="77.155947"></trkpt>
      <trkpt lat="43.0404677" lon="77.1559563"></trkpt>
      <trkpt lat="43.0405243" lon="77.156019"></trkpt>
      <trkpt lat="43.0405499" lon="77.1559314"></trkpt>
      <trkpt lat="43.0406298" lon="77.1559611"></trkpt>
      <trkpt lat="43.0406954" lon="77.1563029"></trkpt>
      <trkpt lat="43.0405588" lon="77.1559471"></trkpt>
      <trkpt lat="43.0406001" lon="77.156036"></trkpt>
      <trkpt lat="43.0407194" lon="77.1559742"></trkpt>
      <trkpt lat="43.0406339" lon="77.1560608"></trkpt>
      <trkpt lat="43.0404643" lon="77.1559906"></trkpt>
      <trkpt lat="43.0403425" lon="77.1561799"></trkpt>
      <trkpt lat="43.0403618" lon="77.1564564"></trkpt>
      <trkpt lat="43.0402876" lon="77.1565783"></trkpt>
      <trkpt lat="43.0403718" lon="77.1568955"></trkpt>
      <trkpt lat="43.040363" lon="77.1575353"></trkpt>
      <trkpt lat="43.0401576" lon="77.1578467"></trkpt>
      <trkpt lat="43.0401841" lon="77.158457"></trkpt>
      <trkpt lat="43.03985" lon="77.1587317"></trkpt>
      <trkpt lat="43.0396917" lon="77.1585726"></trkpt>
      <trkpt lat="43.0396557" lon="77.1586309"></trkpt>
      <trkpt lat="43.0398752" lon="77.1589364"></trkpt>
      <trkpt lat="43.0399504" lon="77.1593029"></trkpt>
      <trkpt lat="43.039783" lon="77.1594208"></trkpt>
      <trkpt lat="43.0393139" lon="77.1594982"></trkpt>
      <trkpt lat="43.0390615" lon="77.1594277"></trkpt>
      <trkpt lat="43.0390406" lon="77.1597004"></trkpt>
      <trkpt lat="43.0390703" lon="77.1594088"></trkpt>
      <trkpt lat="43.0385" lon="77.1589665"></trkpt>
      <trkpt lat="43.037907" lon="77.1586498"></trkpt>
      <trkpt lat="43.0372504" lon="77.1580699"></trkpt>
      <trkpt lat="43.0370498" lon="77.1584014"></trkpt>
      <trkpt lat="43.037138" lon="77.1589367"></trkpt>
      <trkpt lat="43.0366946" lon="77.1587565"></trkpt>
      <trkpt lat="43.0361609" lon="77.1593001"></trkpt>
      <trkpt lat="43.0356894" lon="77.1593032"></trkpt>
      <trkpt lat="43.035311" lon="77.1590199"></trkpt>
      <trkpt lat="43.0347262" lon="77.1591193"></trkpt>
      <trkpt lat="43.0341526" lon="77.1593209"></trkpt>
      <trkpt lat="43.0339135" lon="77.1599648"></trkpt>
      <trkpt lat="43.0337351" lon="77.1598682"></trkpt>
      <trkpt lat="43.0331948" lon="77.1600075"></trkpt>
      <trkpt lat="43.0331121" lon="77.1596802"></trkpt>
      <trkpt lat="43.0331034" lon="77.1600095"></trkpt>
      <trkpt lat="43.0331134" lon="77.159547"></trkpt>
      <trkpt lat="43.0328706" lon="77.1599139"></trkpt>
      <trkpt lat="43.0329827" lon="77.1598907"></trkpt>
      <trkpt lat="43.0322725" lon="77.1597942"></trkpt>
      <trkpt lat="43.0321722" lon="77.1600055"></trkpt>
      <trkpt lat="43.0309122" lon="77.1597518"></trkpt>
      <trkpt lat="43.0300345" lon="77.1592686"></trkpt>
      <trkpt lat="43.0295877" lon="77.1588902"></trkpt>
      <trkpt lat="43.0292208" lon="77.1584167"></trkpt>
      <trkpt lat="43.0284832" lon="77.158857"></trkpt>
      <trkpt lat="43.0279036" lon="77.1586874"></trkpt>
      <trkpt lat="43.0274869" lon="77.1590211"></trkpt>
      <trkpt lat="43.0267072" lon="77.1591808"></trkpt>
      <trkpt lat="43.0266087" lon="77.1590645"></trkpt>
      <trkpt lat="43.0261291" lon="77.1590317"></trkpt>
      <trkpt lat="43.025518" lon="77.158661"></trkpt>
      <trkpt lat="43.0251236" lon="77.158638"></trkpt>
      <trkpt lat="43.0251577" lon="77.1582285"></trkpt>
      <trkpt lat="43.0249918" lon="77.1579766"></trkpt>
      <trkpt lat="43.0241556" lon="77.1578604"></trkpt>
      <trkpt lat="43.0236323" lon="77.1575349"></trkpt>
      <trkpt lat="43.0233682" lon="77.1572529"></trkpt>
      <trkpt lat="43.0228681" lon="77.1571341"></trkpt>
      <trkpt lat="43.0217089" lon="77.1557979"></trkpt>
      <trkpt lat="43.0208629" lon="77.155403"></trkpt>
      <trkpt lat="43.0207096" lon="77.1551989"></trkpt>
      <trkpt lat="43.0196972" lon="77.1549924"></trkpt>
      <trkpt lat="43.0194077" lon="77.1547534"></trkpt>
      <trkpt lat="43.0186885" lon="77.154385"></trkpt>
      <trkpt lat="43.0164758" lon="77.1526653"></trkpt>
      <trkpt lat="43.0165205" lon="77.151863"></trkpt>
      <trkpt lat="43.0161942" lon="77.151284"></trkpt>
      <trkpt lat="43.0158282" lon="77.1498678"></trkpt>
      <trkpt lat="43.016354" lon="77.1489232"></trkpt>
      <trkpt lat="43.0153417" lon="77.1484525"></trkpt>
      <trkpt lat="43.0151504" lon="77.1482236"></trkpt>
      <trkpt lat="43.0147259" lon="77.148012"></trkpt>
      <trkpt lat="43.0144189" lon="77.1475778"></trkpt>
      <trkpt lat="43.0143521" lon="77.1473513"></trkpt>
      <trkpt lat="43.0144021" lon="77.147239"></trkpt>
      <trkpt lat="43.0137959" lon="77.1470381"></trkpt>
      <trkpt lat="43.0137871" lon="77.1469064"></trkpt>
      <trkpt lat="43.0135497" lon="77.1466941"></trkpt>
      <trkpt lat="43.0134994" lon="77.1465372"></trkpt>
      <trkpt lat="43.0132313" lon="77.1464502"></trkpt>
      <trkpt lat="43.0129204" lon="77.14604"></trkpt>
      <trkpt lat="43.0126146" lon="77.1458662"></trkpt>
      <trkpt lat="43.0125133" lon="77.1456704"></trkpt>
      <trkpt lat="43.0120283" lon="77.1453936"></trkpt>
      <trkpt lat="43.0120296" lon="77.1452336"></trkpt>
      <trkpt lat="43.0115293" lon="77.1449225"></trkpt>
      <trkpt lat="43.0113364" lon="77.1448998"></trkpt>
      <trkpt lat="43.0109796" lon="77.1444655"></trkpt>
      <trkpt lat="43.0106119" lon="77.144248"></trkpt>
      <trkpt lat="43.0105635" lon="77.1443597"></trkpt>
      <trkpt lat="43.0101984" lon="77.1441839"></trkpt>
      <trkpt lat="43.0094819" lon="77.1435306"></trkpt>
      <trkpt lat="43.0091234" lon="77.1434133"></trkpt>
      <trkpt lat="43.0089452" lon="77.1432643"></trkpt>
      <trkpt lat="43.0084962" lon="77.1432732"></trkpt>
      <trkpt lat="43.0083641" lon="77.1430603"></trkpt>
      <trkpt lat="43.0074606" lon="77.1424129"></trkpt>
      <trkpt lat="43.007028" lon="77.1422528"></trkpt>
      <trkpt lat="43.0062813" lon="77.1421568"></trkpt>
      <trkpt lat="43.005496" lon="77.1415061"></trkpt>
      <trkpt lat="43.0049239" lon="77.1413377"></trkpt>
      <trkpt lat="43.0047" lon="77.1411893"></trkpt>
      <trkpt lat="43.004204" lon="77.1403668"></trkpt>
      <trkpt lat="43.0037912" lon="77.1399143"></trkpt>
      <trkpt lat="43.003806" lon="77.1398232"></trkpt>
      <trkpt lat="43.0034695" lon="77.1393164"></trkpt>
      <trkpt lat="43.0033438" lon="77.1385272"></trkpt>
      <trkpt lat="43.0028015" lon="77.1377428"></trkpt>
      <trkpt lat="43.0027075" lon="77.1364072"></trkpt>
      <trkpt lat="43.002585" lon="77.1361876"></trkpt>
      <trkpt lat="43.0023882" lon="77.136116"></trkpt>
      <trkpt lat="43.0025623" lon="77.1362701"></trkpt>
      <trkpt lat="43.0020357" lon="77.1357237"></trkpt>
      <trkpt lat="43.0018261" lon="77.1356696"></trkpt>
      <trkpt lat="43.0017739" lon="77.1355678"></trkpt>
      <trkpt lat="43.0016589" lon="77.1355944"></trkpt>
      <trkpt lat="43.000868" lon="77.1350798"></trkpt>
      <trkpt lat="43.0000246" lon="77.1341081"></trkpt>
      <trkpt lat="42.9996376" lon="77.1325753"></trkpt>
      <trkpt lat="42.9994818" lon="77.1323764"></trkpt>
      <trkpt lat="42.9995589" lon="77.1317591"></trkpt>
      <trkpt lat="42.9994274" lon="77.1303175"></trkpt>
      <trkpt lat="42.9987777" lon="77.129583"></trkpt>
      <trkpt lat="42.9985996" lon="77.1292"></trkpt>
      <trkpt lat="42.9970601" lon="77.1269594"></trkpt>
      <trkpt lat="42.996074" lon="77.1251399"></trkpt>
      <trkpt lat="42.9960105" lon="77.1246883"></trkpt>
      <trkpt lat="42.9954747" lon="77.123111"></trkpt>
      <trkpt lat="42.9955456" lon="77.1230542"></trkpt>
      <trkpt lat="42.995277" lon="77.1224839"></trkpt>
      <trkpt lat="42.995126" lon="77.1215942"></trkpt>
      <trkpt lat="42.995093" lon="77.1209023"></trkpt>
      <trkpt lat="42.9951218" lon="77.1205802"></trkpt>
      <trkpt lat="42.995249" lon="77.1205389"></trkpt>
      <trkpt lat="42.9952686" lon="77.1195008"></trkpt>
      <trkpt lat="42.995102" lon="77.1193734"></trkpt>
      <trkpt lat="42.9949417" lon="77.1194132"></trkpt>
      <trkpt lat="42.994725" lon="77.1192412"></trkpt>
      <trkpt lat="42.9947868" lon="77.1189985"></trkpt>
      <trkpt lat="42.9946092" lon="77.1143897"></trkpt>
      <trkpt lat="42.9943362" lon="77.1133473"></trkpt>
      <trkpt lat="42.9941615" lon="77.1131802"></trkpt>
      <trkpt lat="42.9941779" lon="77.1126101"></trkpt>
      <trkpt lat="42.9936379" lon="77.111357"></trkpt>
      <trkpt lat="42.9936792" lon="77.1112386"></trkpt>
      <trkpt lat="42.9935333" lon="77.1111237"></trkpt>
      <trkpt lat="42.9935456" lon="77.1108596"></trkpt>
      <trkpt lat="42.9933224" lon="77.110705"></trkpt>
      <trkpt lat="42.9934056" lon="77.1104348"></trkpt>
      <trkpt lat="42.9930365" lon="77.1095202"></trkpt>
      <trkpt lat="42.9930285" lon="77.1092959"></trkpt>
      <trkpt lat="42.9929585" lon="77.1092795"></trkpt>
      <trkpt lat="42.9928796" lon="77.1089492"></trkpt>
      <trkpt lat="42.9929444" lon="77.1088179"></trkpt>
      <trkpt lat="42.992553" lon="77.1081239"></trkpt>
      <trkpt lat="42.9921725" lon="77.1068746"></trkpt>
      <trkpt lat="42.9909268" lon="77.1061046"></trkpt>
      <trkpt lat="42.9909062" lon="77.1045542"></trkpt>
      <trkpt lat="42.9911287" lon="77.104689"></trkpt>
      <trkpt lat="42.9912282" lon="77.1046046"></trkpt>
      <trkpt lat="42.9913793" lon="77.1046512"></trkpt>
      <trkpt lat="42.9917549" lon="77.1043499"></trkpt>
      <trkpt lat="42.9917646" lon="77.1041602"></trkpt>
      <trkpt lat="42.9915451" lon="77.1036658"></trkpt>
      <trkpt lat="42.9912982" lon="77.1034505"></trkpt>
      <trkpt lat="42.9911086" lon="77.1030115"></trkpt>
      <trkpt lat="42.9908275" lon="77.1026973"></trkpt>
      <trkpt lat="42.9907815" lon="77.1024057"></trkpt>
      <trkpt lat="42.9905806" lon="77.1022976"></trkpt>
      <trkpt lat="42.9906884" lon="77.1019988"></trkpt>
      <trkpt lat="42.9901275" lon="77.1018834"></trkpt>
      <trkpt lat="42.9904239" lon="77.1016143"></trkpt>
      <trkpt lat="42.9903189" lon="77.1017266"></trkpt>
      <trkpt lat="42.9896646" lon="77.100838"></trkpt>
      <trkpt lat="42.9898186" lon="77.1007509"></trkpt>
      <trkpt lat="42.9894116" lon="77.1006745"></trkpt>
      <trkpt lat="42.9896465" lon="77.1005138"></trkpt>
      <trkpt lat="42.9892171" lon="77.100234"></trkpt>
      <trkpt lat="42.9892111" lon="77.09989"></trkpt>
      <trkpt lat="42.9890724" lon="77.099919"></trkpt>
      <trkpt lat="42.988856" lon="77.0996662"></trkpt>
      <trkpt lat="42.9889421" lon="77.0996866"></trkpt>
      <trkpt lat="42.9886911" lon="77.0994137"></trkpt>
      <trkpt lat="42.9887223" lon="77.0992269"></trkpt>
      <trkpt lat="42.9885366" lon="77.0993818"></trkpt>
      <trkpt lat="42.988487" lon="77.0991274"></trkpt>
      <trkpt lat="42.9882527" lon="77.0993491"></trkpt>
      <trkpt lat="42.9881185" lon="77.0992086"></trkpt>
      <trkpt lat="42.9880034" lon="77.0992725"></trkpt>
      <trkpt lat="42.9880694" lon="77.0992035"></trkpt>
      <trkpt lat="42.9879472" lon="77.0989202"></trkpt>
      <trkpt lat="42.9880524" lon="77.0987572"></trkpt>
      <trkpt lat="42.9880054" lon="77.0986221"></trkpt>
      <trkpt lat="42.9880961" lon="77.0982823"></trkpt>
      <trkpt lat="42.9880407" lon="77.0980299"></trkpt>
      <trkpt lat="42.9875408" lon="77.0971113"></trkpt>
      <trkpt lat="42.9872782" lon="77.0969001"></trkpt>
      <trkpt lat="42.9873857" lon="77.0962864"></trkpt>
      <trkpt lat="42.9871113" lon="77.0966934"></trkpt>
      <trkpt lat="42.9869664" lon="77.0966211"></trkpt>
      <trkpt lat="42.986473" lon="77.0963196"></trkpt>
      <trkpt lat="42.9863933" lon="77.0958497"></trkpt>
      <trkpt lat="42.9862027" lon="77.0960154"></trkpt>
      <trkpt lat="42.9859648" lon="77.0958459"></trkpt>
      <trkpt lat="42.9858423" lon="77.0954768"></trkpt>
      <trkpt lat="42.9856785" lon="77.0955083"></trkpt>
      <trkpt lat="42.9854862" lon="77.0952916"></trkpt>
      <trkpt lat="42.985312" lon="77.0953741"></trkpt>
      <trkpt lat="42.9852025" lon="77.095223"></trkpt>
      <trkpt lat="42.9852147" lon="77.0949895"></trkpt>
      <trkpt lat="42.9849622" lon="77.094888"></trkpt>
      <trkpt lat="42.9849834" lon="77.0945533"></trkpt>
      <trkpt lat="42.9848304" lon="77.0946433"></trkpt>
      <trkpt lat="42.9843663" lon="77.0944762"></trkpt>
      <trkpt lat="42.9843657" lon="77.0941869"></trkpt>
      <trkpt lat="42.9841215" lon="77.0937329"></trkpt>
      <trkpt lat="42.9833027" lon="77.092925"></trkpt>
      <trkpt lat="42.9833453" lon="77.0927916"></trkpt>
      <trkpt lat="42.983109" lon="77.0925826"></trkpt>
      <trkpt lat="42.9831655" lon="77.0922219"></trkpt>
      <trkpt lat="42.9827862" lon="77.0921225"></trkpt>
      <trkpt lat="42.9828792" lon="77.0918256"></trkpt>
      <trkpt lat="42.9825841" lon="77.0915615"></trkpt>
      <trkpt lat="42.9825822" lon="77.0913083"></trkpt>
      <trkpt lat="42.9824694" lon="77.0915509"></trkpt>
      <trkpt lat="42.9826843" lon="77.0917633"></trkpt>
      <trkpt lat="42.9822705" lon="77.0917762"></trkpt>
      <trkpt lat="42.9822568" lon="77.0914311"></trkpt>
      <trkpt lat="42.9820911" lon="77.0913492"></trkpt>
      <trkpt lat="42.9819831" lon="77.0910397"></trkpt>
      <trkpt lat="42.9818046" lon="77.0908759"></trkpt>
      <trkpt lat="42.981667" lon="77.0908901"></trkpt>
      <trkpt lat="42.9816828" lon="77.0907357"></trkpt>
      <trkpt lat="42.9813414" lon="77.0907317"></trkpt>
      <trkpt lat="42.9813324" lon="77.0906288"></trkpt>
      <trkpt lat="42.9810055" lon="77.0908103"></trkpt>
      <trkpt lat="42.9810457" lon="77.0906143"></trkpt>
      <trkpt lat="42.9808767" lon="77.0904799"></trkpt>
      <trkpt lat="42.9805513" lon="77.0905671"></trkpt>
      <trkpt lat="42.9805794" lon="77.0906456"></trkpt>
      <trkpt lat="42.9801758" lon="77.0906253"></trkpt>
      <trkpt lat="42.9800226" lon="77.0904077"></trkpt>
      <trkpt lat="42.9800894" lon="77.0903327"></trkpt>
      <trkpt lat="42.9800029" lon="77.0900042"></trkpt>
      <trkpt lat="42.9800433" lon="77.089363"></trkpt>
      <trkpt lat="42.9799474" lon="77.0893688"></trkpt>
      <trkpt lat="42.9799846" lon="77.088905"></trkpt>
      <trkpt lat="42.9796844" lon="77.0895755"></trkpt>
      <trkpt lat="42.9795465" lon="77.0896533"></trkpt>
      <trkpt lat="42.9797155" lon="77.0892325"></trkpt>
      <trkpt lat="42.9796813" lon="77.0891473"></trkpt>
      <trkpt lat="42.9798997" lon="77.0889384"></trkpt>
      <trkpt lat="42.9798966" lon="77.0886795"></trkpt>
      <trkpt lat="42.9799315" lon="77.0887463"></trkpt>
      <trkpt lat="42.9802374" lon="77.0881944"></trkpt>
      <trkpt lat="42.980275" lon="77.0878996"></trkpt>
      <trkpt lat="42.9804175" lon="77.0878588"></trkpt>
      <trkpt lat="42.9804313" lon="77.0876573"></trkpt>
      <trkpt lat="42.9803398" lon="77.0875455"></trkpt>
      <trkpt lat="42.9804586" lon="77.0875376"></trkpt>
      <trkpt lat="42.9805633" lon="77.0867133"></trkpt>
      <trkpt lat="42.9807705" lon="77.0864811"></trkpt>
      <trkpt lat="42.9811352" lon="77.0856987"></trkpt>
      <trkpt lat="42.9813584" lon="77.0855574"></trkpt>
      <trkpt lat="42.9821092" lon="77.0858216"></trkpt>
      <trkpt lat="42.9817743" lon="77.0855005"></trkpt>
      <trkpt lat="42.9820567" lon="77.085578"></trkpt>
      <trkpt lat="42.982213" lon="77.0857165"></trkpt>
      <trkpt lat="42.9821198" lon="77.0855586"></trkpt>
      <trkpt lat="42.9825779" lon="77.0859011"></trkpt>
      <trkpt lat="42.9829109" lon="77.085681"></trkpt>
      <trkpt lat="42.9829708" lon="77.0855347"></trkpt>
      <trkpt lat="42.9836196" lon="77.085357"></trkpt>
      <trkpt lat="42.9836536" lon="77.0852686"></trkpt>
      <trkpt lat="42.983938" lon="77.0851565"></trkpt>
      <trkpt lat="42.984077" lon="77.0852949"></trkpt>
      <trkpt lat="42.9841762" lon="77.0850077"></trkpt>
      <trkpt lat="42.9843498" lon="77.0851553"></trkpt>
      <trkpt lat="42.9844644" lon="77.085098"></trkpt>
      <trkpt lat="42.9842464" lon="77.0849259"></trkpt>
      <trkpt lat="42.9842441" lon="77.0847628"></trkpt>
      <trkpt lat="42.984286" lon="77.0846833"></trkpt>
      <trkpt lat="42.9846279" lon="77.0846035"></trkpt>
      <trkpt lat="42.9845801" lon="77.084562"></trkpt>
      <trkpt lat="42.9848992" lon="77.0839454"></trkpt>
      <trkpt lat="42.9845253" lon="77.0839719"></trkpt>
      <trkpt lat="42.9839623" lon="77.0828396"></trkpt>
      <trkpt lat="42.9841075" lon="77.0823801"></trkpt>
      <trkpt lat="42.9839006" lon="77.0821341"></trkpt>
      <trkpt lat="42.9838851" lon="77.0812106"></trkpt>
      <trkpt lat="42.9843682" lon="77.0799852"></trkpt>
      <trkpt lat="42.9843265" lon="77.0757394"></trkpt>
      <trkpt lat="42.9844271" lon="77.0746005"></trkpt>
      <trkpt lat="42.9845213" lon="77.0745775"></trkpt>
      <trkpt lat="42.9846295" lon="77.073718"></trkpt>
      <trkpt lat="42.9856695" lon="77.0714648"></trkpt>
      <trkpt lat="42.9862533" lon="77.0707691"></trkpt>
      <trkpt lat="42.986431" lon="77.0701065"></trkpt>
      <trkpt lat="42.9869735" lon="77.0694036"></trkpt>
      <trkpt lat="42.9871402" lon="77.0690091"></trkpt>
      <trkpt lat="42.9871606" lon="77.0679957"></trkpt>
      <trkpt lat="42.9882526" lon="77.0666422"></trkpt>
      <trkpt lat="42.9884133" lon="77.065503"></trkpt>
      <trkpt lat="42.9885071" lon="77.0654493"></trkpt>
      <trkpt lat="42.9889002" lon="77.0642992"></trkpt>
      <trkpt lat="42.9892015" lon="77.064029"></trkpt>
      <trkpt lat="42.989537" lon="77.0640118"></trkpt>
      <trkpt lat="42.9898513" lon="77.0636318"></trkpt>
      <trkpt lat="42.9902535" lon="77.0634215"></trkpt>
      <trkpt lat="42.9916736" lon="77.0621172"></trkpt>
      <trkpt lat="42.9919286" lon="77.0615673"></trkpt>
      <trkpt lat="42.9923659" lon="77.0610924"></trkpt>
      <trkpt lat="42.9929415" lon="77.0599403"></trkpt>
      <trkpt lat="42.9930578" lon="77.0579123"></trkpt>
      <trkpt lat="42.9935667" lon="77.0561262"></trkpt>
      <trkpt lat="42.9935431" lon="77.0549183"></trkpt>
      <trkpt lat="42.9934484" lon="77.0546311"></trkpt>
      <trkpt lat="42.9928644" lon="77.0539709"></trkpt>
      <trkpt lat="42.9927663" lon="77.0540011"></trkpt>
      <trkpt lat="42.9926585" lon="77.0538788"></trkpt>
      <trkpt lat="42.9924728" lon="77.0534707"></trkpt>
      <trkpt lat="42.9925908" lon="77.0531417"></trkpt>
      <trkpt lat="42.9924857" lon="77.0529946"></trkpt>
      <trkpt lat="42.9923218" lon="77.0519224"></trkpt>
      <trkpt lat="42.992358" lon="77.0515598"></trkpt>
      <trkpt lat="42.9925639" lon="77.0512135"></trkpt>
      <trkpt lat="42.9923934" lon="77.0504258"></trkpt>
      <trkpt lat="42.9927364" lon="77.0484824"></trkpt>
      <trkpt lat="42.9924646" lon="77.0477813"></trkpt>
      <trkpt lat="42.9924301" lon="77.046916"></trkpt>
      <trkpt lat="42.9925691" lon="77.0462367"></trkpt>
      <trkpt lat="42.9929366" lon="77.0456613"></trkpt>
      <trkpt lat="42.9933245" lon="77.045259"></trkpt>
      <trkpt lat="42.9933679" lon="77.0451027"></trkpt>
      <trkpt lat="42.9933671" lon="77.044511"></trkpt>
      <trkpt lat="42.9934659" lon="77.0442168"></trkpt>
      <trkpt lat="42.9934438" lon="77.0431799"></trkpt>
      <trkpt lat="42.9936969" lon="77.0414737"></trkpt>
      <trkpt lat="42.9933689" lon="77.0398733"></trkpt>
      <trkpt lat="42.9929779" lon="77.0388563"></trkpt>
      <trkpt lat="42.9928556" lon="77.038739"></trkpt>
      <trkpt lat="42.992777" lon="77.0382575"></trkpt>
      <trkpt lat="42.9923254" lon="77.0376"></trkpt>
      <trkpt lat="42.9924796" lon="77.0373961"></trkpt>
      <trkpt lat="42.9923644" lon="77.0362226"></trkpt>
      <trkpt lat="42.9925199" lon="77.0348376"></trkpt>
      <trkpt lat="42.9926305" lon="77.0348971"></trkpt>
      <trkpt lat="42.9926004" lon="77.0334831"></trkpt>
      <trkpt lat="42.9928355" lon="77.0325182"></trkpt>
      <trkpt lat="42.992925" lon="77.031601"></trkpt>
      <trkpt lat="42.9927688" lon="77.0299827"></trkpt>
      <trkpt lat="42.9930058" lon="77.0283852"></trkpt>
      <trkpt lat="42.9933646" lon="77.027703"></trkpt>
      <trkpt lat="42.9939771" lon="77.0271414"></trkpt>
      <trkpt lat="42.994254" lon="77.0260303"></trkpt>
      <trkpt lat="42.9947425" lon="77.02576"></trkpt>
      <trkpt lat="42.9949617" lon="77.0257336"></trkpt>
      <trkpt lat="42.9953556" lon="77.0254142"></trkpt>
      <trkpt lat="42.9958487" lon="77.0253423"></trkpt>
      <trkpt lat="42.9970075" lon="77.0237056"></trkpt>
      <trkpt lat="42.9970459" lon="77.0234766"></trkpt>
      <trkpt lat="42.9972477" lon="77.0231897"></trkpt>
      <trkpt lat="42.9976332" lon="77.0230449"></trkpt>
      <trkpt lat="42.9983583" lon="77.0217312"></trkpt>
      <trkpt lat="42.9985185" lon="77.0210563"></trkpt>
      <trkpt lat="42.9987661" lon="77.0205443"></trkpt>
      <trkpt lat="42.9989611" lon="77.0204836"></trkpt>
      <trkpt lat="42.9992891" lon="77.0209172"></trkpt>
      <trkpt lat="42.9996649" lon="77.020798"></trkpt>
      <trkpt lat="43.0001581" lon="77.0207917"></trkpt>
      <trkpt lat="43.0003528" lon="77.0206844"></trkpt>
      <trkpt lat="43.0011658" lon="77.0198231"></trkpt>
      <trkpt lat="43.0015018" lon="77.0191336"></trkpt>
      <trkpt lat="43.0016186" lon="77.0185116"></trkpt>
      <trkpt lat="43.0020261" lon="77.0184288"></trkpt>
      <trkpt lat="43.0022002" lon="77.0182832"></trkpt>
      <trkpt lat="43.0021578" lon="77.0182369"></trkpt>
      <trkpt lat="43.0019908" lon="77.0186454"></trkpt>
      <trkpt lat="43.0020493" lon="77.0181338"></trkpt>
      <trkpt lat="43.0020165" lon="77.0183107"></trkpt>
      <trkpt lat="43.0018992" lon="77.0183386"></trkpt>
      <trkpt lat="43.0017192" lon="77.0181246"></trkpt>
      <trkpt lat="43.0022472" lon="77.017582"></trkpt>
      <trkpt lat="43.0025033" lon="77.0171649"></trkpt>
      <trkpt lat="43.0024685" lon="77.0161645"></trkpt>
      <trkpt lat="43.0023427" lon="77.0155503"></trkpt>
      <trkpt lat="43.0024306" lon="77.0146403"></trkpt>
      <trkpt lat="43.0022742" lon="77.01371"></trkpt>
      <trkpt lat="43.0018112" lon="77.0122752"></trkpt>
      <trkpt lat="43.0016133" lon="77.0120072"></trkpt>
      <trkpt lat="43.0013992" lon="77.0114277"></trkpt>
      <trkpt lat="43.0011248" lon="77.0112271"></trkpt>
      <trkpt lat="43.0010472" lon="77.0108121"></trkpt>
      <trkpt lat="43.0008162" lon="77.0103621"></trkpt>
      <trkpt lat="43.0009052" lon="77.0098774"></trkpt>
      <trkpt lat="43.0008037" lon="77.0081398"></trkpt>
      <trkpt lat="43.0010323" lon="77.0075667"></trkpt>
      <trkpt lat="43.0011586" lon="77.0063601"></trkpt>
      <trkpt lat="43.001138" lon="77.0062701"></trkpt>
      <trkpt lat="43.0009852" lon="77.0064022"></trkpt>
      <trkpt lat="43.0011565" lon="77.0062767"></trkpt>
      <trkpt lat="43.0012373" lon="77.0059671"></trkpt>
      <trkpt lat="43.0011964" lon="77.0057361"></trkpt>
      <trkpt lat="43.0007845" lon="77.0052557"></trkpt>
      <trkpt lat="43.0005985" lon="77.0044762"></trkpt>
      <trkpt lat="43.0001991" lon="77.0043394"></trkpt>
      <trkpt lat="43.0002203" lon="77.0039865"></trkpt>
      <trkpt lat="42.9998261" lon="77.0034276"></trkpt>
      <trkpt lat="42.9996956" lon="77.0030707"></trkpt>
      <trkpt lat="42.9990098" lon="77.002385"></trkpt>
      <trkpt lat="42.9984226" lon="77.0007836"></trkpt>
      <trkpt lat="42.9977546" lon="76.999849"></trkpt>
      <trkpt lat="42.9972357" lon="76.9978044"></trkpt>
      <trkpt lat="42.9969456" lon="76.9970992"></trkpt>
      <trkpt lat="42.9970108" lon="76.9968068"></trkpt>
      <trkpt lat="42.9968429" lon="76.9968417"></trkpt>
      <trkpt lat="42.9969822" lon="76.9961048"></trkpt>
      <trkpt lat="42.9977775" lon="76.9956699"></trkpt>
      <trkpt lat="42.9980424" lon="76.9950655"></trkpt>
      <trkpt lat="42.9981918" lon="76.9949369"></trkpt>
      <trkpt lat="42.9987386" lon="76.9949299"></trkpt>
      <trkpt lat="42.9989885" lon="76.9950179"></trkpt>
      <trkpt lat="42.999506" lon="76.9945276"></trkpt>
      <trkpt lat="43.0009225" lon="76.9939062"></trkpt>
      <trkpt lat="43.0010335" lon="76.9935879"></trkpt>
      <trkpt lat="43.0012289" lon="76.9934162"></trkpt>
      <trkpt lat="43.0014431" lon="76.9933714"></trkpt>
      <trkpt lat="43.0015629" lon="76.9931217"></trkpt>
      <trkpt lat="43.0020437" lon="76.9930317"></trkpt>
      <trkpt lat="43.0023335" lon="76.9926754"></trkpt>
      <trkpt lat="43.0023614" lon="76.9927527"></trkpt>
      <trkpt lat="43.0020936" lon="76.993087"></trkpt>
      <trkpt lat="43.002538" lon="76.9927971"></trkpt>
      <trkpt lat="43.002718" lon="76.9925665"></trkpt>
      <trkpt lat="43.0029515" lon="76.9918243"></trkpt>
      <trkpt lat="43.0032213" lon="76.9913912"></trkpt>
      <trkpt lat="43.0036218" lon="76.9910807"></trkpt>
      <trkpt lat="43.0042791" lon="76.9908658"></trkpt>
      <trkpt lat="43.0044594" lon="76.9906866"></trkpt>
      <trkpt lat="43.0044367" lon="76.9897754"></trkpt>
      <trkpt lat="43.0046473" lon="76.9894503"></trkpt>
      <trkpt lat="43.0050325" lon="76.9895235"></trkpt>
      <trkpt lat="43.0065691" lon="76.9888346"></trkpt>
      <trkpt lat="43.0074049" lon="76.9883818"></trkpt>
      <trkpt lat="43.0082945" lon="76.9876932"></trkpt>
      <trkpt lat="43.0083067" lon="76.987579"></trkpt>
      <trkpt lat="43.0081428" lon="76.9875166"></trkpt>
      <trkpt lat="43.008247" lon="76.9869784"></trkpt>
      <trkpt lat="43.0079786" lon="76.9862321"></trkpt>
      <trkpt lat="43.0080931" lon="76.9859966"></trkpt>
      <trkpt lat="43.0079257" lon="76.9858141"></trkpt>
      <trkpt lat="43.0076161" lon="76.9850508"></trkpt>
      <trkpt lat="43.0079336" lon="76.9836926"></trkpt>
      <trkpt lat="43.00817" lon="76.9833351"></trkpt>
      <trkpt lat="43.0090467" lon="76.983082"></trkpt>
      <trkpt lat="43.0094153" lon="76.9826481"></trkpt>
      <trkpt lat="43.0097262" lon="76.9820014"></trkpt>
      <trkpt lat="43.0099168" lon="76.9819117"></trkpt>
      <trkpt lat="43.0102276" lon="76.9820371"></trkpt>
      <trkpt lat="43.0101807" lon="76.9817586"></trkpt>
      <trkpt lat="43.0104157" lon="76.9818237"></trkpt>
      <trkpt lat="43.0106737" lon="76.9815729"></trkpt>
      <trkpt lat="43.0106987" lon="76.9806019"></trkpt>
      <trkpt lat="43.010821" lon="76.9799999"></trkpt>
      <trkpt lat="43.0111685" lon="76.9794395"></trkpt>
      <trkpt lat="43.0111362" lon="76.977964"></trkpt>
      <trkpt lat="43.0116235" lon="76.9781878"></trkpt>
      <trkpt lat="43.0121147" lon="76.9788749"></trkpt>
      <trkpt lat="43.0122957" lon="76.9789525"></trkpt>
      <trkpt lat="43.0124663" lon="76.978765"></trkpt>
      <trkpt lat="43.0123515" lon="76.9784114"></trkpt>
      <trkpt lat="43.012476" lon="76.9779846"></trkpt>
      <trkpt lat="43.0123688" lon="76.9776328"></trkpt>
      <trkpt lat="43.0119139" lon="76.9773501"></trkpt>
      <trkpt lat="43.0116748" lon="76.9770748"></trkpt>
      <trkpt lat="43.0118836" lon="76.9767067"></trkpt>
      <trkpt lat="43.0118294" lon="76.9758118"></trkpt>
      <trkpt lat="43.011923" lon="76.9754114"></trkpt>
      <trkpt lat="43.0117535" lon="76.9754018"></trkpt>
      <trkpt lat="43.0118924" lon="76.9748975"></trkpt>
      <trkpt lat="43.0116718" lon="76.9748498"></trkpt>
      <trkpt lat="43.0116899" lon="76.9745165"></trkpt>
      <trkpt lat="43.0115181" lon="76.9746471"></trkpt>
      <trkpt lat="43.0114871" lon="76.9740378"></trkpt>
      <trkpt lat="43.0113605" lon="76.9741335"></trkpt>
      <trkpt lat="43.011231" lon="76.9735722"></trkpt>
      <trkpt lat="43.011231" lon="76.9733689"></trkpt>
      <trkpt lat="43.0113506" lon="76.9731456"></trkpt>
      <trkpt lat="43.0111016" lon="76.9729289"></trkpt>
      <trkpt lat="43.0112499" lon="76.9726576"></trkpt>
      <trkpt lat="43.0111049" lon="76.9725406"></trkpt>
      <trkpt lat="43.0112267" lon="76.9722904"></trkpt>
      <trkpt lat="43.0110504" lon="76.9721163"></trkpt>
      <trkpt lat="43.0112011" lon="76.9717602"></trkpt>
      <trkpt lat="43.0110501" lon="76.9716743"></trkpt>
      <trkpt lat="43.0107278" lon="76.9717587"></trkpt>
      <trkpt lat="43.010964" lon="76.9705549"></trkpt>
      <trkpt lat="43.0111704" lon="76.9702572"></trkpt>
      <trkpt lat="43.0110091" lon="76.9701672"></trkpt>
      <trkpt lat="43.0112459" lon="76.9699029"></trkpt>
      <trkpt lat="43.0111703" lon="76.9697837"></trkpt>
      <trkpt lat="43.0112805" lon="76.9696402"></trkpt>
      <trkpt lat="43.0108667" lon="76.9694731"></trkpt>
      <trkpt lat="43.0109989" lon="76.9691471"></trkpt>
      <trkpt lat="43.010567" lon="76.9690615"></trkpt>
      <trkpt lat="43.0104198" lon="76.9691745"></trkpt>
      <trkpt lat="43.01016" lon="76.9687251"></trkpt>
      <trkpt lat="43.010427" lon="76.9684203"></trkpt>
      <trkpt lat="43.0102752" lon="76.9681369"></trkpt>
      <trkpt lat="43.0102055" lon="76.967027"></trkpt>
      <trkpt lat="43.01002" lon="76.966172"></trkpt>
      <trkpt lat="43.0102499" lon="76.9660115"></trkpt>
      <trkpt lat="43.0104954" lon="76.965673"></trkpt>
      <trkpt lat="43.0106147" lon="76.9658515"></trkpt>
      <trkpt lat="43.0108346" lon="76.9655627"></trkpt>
      <trkpt lat="43.0109339" lon="76.9657994"></trkpt>
      <trkpt lat="43.0113417" lon="76.9649562"></trkpt>
      <trkpt lat="43.011734" lon="76.9648715"></trkpt>
      <trkpt lat="43.0120232" lon="76.9649032"></trkpt>
      <trkpt lat="43.0121659" lon="76.9650104"></trkpt>
      <trkpt lat="43.0121964" lon="76.9651482"></trkpt>
      <trkpt lat="43.0123971" lon="76.9650067"></trkpt>
      <trkpt lat="43.0129277" lon="76.9644858"></trkpt>
      <trkpt lat="43.0129677" lon="76.96427"></trkpt>
      <trkpt lat="43.0128851" lon="76.9640591"></trkpt>
      <trkpt lat="43.0130417" lon="76.9638768"></trkpt>
      <trkpt lat="43.0132081" lon="76.963873"></trkpt>
      <trkpt lat="43.0133267" lon="76.9634744"></trkpt>
      <trkpt lat="43.0133266" lon="76.9631122"></trkpt>
      <trkpt lat="43.0135001" lon="76.9629438"></trkpt>
      <trkpt lat="43.0137908" lon="76.962952"></trkpt>
      <trkpt lat="43.0139484" lon="76.9633799"></trkpt>
      <trkpt lat="43.014341" lon="76.9637267"></trkpt>
      <trkpt lat="43.0144559" lon="76.9637592"></trkpt>
      <trkpt lat="43.0145994" lon="76.9635706"></trkpt>
      <trkpt lat="43.0148351" lon="76.9642877"></trkpt>
      <trkpt lat="43.0154722" lon="76.9636098"></trkpt>
      <trkpt lat="43.0156707" lon="76.9630802"></trkpt>
      <trkpt lat="43.0158456" lon="76.9620878"></trkpt>
      <trkpt lat="43.0158431" lon="76.9591295"></trkpt>
      <trkpt lat="43.0159071" lon="76.9586777"></trkpt>
      <trkpt lat="43.0160643" lon="76.9587962"></trkpt>
      <trkpt lat="43.0160702" lon="76.9586684"></trkpt>
      <trkpt lat="43.0158122" lon="76.9568623"></trkpt>
      <trkpt lat="43.0156828" lon="76.9567347"></trkpt>
      <trkpt lat="43.015358" lon="76.9558324"></trkpt>
      <trkpt lat="43.014703" lon="76.9552205"></trkpt>
      <trkpt lat="43.0149459" lon="76.9550593"></trkpt>
      <trkpt lat="43.0146482" lon="76.9545946"></trkpt>
      <trkpt lat="43.0149692" lon="76.9545279"></trkpt>
      <trkpt lat="43.0151786" lon="76.9545869"></trkpt>
      <trkpt lat="43.0150497" lon="76.9542276"></trkpt>
      <trkpt lat="43.0151211" lon="76.9540053"></trkpt>
      <trkpt lat="43.0154634" lon="76.9536271"></trkpt>
      <trkpt lat="43.0155246" lon="76.9532803"></trkpt>
      <trkpt lat="43.0157935" lon="76.9526743"></trkpt>
      <trkpt lat="43.0159251" lon="76.9527172"></trkpt>
      <trkpt lat="43.0164454" lon="76.9524017"></trkpt>
      <trkpt lat="43.0168085" lon="76.9519429"></trkpt>
      <trkpt lat="43.0178311" lon="76.951411"></trkpt>
      <trkpt lat="43.0192168" lon="76.9500242"></trkpt>
      <trkpt lat="43.0202231" lon="76.9491652"></trkpt>
      <trkpt lat="43.0215083" lon="76.9483636"></trkpt>
      <trkpt lat="43.022109" lon="76.9475705"></trkpt>
      <trkpt lat="43.0221023" lon="76.9471356"></trkpt>
      <trkpt lat="43.0222498" lon="76.947071"></trkpt>
      <trkpt lat="43.0222412" lon="76.9467859"></trkpt>
      <trkpt lat="43.022724" lon="76.9453466"></trkpt>
      <trkpt lat="43.023004" lon="76.9448321"></trkpt>
      <trkpt lat="43.0238408" lon="76.9437312"></trkpt>
      <trkpt lat="43.0241882" lon="76.942992"></trkpt>
      <trkpt lat="43.0244833" lon="76.9420995"></trkpt>
      <trkpt lat="43.024558" lon="76.9413601"></trkpt>
      <trkpt lat="43.024485" lon="76.9409849"></trkpt>
      <trkpt lat="43.0248774" lon="76.9402643"></trkpt>
      <trkpt lat="43.025364" lon="76.9399028"></trkpt>
      <trkpt lat="43.0258847" lon="76.939311"></trkpt>
      <trkpt lat="43.0269946" lon="76.9368578"></trkpt>
      <trkpt lat="43.0276942" lon="76.9356822"></trkpt>
      <trkpt lat="43.0278825" lon="76.9352038"></trkpt>
      <trkpt lat="43.0278303" lon="76.9345358"></trkpt>
      <trkpt lat="43.0281591" lon="76.9327906"></trkpt>
      <trkpt lat="43.0280864" lon="76.9324985"></trkpt>
      <trkpt lat="43.0282415" lon="76.9323012"></trkpt>
      <trkpt lat="43.0282047" lon="76.9321631"></trkpt>
      <trkpt lat="43.0282836" lon="76.93206"></trkpt>
      <trkpt lat="43.028502" lon="76.9307708"></trkpt>
      <trkpt lat="43.0289648" lon="76.9301922"></trkpt>
      <trkpt lat="43.0294713" lon="76.9301348"></trkpt>
      <trkpt lat="43.0301782" lon="76.9297763"></trkpt>
      <trkpt lat="43.0307186" lon="76.9293665"></trkpt>
      <trkpt lat="43.0314003" lon="76.9291265"></trkpt>
      <trkpt lat="43.0317148" lon="76.9293047"></trkpt>
      <trkpt lat="43.0324036" lon="76.9286617"></trkpt>
      <trkpt lat="43.0334871" lon="76.9283799"></trkpt>
      <trkpt lat="43.0349414" lon="76.9282597"></trkpt>
      <trkpt lat="43.0355865" lon="76.9279459"></trkpt>
      <trkpt lat="43.0359044" lon="76.9279409"></trkpt>
      <trkpt lat="43.0364437" lon="76.9305164"></trkpt>
      <trkpt lat="43.0368085" lon="76.93125"></trkpt>
      <trkpt lat="43.0369792" lon="76.93149"></trkpt>
      <trkpt lat="43.0374618" lon="76.9314577"></trkpt>
      <trkpt lat="43.037686" lon="76.9315293"></trkpt>
      <trkpt lat="43.0383504" lon="76.9327001"></trkpt>
      <trkpt lat="43.0390274" lon="76.9328319"></trkpt>
      <trkpt lat="43.0395544" lon="76.9327387"></trkpt>
      <trkpt lat="43.0399014" lon="76.9324927"></trkpt>
      <trkpt lat="43.040873" lon="76.9325315"></trkpt>
      <trkpt lat="43.0411764" lon="76.9322085"></trkpt>
      <trkpt lat="43.0410482" lon="76.9308032"></trkpt>
      <trkpt lat="43.0413266" lon="76.9304245"></trkpt>
      <trkpt lat="43.0414182" lon="76.9299483"></trkpt>
      <trkpt lat="43.0413184" lon="76.9294537"></trkpt>
      <trkpt lat="43.0422837" lon="76.9277587"></trkpt>
      <trkpt lat="43.0419519" lon="76.9285766"></trkpt>
      <trkpt lat="43.0416633" lon="76.9288025"></trkpt>
      <trkpt lat="43.0416286" lon="76.929001"></trkpt>
      <trkpt lat="43.0415208" lon="76.929024"></trkpt>
      <trkpt lat="43.0416025" lon="76.9309807"></trkpt>
      <trkpt lat="43.0415377" lon="76.9323415"></trkpt>
      <trkpt lat="43.0414255" lon="76.9327628"></trkpt>
      <trkpt lat="43.041416" lon="76.9334662"></trkpt>
      <trkpt lat="43.0411104" lon="76.9349689"></trkpt>
      <trkpt lat="43.0411852" lon="76.93516"></trkpt>
      <trkpt lat="43.041056" lon="76.935572"></trkpt>
      <trkpt lat="43.0411666" lon="76.9357461"></trkpt>
      <trkpt lat="43.0410561" lon="76.9368088"></trkpt>
      <trkpt lat="43.0408192" lon="76.9373345"></trkpt>
      <trkpt lat="43.0407786" lon="76.9376724"></trkpt>
      <trkpt lat="43.0406702" lon="76.9376912"></trkpt>
      <trkpt lat="43.0405984" lon="76.9384741"></trkpt>
      <trkpt lat="43.0403928" lon="76.9385832"></trkpt>
      <trkpt lat="43.0406408" lon="76.9393968"></trkpt>
      <trkpt lat="43.0408437" lon="76.9396784"></trkpt>
      <trkpt lat="43.0407627" lon="76.9398973"></trkpt>
      <trkpt lat="43.0406209" lon="76.9399979"></trkpt>
      <trkpt lat="43.0408805" lon="76.9404575"></trkpt>
      <trkpt lat="43.0410423" lon="76.9405616"></trkpt>
      <trkpt lat="43.0415253" lon="76.9402271"></trkpt>
      <trkpt lat="43.0415156" lon="76.9405606"></trkpt>
      <trkpt lat="43.0418476" lon="76.9403239"></trkpt>
      <trkpt lat="43.042005" lon="76.9403751"></trkpt>
      <trkpt lat="43.0420499" lon="76.9406372"></trkpt>
      <trkpt lat="43.0419321" lon="76.9414126"></trkpt>
      <trkpt lat="43.0416635" lon="76.942103"></trkpt>
      <trkpt lat="43.0412461" lon="76.9426448"></trkpt>
      <trkpt lat="43.0410611" lon="76.9437016"></trkpt>
      <trkpt lat="43.0411681" lon="76.9441828"></trkpt>
      <trkpt lat="43.0418703" lon="76.9442319"></trkpt>
      <trkpt lat="43.0420636" lon="76.9438463"></trkpt>
      <trkpt lat="43.0418967" lon="76.9439842"></trkpt>
      <trkpt lat="43.0419195" lon="76.9442394"></trkpt>
      <trkpt lat="43.0417882" lon="76.9442882"></trkpt>
      <trkpt lat="43.0414008" lon="76.9441458"></trkpt>
      <trkpt lat="43.0411093" lon="76.9438448"></trkpt>
      <trkpt lat="43.0410377" lon="76.943655"></trkpt>
      <trkpt lat="43.040946" lon="76.9429282"></trkpt>
      <trkpt lat="43.0415613" lon="76.9421543"></trkpt>
      <trkpt lat="43.0419113" lon="76.9413053"></trkpt>
      <trkpt lat="43.0420508" lon="76.9405388"></trkpt>
      <trkpt lat="43.0419401" lon="76.9402839"></trkpt>
      <trkpt lat="43.041502" lon="76.9405501"></trkpt>
      <trkpt lat="43.0414835" lon="76.9403005"></trkpt>
      <trkpt lat="43.0410604" lon="76.9405621"></trkpt>
      <trkpt lat="43.0409244" lon="76.9405414"></trkpt>
      <trkpt lat="43.0403491" lon="76.9399784"></trkpt>
      <trkpt lat="43.039983" lon="76.9393528"></trkpt>
      <trkpt lat="43.0394427" lon="76.9386899"></trkpt>
      <trkpt lat="43.0389458" lon="76.9374935"></trkpt>
      <trkpt lat="43.0388251" lon="76.936228"></trkpt>
      <trkpt lat="43.0388829" lon="76.9359413"></trkpt>
      <trkpt lat="43.0379059" lon="76.9352212"></trkpt>
      <trkpt lat="43.0374647" lon="76.9346311"></trkpt>
      <trkpt lat="43.0373416" lon="76.934315"></trkpt>
      <trkpt lat="43.0373382" lon="76.9338856"></trkpt>
      <trkpt lat="43.0370016" lon="76.9330404"></trkpt>
      <trkpt lat="43.0364578" lon="76.9326478"></trkpt>
      <trkpt lat="43.0363031" lon="76.9323426"></trkpt>
      <trkpt lat="43.0358513" lon="76.9306785"></trkpt>
      <trkpt lat="43.0360333" lon="76.930041"></trkpt>
      <trkpt lat="43.0359131" lon="76.9280262"></trkpt>
      <trkpt lat="43.035806" lon="76.9279448"></trkpt>
      <trkpt lat="43.0350763" lon="76.9282629"></trkpt>
      <trkpt lat="43.0341186" lon="76.9279308"></trkpt>
      <trkpt lat="43.0342103" lon="76.9252701"></trkpt>
      <trkpt lat="43.0337917" lon="76.9243068"></trkpt>
      <trkpt lat="43.033545" lon="76.923321"></trkpt>
      <trkpt lat="43.0321822" lon="76.9218805"></trkpt>
      <trkpt lat="43.031831" lon="76.9219009"></trkpt>
      <trkpt lat="43.0316523" lon="76.921713"></trkpt>
      <trkpt lat="43.0316038" lon="76.920734"></trkpt>
      <trkpt lat="43.0317423" lon="76.9199797"></trkpt>
      <trkpt lat="43.0322303" lon="76.9187351"></trkpt>
      <trkpt lat="43.0325753" lon="76.9181683"></trkpt>
      <trkpt lat="43.0326188" lon="76.9177367"></trkpt>
      <trkpt lat="43.0327709" lon="76.9174373"></trkpt>
      <trkpt lat="43.0329222" lon="76.9172872"></trkpt>
      <trkpt lat="43.0330933" lon="76.9173761"></trkpt>
      <trkpt lat="43.033156" lon="76.9172488"></trkpt>
      <trkpt lat="43.0333699" lon="76.9164722"></trkpt>
      <trkpt lat="43.0335081" lon="76.9154825"></trkpt>
      <trkpt lat="43.0332914" lon="76.9152653"></trkpt>
      <trkpt lat="43.0333151" lon="76.9150679"></trkpt>
      <trkpt lat="43.0331482" lon="76.9149983"></trkpt>
      <trkpt lat="43.0332808" lon="76.9147966"></trkpt>
      <trkpt lat="43.0331103" lon="76.9146512"></trkpt>
      <trkpt lat="43.0331949" lon="76.9145126"></trkpt>
      <trkpt lat="43.033102" lon="76.9144692"></trkpt>
      <trkpt lat="43.0331997" lon="76.9142714"></trkpt>
      <trkpt lat="43.0333319" lon="76.9127253"></trkpt>
      <trkpt lat="43.0337349" lon="76.9116151"></trkpt>
      <trkpt lat="43.0337254" lon="76.9109945"></trkpt>
      <trkpt lat="43.0332131" lon="76.9103492"></trkpt>
      <trkpt lat="43.0330457" lon="76.9104583"></trkpt>
      <trkpt lat="43.0329733" lon="76.9101216"></trkpt>
      <trkpt lat="43.0328433" lon="76.910161"></trkpt>
      <trkpt lat="43.0328646" lon="76.9098639"></trkpt>
      <trkpt lat="43.0333301" lon="76.9092179"></trkpt>
      <trkpt lat="43.0338901" lon="76.9088693"></trkpt>
      <trkpt lat="43.0338256" lon="76.9087848"></trkpt>
      <trkpt lat="43.0339282" lon="76.9086735"></trkpt>
      <trkpt lat="43.0340758" lon="76.907878"></trkpt>
      <trkpt lat="43.0344" lon="76.9075545"></trkpt>
      <trkpt lat="43.034564" lon="76.9071612"></trkpt>
      <trkpt lat="43.0348361" lon="76.9069827"></trkpt>
      <trkpt lat="43.035138" lon="76.9065814"></trkpt>
      <trkpt lat="43.0350159" lon="76.9062123"></trkpt>
      <trkpt lat="43.0350771" lon="76.905951"></trkpt>
      <trkpt lat="43.035206" lon="76.9056708"></trkpt>
      <trkpt lat="43.0357898" lon="76.9050039"></trkpt>
      <trkpt lat="43.0359868" lon="76.9043962"></trkpt>
      <trkpt lat="43.0358491" lon="76.9043854"></trkpt>
      <trkpt lat="43.035807" lon="76.9042022"></trkpt>
      <trkpt lat="43.0360606" lon="76.903224"></trkpt>
      <trkpt lat="43.035888" lon="76.9017771"></trkpt>
      <trkpt lat="43.0352816" lon="76.9013162"></trkpt>
      <trkpt lat="43.0353632" lon="76.9008764"></trkpt>
      <trkpt lat="43.0358579" lon="76.9001197"></trkpt>
      <trkpt lat="43.0357976" lon="76.9000183"></trkpt>
      <trkpt lat="43.035856" lon="76.8998108"></trkpt>
      <trkpt lat="43.0357187" lon="76.8997496"></trkpt>
      <trkpt lat="43.0360026" lon="76.8990839"></trkpt>
      <trkpt lat="43.0358257" lon="76.8987336"></trkpt>
      <trkpt lat="43.0358284" lon="76.8983174"></trkpt>
      <trkpt lat="43.0356921" lon="76.897888"></trkpt>
      <trkpt lat="43.0355914" lon="76.8978561"></trkpt>
      <trkpt lat="43.0355992" lon="76.8975611"></trkpt>
      <trkpt lat="43.0354405" lon="76.8970691"></trkpt>
      <trkpt lat="43.0355969" lon="76.8960567"></trkpt>
      <trkpt lat="43.0355533" lon="76.8954356"></trkpt>
      <trkpt lat="43.035326" lon="76.8947275"></trkpt>
      <trkpt lat="43.0355589" lon="76.8945361"></trkpt>
      <trkpt lat="43.0354757" lon="76.8944968"></trkpt>
      <trkpt lat="43.0353166" lon="76.8940262"></trkpt>
      <trkpt lat="43.0351352" lon="76.8938648"></trkpt>
      <trkpt lat="43.0352154" lon="76.8938237"></trkpt>
      <trkpt lat="43.0342528" lon="76.8926463"></trkpt>
      <trkpt lat="43.034198" lon="76.8922573"></trkpt>
      <trkpt lat="43.0343772" lon="76.8920097"></trkpt>
      <trkpt lat="43.0342453" lon="76.8921096"></trkpt>
      <trkpt lat="43.0340194" lon="76.8919618"></trkpt>
      <trkpt lat="43.0340451" lon="76.8918149"></trkpt>
      <trkpt lat="43.0337177" lon="76.8917159"></trkpt>
      <trkpt lat="43.0338516" lon="76.8917073"></trkpt>
      <trkpt lat="43.0341217" lon="76.8913166"></trkpt>
      <trkpt lat="43.0333594" lon="76.8906188"></trkpt>
      <trkpt lat="43.033388" lon="76.890502"></trkpt>
      <trkpt lat="43.0332358" lon="76.8902866"></trkpt>
      <trkpt lat="43.0327184" lon="76.8901386"></trkpt>
      <trkpt lat="43.0314939" lon="76.8889652"></trkpt>
      <trkpt lat="43.0311193" lon="76.8888072"></trkpt>
      <trkpt lat="43.0307366" lon="76.8889122"></trkpt>
      <trkpt lat="43.0302271" lon="76.8887008"></trkpt>
      <trkpt lat="43.0298169" lon="76.8883723"></trkpt>
      <trkpt lat="43.0294865" lon="76.8883369"></trkpt>
      <trkpt lat="43.0291806" lon="76.8880857"></trkpt>
      <trkpt lat="43.0291614" lon="76.8879487"></trkpt>
      <trkpt lat="43.0285203" lon="76.8877474"></trkpt>
      <trkpt lat="43.0278075" lon="76.8872346"></trkpt>
      <trkpt lat="43.0278349" lon="76.8871227"></trkpt>
      <trkpt lat="43.0274827" lon="76.886699"></trkpt>
      <trkpt lat="43.0266525" lon="76.8864223"></trkpt>
      <trkpt lat="43.026347" lon="76.8861141"></trkpt>
      <trkpt lat="43.025777" lon="76.8860447"></trkpt>
      <trkpt lat="43.0253517" lon="76.8852802"></trkpt>
      <trkpt lat="43.0249851" lon="76.8852239"></trkpt>
      <trkpt lat="43.024343" lon="76.8839993"></trkpt>
      <trkpt lat="43.024099" lon="76.8836918"></trkpt>
      <trkpt lat="43.0237037" lon="76.8834422"></trkpt>
      <trkpt lat="43.0231334" lon="76.8826273"></trkpt>
      <trkpt lat="43.0229293" lon="76.8820303"></trkpt>
      <trkpt lat="43.0225549" lon="76.8820876"></trkpt>
      <trkpt lat="43.0225175" lon="76.881929"></trkpt>
      <trkpt lat="43.0225901" lon="76.88213"></trkpt>
      <trkpt lat="43.0226358" lon="76.8819358"></trkpt>
      <trkpt lat="43.0221092" lon="76.882191"></trkpt>
      <trkpt lat="43.0220192" lon="76.8820552"></trkpt>
      <trkpt lat="43.0218956" lon="76.8822666"></trkpt>
      <trkpt lat="43.0216289" lon="76.881738"></trkpt>
      <trkpt lat="43.0214489" lon="76.8807415"></trkpt>
      <trkpt lat="43.0214023" lon="76.8811368"></trkpt>
      <trkpt lat="43.0214326" lon="76.880863"></trkpt>
      <trkpt lat="43.0213607" lon="76.8809545"></trkpt>
      <trkpt lat="43.0210162" lon="76.8818177"></trkpt>
      <trkpt lat="43.0210259" lon="76.8815025"></trkpt>
      <trkpt lat="43.0206721" lon="76.8813729"></trkpt>
      <trkpt lat="43.0208" lon="76.8810999"></trkpt>
      <trkpt lat="43.0207066" lon="76.8814707"></trkpt>
      <trkpt lat="43.0205171" lon="76.8812026"></trkpt>
      <trkpt lat="43.0202379" lon="76.8816308"></trkpt>
      <trkpt lat="43.0200004" lon="76.8808852"></trkpt>
      <trkpt lat="43.0197966" lon="76.8805385"></trkpt>
      <trkpt lat="43.0198464" lon="76.8804912"></trkpt>
      <trkpt lat="43.0196158" lon="76.8801803"></trkpt>
      <trkpt lat="43.0194619" lon="76.880105"></trkpt>
      <trkpt lat="43.0192104" lon="76.8797104"></trkpt>
      <trkpt lat="43.0191993" lon="76.8797689"></trkpt>
      <trkpt lat="43.0190958" lon="76.8796916"></trkpt>
      <trkpt lat="43.0188965" lon="76.8793229"></trkpt>
      <trkpt lat="43.0188857" lon="76.8791324"></trkpt>
      <trkpt lat="43.0185912" lon="76.8795066"></trkpt>
      <trkpt lat="43.0184993" lon="76.8791432"></trkpt>
      <trkpt lat="43.0185738" lon="76.8789447"></trkpt>
      <trkpt lat="43.0184016" lon="76.8788418"></trkpt>
      <trkpt lat="43.0182947" lon="76.8783511"></trkpt>
      <trkpt lat="43.0181022" lon="76.8780772"></trkpt>
      <trkpt lat="43.0182355" lon="76.878015"></trkpt>
      <trkpt lat="43.0179156" lon="76.8779576"></trkpt>
      <trkpt lat="43.017929" lon="76.8783284"></trkpt>
      <trkpt lat="43.0179912" lon="76.8782275"></trkpt>
      <trkpt lat="43.0178416" lon="76.8782047"></trkpt>
      <trkpt lat="43.0178909" lon="76.8776772"></trkpt>
      <trkpt lat="43.0176974" lon="76.8777325"></trkpt>
      <trkpt lat="43.0175573" lon="76.878074"></trkpt>
      <trkpt lat="43.0173368" lon="76.8778884"></trkpt>
      <trkpt lat="43.017295" lon="76.8777774"></trkpt>
      <trkpt lat="43.0174321" lon="76.8776923"></trkpt>
      <trkpt lat="43.0172528" lon="76.8777284"></trkpt>
      <trkpt lat="43.0171162" lon="76.8776005"></trkpt>
      <trkpt lat="43.0171113" lon="76.8773571"></trkpt>
      <trkpt lat="43.0169326" lon="76.877337"></trkpt>
      <trkpt lat="43.0169199" lon="76.8770149"></trkpt>
      <trkpt lat="43.0167832" lon="76.87697"></trkpt>
      <trkpt lat="43.0167041" lon="76.8767894"></trkpt>
      <trkpt lat="43.0164642" lon="76.8766157"></trkpt>
      <trkpt lat="43.0163676" lon="76.8762324"></trkpt>
      <trkpt lat="43.0161182" lon="76.8758877"></trkpt>
      <trkpt lat="43.0168293" lon="76.8741035"></trkpt>
      <trkpt lat="43.0176713" lon="76.8735828"></trkpt>
      <trkpt lat="43.0207282" lon="76.8705171"></trkpt>
      <trkpt lat="43.0224511" lon="76.8686153"></trkpt>
      <trkpt lat="43.0231125" lon="76.8677549"></trkpt>
      <trkpt lat="43.0235192" lon="76.867378"></trkpt>
      <trkpt lat="43.0238546" lon="76.8667191"></trkpt>
      <trkpt lat="43.0239742" lon="76.8663682"></trkpt>
      <trkpt lat="43.0239439" lon="76.866138"></trkpt>
      <trkpt lat="43.0238518" lon="76.8658282"></trkpt>
      <trkpt lat="43.0233973" lon="76.8653862"></trkpt>
      <trkpt lat="43.0234343" lon="76.8649727"></trkpt>
      <trkpt lat="43.022941" lon="76.8635747"></trkpt>
      <trkpt lat="43.0224883" lon="76.8626921"></trkpt>
      <trkpt lat="43.0221371" lon="76.8622808"></trkpt>
      <trkpt lat="43.0223475" lon="76.8619156"></trkpt>
      <trkpt lat="43.0226171" lon="76.8618187"></trkpt>
      <trkpt lat="43.0227007" lon="76.861646"></trkpt>
      <trkpt lat="43.0226736" lon="76.8611083"></trkpt>
      <trkpt lat="43.022111" lon="76.8599719"></trkpt>
      <trkpt lat="43.0210786" lon="76.8585127"></trkpt>
      <trkpt lat="43.0204451" lon="76.8583171"></trkpt>
      <trkpt lat="43.0202587" lon="76.8580357"></trkpt>
      <trkpt lat="43.0197368" lon="76.8576115"></trkpt>
      <trkpt lat="43.0197278" lon="76.8581073"></trkpt>
      <trkpt lat="43.0197848" lon="76.8575871"></trkpt>
      <trkpt lat="43.019596" lon="76.856906"></trkpt>
      <trkpt lat="43.019367" lon="76.8568901"></trkpt>
      <trkpt lat="43.0190784" lon="76.8566422"></trkpt>
      <trkpt lat="43.0189216" lon="76.856256"></trkpt>
      <trkpt lat="43.0179793" lon="76.8549741"></trkpt>
      <trkpt lat="43.0179991" lon="76.8540678"></trkpt>
      <trkpt lat="43.0178402" lon="76.8534261"></trkpt>
      <trkpt lat="43.0179861" lon="76.8511961"></trkpt>
      <trkpt lat="43.0176965" lon="76.850369"></trkpt>
      <trkpt lat="43.0177062" lon="76.8498616"></trkpt>
      <trkpt lat="43.0178559" lon="76.8493554"></trkpt>
      <trkpt lat="43.0180848" lon="76.8490785"></trkpt>
      <trkpt lat="43.0181072" lon="76.8488309"></trkpt>
      <trkpt lat="43.0179854" lon="76.8486256"></trkpt>
      <trkpt lat="43.0179293" lon="76.8486082"></trkpt>
      <trkpt lat="43.0179896" lon="76.8486834"></trkpt>
      <trkpt lat="43.0178055" lon="76.848645"></trkpt>
      <trkpt lat="43.017724" lon="76.8481082"></trkpt>
      <trkpt lat="43.0166642" lon="76.8467106"></trkpt>
      <trkpt lat="43.0156373" lon="76.8459884"></trkpt>
      <trkpt lat="43.0149156" lon="76.8452958"></trkpt>
      <trkpt lat="43.0145219" lon="76.8450319"></trkpt>
      <trkpt lat="43.0142092" lon="76.844976"></trkpt>
      <trkpt lat="43.0141487" lon="76.8447218"></trkpt>
      <trkpt lat="43.0138442" lon="76.8447974"></trkpt>
      <trkpt lat="43.013203" lon="76.8443613"></trkpt>
      <trkpt lat="43.0123325" lon="76.8441604"></trkpt>
      <trkpt lat="43.0116259" lon="76.8437753"></trkpt>
      <trkpt lat="43.0118933" lon="76.8434323"></trkpt>
      <trkpt lat="43.0117519" lon="76.8427285"></trkpt>
      <trkpt lat="43.0111402" lon="76.8413404"></trkpt>
      <trkpt lat="43.0104169" lon="76.8399786"></trkpt>
      <trkpt lat="43.0105382" lon="76.8397712"></trkpt>
      <trkpt lat="43.0104029" lon="76.8395946"></trkpt>
      <trkpt lat="43.010454" lon="76.8391181"></trkpt>
      <trkpt lat="43.0102566" lon="76.8385476"></trkpt>
      <trkpt lat="43.0101326" lon="76.8375231"></trkpt>
      <trkpt lat="43.0096185" lon="76.8369949"></trkpt>
      <trkpt lat="43.0097664" lon="76.8369297"></trkpt>
      <trkpt lat="43.0096653" lon="76.8370532"></trkpt>
      <trkpt lat="43.0100511" lon="76.8366815"></trkpt>
      <trkpt lat="43.0097271" lon="76.8365065"></trkpt>
      <trkpt lat="43.0101122" lon="76.8362335"></trkpt>
      <trkpt lat="43.0095902" lon="76.8359673"></trkpt>
      <trkpt lat="43.0094297" lon="76.8360372"></trkpt>
      <trkpt lat="43.0097987" lon="76.8356247"></trkpt>
      <trkpt lat="43.010337" lon="76.8354755"></trkpt>
      <trkpt lat="43.0098139" lon="76.8350452"></trkpt>
      <trkpt lat="43.0101339" lon="76.8349393"></trkpt>
      <trkpt lat="43.0116569" lon="76.8351458"></trkpt>
      <trkpt lat="43.0124892" lon="76.8353612"></trkpt>
      <trkpt lat="43.0126758" lon="76.8356343"></trkpt>
      <trkpt lat="43.0130318" lon="76.8358616"></trkpt>
      <trkpt lat="43.0131943" lon="76.8358213"></trkpt>
      <trkpt lat="43.01317" lon="76.835383"></trkpt>
      <trkpt lat="43.0132096" lon="76.8355229"></trkpt>
      <trkpt lat="43.0138787" lon="76.8359259"></trkpt>
      <trkpt lat="43.0138107" lon="76.83516"></trkpt>
      <trkpt lat="43.0139379" lon="76.8351623"></trkpt>
      <trkpt lat="43.014479" lon="76.8356694"></trkpt>
      <trkpt lat="43.0143588" lon="76.8352504"></trkpt>
      <trkpt lat="43.0145897" lon="76.8352543"></trkpt>
      <trkpt lat="43.0144752" lon="76.8348498"></trkpt>
      <trkpt lat="43.0147984" lon="76.8349047"></trkpt>
      <trkpt lat="43.0147303" lon="76.8350606"></trkpt>
      <trkpt lat="43.0149686" lon="76.8351056"></trkpt>
      <trkpt lat="43.0152068" lon="76.8350578"></trkpt>
      <trkpt lat="43.015102" lon="76.834785"></trkpt>
      <trkpt lat="43.0151977" lon="76.8348761"></trkpt>
      <trkpt lat="43.0157917" lon="76.8347228"></trkpt>
      <trkpt lat="43.0160122" lon="76.8348854"></trkpt>
      <trkpt lat="43.0160072" lon="76.8347109"></trkpt>
      <trkpt lat="43.0167255" lon="76.8346555"></trkpt>
      <trkpt lat="43.0177707" lon="76.8343079"></trkpt>
      <trkpt lat="43.0188725" lon="76.8342775"></trkpt>
      <trkpt lat="43.0190406" lon="76.8341493"></trkpt>
      <trkpt lat="43.0189996" lon="76.8342202"></trkpt>
      <trkpt lat="43.0193432" lon="76.8343587"></trkpt>
      <trkpt lat="43.0193273" lon="76.834561"></trkpt>
      <trkpt lat="43.0195339" lon="76.834539"></trkpt>
      <trkpt lat="43.0197937" lon="76.8347627"></trkpt>
      <trkpt lat="43.019998" lon="76.8347763"></trkpt>
      <trkpt lat="43.0190506" lon="76.8339809"></trkpt>
      <trkpt lat="43.018809" lon="76.8327523"></trkpt>
      <trkpt lat="43.0181444" lon="76.8317609"></trkpt>
      <trkpt lat="43.01814" lon="76.8312345"></trkpt>
      <trkpt lat="43.0185131" lon="76.8311416"></trkpt>
      <trkpt lat="43.0187879" lon="76.8302454"></trkpt>
      <trkpt lat="43.0192852" lon="76.8295389"></trkpt>
      <trkpt lat="43.0195625" lon="76.8294779"></trkpt>
      <trkpt lat="43.019536" lon="76.8294137"></trkpt>
      <trkpt lat="43.0196552" lon="76.8293686"></trkpt>
      <trkpt lat="43.0221034" lon="76.8289531"></trkpt>
      <trkpt lat="43.0230096" lon="76.8284773"></trkpt>
      <trkpt lat="43.0245781" lon="76.8254224"></trkpt>
      <trkpt lat="43.0248186" lon="76.8254166"></trkpt>
      <trkpt lat="43.0251885" lon="76.8225266"></trkpt>
      <trkpt lat="43.0253407" lon="76.8221935"></trkpt>
      <trkpt lat="43.025657" lon="76.8207661"></trkpt>
      <trkpt lat="43.0258932" lon="76.8202568"></trkpt>
      <trkpt lat="43.0262998" lon="76.8198906"></trkpt>
      <trkpt lat="43.0270011" lon="76.8194665"></trkpt>
      <trkpt lat="43.0277332" lon="76.8186955"></trkpt>
      <trkpt lat="43.0282353" lon="76.81877"></trkpt>
      <trkpt lat="43.0284976" lon="76.8180557"></trkpt>
      <trkpt lat="43.0285429" lon="76.8170028"></trkpt>
      <trkpt lat="43.0283411" lon="76.8159013"></trkpt>
      <trkpt lat="43.0279149" lon="76.814885"></trkpt>
      <trkpt lat="43.0275998" lon="76.8144888"></trkpt>
      <trkpt lat="43.0277369" lon="76.8142607"></trkpt>
      <trkpt lat="43.0277802" lon="76.8139307"></trkpt>
      <trkpt lat="43.02765" lon="76.8134929"></trkpt>
      <trkpt lat="43.0274561" lon="76.8132233"></trkpt>
      <trkpt lat="43.0272321" lon="76.8132401"></trkpt>
      <trkpt lat="43.0268059" lon="76.812714"></trkpt>
      <trkpt lat="43.026461" lon="76.8126643"></trkpt>
      <trkpt lat="43.0263628" lon="76.8119455"></trkpt>
      <trkpt lat="43.0264473" lon="76.8117641"></trkpt>
      <trkpt lat="43.0260529" lon="76.8116421"></trkpt>
      <trkpt lat="43.0259935" lon="76.8110323"></trkpt>
      <trkpt lat="43.0258825" lon="76.8109997"></trkpt>
      <trkpt lat="43.0249851" lon="76.8112868"></trkpt>
      <trkpt lat="43.0248903" lon="76.8112949"></trkpt>
      <trkpt lat="43.0245859" lon="76.8110269"></trkpt>
      <trkpt lat="43.0244918" lon="76.8111678"></trkpt>
      <trkpt lat="43.0234707" lon="76.8112506"></trkpt>
      <trkpt lat="43.0236136" lon="76.8109986"></trkpt>
      <trkpt lat="43.0231304" lon="76.8104231"></trkpt>
      <trkpt lat="43.0224982" lon="76.8112498"></trkpt>
      <trkpt lat="43.022286" lon="76.8113475"></trkpt>
      <trkpt lat="43.0220211" lon="76.8107686"></trkpt>
      <trkpt lat="43.0220686" lon="76.810546"></trkpt>
      <trkpt lat="43.0218581" lon="76.8101666"></trkpt>
      <trkpt lat="43.0219999" lon="76.8100708"></trkpt>
      <trkpt lat="43.0218843" lon="76.8093698"></trkpt>
      <trkpt lat="43.0215657" lon="76.808779"></trkpt>
      <trkpt lat="43.0211758" lon="76.8082792"></trkpt>
      <trkpt lat="43.0209354" lon="76.8083818"></trkpt>
      <trkpt lat="43.0207713" lon="76.8082651"></trkpt>
      <trkpt lat="43.0213731" lon="76.8052808"></trkpt>
      <trkpt lat="43.0217388" lon="76.8048826"></trkpt>
      <trkpt lat="43.0221731" lon="76.8041583"></trkpt>
      <trkpt lat="43.0224223" lon="76.8034927"></trkpt>
      <trkpt lat="43.0225705" lon="76.8026381"></trkpt>
      <trkpt lat="43.0224698" lon="76.8021683"></trkpt>
      <trkpt lat="43.0225021" lon="76.8013922"></trkpt>
      <trkpt lat="43.0226687" lon="76.8005897"></trkpt>
      <trkpt lat="43.0229432" lon="76.7997869"></trkpt>
      <trkpt lat="43.0232919" lon="76.7990962"></trkpt>
      <trkpt lat="43.0236894" lon="76.7974159"></trkpt>
      <trkpt lat="43.0244375" lon="76.7956886"></trkpt>
      <trkpt lat="43.0245326" lon="76.7948789"></trkpt>
      <trkpt lat="43.0248133" lon="76.7940995"></trkpt>
      <trkpt lat="43.0252729" lon="76.7935317"></trkpt>
      <trkpt lat="43.0258076" lon="76.7932316"></trkpt>
      <trkpt lat="43.0261351" lon="76.7926492"></trkpt>
      <trkpt lat="43.0265852" lon="76.7922631"></trkpt>
      <trkpt lat="43.0270068" lon="76.7923014"></trkpt>
      <trkpt lat="43.027014" lon="76.7922348"></trkpt>
      <trkpt lat="43.027171" lon="76.7923177"></trkpt>
      <trkpt lat="43.0272264" lon="76.7921059"></trkpt>
      <trkpt lat="43.0274669" lon="76.7919774"></trkpt>
      <trkpt lat="43.027514" lon="76.7907231"></trkpt>
      <trkpt lat="43.0277515" lon="76.7903149"></trkpt>
      <trkpt lat="43.0279093" lon="76.7902333"></trkpt>
      <trkpt lat="43.028263" lon="76.7892298"></trkpt>
      <trkpt lat="43.0287082" lon="76.7890105"></trkpt>
      <trkpt lat="43.0289384" lon="76.7884009"></trkpt>
      <trkpt lat="43.0290998" lon="76.7873108"></trkpt>
      <trkpt lat="43.0290448" lon="76.7867578"></trkpt>
      <trkpt lat="43.028926" lon="76.7864851"></trkpt>
      <trkpt lat="43.0293204" lon="76.7863034"></trkpt>
      <trkpt lat="43.0295209" lon="76.7858586"></trkpt>
      <trkpt lat="43.0297901" lon="76.7856298"></trkpt>
      <trkpt lat="43.0301805" lon="76.7848952"></trkpt>
      <trkpt lat="43.031069" lon="76.7846754"></trkpt>
      <trkpt lat="43.0311691" lon="76.7845663"></trkpt>
      <trkpt lat="43.0313131" lon="76.7845734"></trkpt>
      <trkpt lat="43.0313458" lon="76.784475"></trkpt>
      <trkpt lat="43.031496" lon="76.7846177"></trkpt>
      <trkpt lat="43.0316041" lon="76.784428"></trkpt>
      <trkpt lat="43.0320313" lon="76.784234"></trkpt>
      <trkpt lat="43.032722" lon="76.7832461"></trkpt>
      <trkpt lat="43.0336373" lon="76.7826868"></trkpt>
      <trkpt lat="43.0343101" lon="76.7820315"></trkpt>
      <trkpt lat="43.034686" lon="76.7817917"></trkpt>
      <trkpt lat="43.0350435" lon="76.7818136"></trkpt>
      <trkpt lat="43.0351352" lon="76.7819387"></trkpt>
      <trkpt lat="43.0353308" lon="76.7818806"></trkpt>
      <trkpt lat="43.036129" lon="76.7808948"></trkpt>
      <trkpt lat="43.0367683" lon="76.7804438"></trkpt>
      <trkpt lat="43.0371178" lon="76.7803859"></trkpt>
      <trkpt lat="43.0372265" lon="76.7802273"></trkpt>
      <trkpt lat="43.0376378" lon="76.7800403"></trkpt>
      <trkpt lat="43.0388121" lon="76.7796949"></trkpt>
      <trkpt lat="43.0397221" lon="76.7796452"></trkpt>
      <trkpt lat="43.0399368" lon="76.7795654"></trkpt>
      <trkpt lat="43.0407268" lon="76.780168"></trkpt>
      <trkpt lat="43.0408971" lon="76.7799637"></trkpt>
      <trkpt lat="43.0411382" lon="76.7798514"></trkpt>
      <trkpt lat="43.0412403" lon="76.7795476"></trkpt>
      <trkpt lat="43.0413476" lon="76.7795468"></trkpt>
      <trkpt lat="43.0414554" lon="76.7795578"></trkpt>
      <trkpt lat="43.0415577" lon="76.7797701"></trkpt>
      <trkpt lat="43.0414631" lon="76.7800173"></trkpt>
      <trkpt lat="43.0416198" lon="76.7801551"></trkpt>
      <trkpt lat="43.0417642" lon="76.7799375"></trkpt>
      <trkpt lat="43.0419479" lon="76.7799695"></trkpt>
      <trkpt lat="43.042086" lon="76.7798469"></trkpt>
      <trkpt lat="43.0423884" lon="76.7798196"></trkpt>
      <trkpt lat="43.0425196" lon="76.7800106"></trkpt>
      <trkpt lat="43.0427434" lon="76.7800562"></trkpt>
      <trkpt lat="43.0429427" lon="76.7800277"></trkpt>
      <trkpt lat="43.0430023" lon="76.7798603"></trkpt>
      <trkpt lat="43.0434069" lon="76.7798107"></trkpt>
      <trkpt lat="43.0437044" lon="76.7800565"></trkpt>
      <trkpt lat="43.0438738" lon="76.7799975"></trkpt>
      <trkpt lat="43.0439182" lon="76.7800504"></trkpt>
      <trkpt lat="43.0440486" lon="76.7798956"></trkpt>
      <trkpt lat="43.0442276" lon="76.7799564"></trkpt>
      <trkpt lat="43.0443733" lon="76.779665"></trkpt>
      <trkpt lat="43.0445477" lon="76.7796776"></trkpt>
      <trkpt lat="43.0445873" lon="76.7794835"></trkpt>
      <trkpt lat="43.0449505" lon="76.7792181"></trkpt>
      <trkpt lat="43.0450725" lon="76.7787809"></trkpt>
      <trkpt lat="43.0454777" lon="76.7786815"></trkpt>
      <trkpt lat="43.0459606" lon="76.7789182"></trkpt>
      <trkpt lat="43.0461295" lon="76.7788306"></trkpt>
      <trkpt lat="43.0462488" lon="76.7789439"></trkpt>
      <trkpt lat="43.0464327" lon="76.7788249"></trkpt>
      <trkpt lat="43.0465749" lon="76.7788905"></trkpt>
      <trkpt lat="43.0470495" lon="76.7791651"></trkpt>
      <trkpt lat="43.0472675" lon="76.7796378"></trkpt>
      <trkpt lat="43.0474659" lon="76.7797323"></trkpt>
      <trkpt lat="43.0478275" lon="76.7796182"></trkpt>
      <trkpt lat="43.0483689" lon="76.7795995"></trkpt>
      <trkpt lat="43.0484537" lon="76.7796628"></trkpt>
      <trkpt lat="43.0486843" lon="76.7795525"></trkpt>
      <trkpt lat="43.0489183" lon="76.7796936"></trkpt>
      <trkpt lat="43.0493503" lon="76.779646"></trkpt>
      <trkpt lat="43.0500795" lon="76.7797809"></trkpt>
      <trkpt lat="43.0504491" lon="76.7796441"></trkpt>
      <trkpt lat="43.0508817" lon="76.7796902"></trkpt>
      <trkpt lat="43.0512801" lon="76.7798972"></trkpt>
      <trkpt lat="43.0517977" lon="76.7799701"></trkpt>
      <trkpt lat="43.0525219" lon="76.7803118"></trkpt>
      <trkpt lat="43.0528218" lon="76.7807678"></trkpt>
      <trkpt lat="43.0534363" lon="76.7811816"></trkpt>
      <trkpt lat="43.0540725" lon="76.7819126"></trkpt>
      <trkpt lat="43.0541701" lon="76.7819287"></trkpt>
      <trkpt lat="43.0543396" lon="76.7817869"></trkpt>
      <trkpt lat="43.0546059" lon="76.7824594"></trkpt>
      <trkpt lat="43.0552236" lon="76.7833086"></trkpt>
      <trkpt lat="43.0555919" lon="76.7836764"></trkpt>
      <trkpt lat="43.0561163" lon="76.7845059"></trkpt>
      <trkpt lat="43.0563423" lon="76.7852784"></trkpt>
      <trkpt lat="43.0566053" lon="76.7857219"></trkpt>
      <trkpt lat="43.0576259" lon="76.7868471"></trkpt>
      <trkpt lat="43.0580313" lon="76.7871552"></trkpt>
      <trkpt lat="43.0583044" lon="76.7871604"></trkpt>
      <trkpt lat="43.0584585" lon="76.7875934"></trkpt>
      <trkpt lat="43.0588965" lon="76.7877313"></trkpt>
      <trkpt lat="43.0590518" lon="76.787638"></trkpt>
      <trkpt lat="43.0594999" lon="76.7881206"></trkpt>
      <trkpt lat="43.0599384" lon="76.7883894"></trkpt>
      <trkpt lat="43.0612255" lon="76.7887497"></trkpt>
      <trkpt lat="43.0612466" lon="76.7888853"></trkpt>
      <trkpt lat="43.061593" lon="76.7890533"></trkpt>
      <trkpt lat="43.0618891" lon="76.7895745"></trkpt>
      <trkpt lat="43.062167" lon="76.7897086"></trkpt>
      <trkpt lat="43.0625406" lon="76.7897175"></trkpt>
      <trkpt lat="43.063099" lon="76.7902931"></trkpt>
      <trkpt lat="43.0632406" lon="76.7902344"></trkpt>
      <trkpt lat="43.0634126" lon="76.7903331"></trkpt>
      <trkpt lat="43.0633269" lon="76.7905328"></trkpt>
      <trkpt lat="43.0631882" lon="76.7905304"></trkpt>
      <trkpt lat="43.0631063" lon="76.7906668"></trkpt>
      <trkpt lat="43.0630089" lon="76.7905278"></trkpt>
      <trkpt lat="43.0628642" lon="76.7905527"></trkpt>
      <trkpt lat="43.0628641" lon="76.7908827"></trkpt>
      <trkpt lat="43.0630021" lon="76.7910237"></trkpt>
      <trkpt lat="43.062929" lon="76.7911937"></trkpt>
      <trkpt lat="43.0629741" lon="76.7915725"></trkpt>
      <trkpt lat="43.0632461" lon="76.7919221"></trkpt>
      <trkpt lat="43.0636735" lon="76.7921874"></trkpt>
      <trkpt lat="43.0638284" lon="76.792573"></trkpt>
      <trkpt lat="43.0640523" lon="76.7926163"></trkpt>
      <trkpt lat="43.0642293" lon="76.7927773"></trkpt>
      <trkpt lat="43.0646889" lon="76.7927767"></trkpt>
      <trkpt lat="43.0653078" lon="76.793091"></trkpt>
      <trkpt lat="43.0656846" lon="76.7930951"></trkpt>
      <trkpt lat="43.0659306" lon="76.7924935"></trkpt>
      <trkpt lat="43.0661622" lon="76.7922357"></trkpt>
      <trkpt lat="43.0668663" lon="76.7924673"></trkpt>
      <trkpt lat="43.0683227" lon="76.7922568"></trkpt>
      <trkpt lat="43.0688987" lon="76.7923441"></trkpt>
      <trkpt lat="43.0690526" lon="76.7926264"></trkpt>
      <trkpt lat="43.069085" lon="76.7929724"></trkpt>
      <trkpt lat="43.0696322" lon="76.7931921"></trkpt>
      <trkpt lat="43.0698199" lon="76.793143"></trkpt>
      <trkpt lat="43.0702121" lon="76.7927578"></trkpt>
      <trkpt lat="43.0706989" lon="76.7926882"></trkpt>
      <trkpt lat="43.0708641" lon="76.7925404"></trkpt>
      <trkpt lat="43.0709569" lon="76.7925639"></trkpt>
      <trkpt lat="43.0712025" lon="76.792319"></trkpt>
      <trkpt lat="43.0718061" lon="76.7913923"></trkpt>
      <trkpt lat="43.0724093" lon="76.7911251"></trkpt>
      <trkpt lat="43.0735058" lon="76.7911902"></trkpt>
      <trkpt lat="43.0749226" lon="76.79151"></trkpt>
      <trkpt lat="43.0755684" lon="76.7914744"></trkpt>
      <trkpt lat="43.0760742" lon="76.7912137"></trkpt>
      <trkpt lat="43.0762532" lon="76.7907156"></trkpt>
      <trkpt lat="43.0774396" lon="76.7897344"></trkpt>
      <trkpt lat="43.0776591" lon="76.7896627"></trkpt>
      <trkpt lat="43.0782597" lon="76.789738"></trkpt>
      <trkpt lat="43.0792761" lon="76.789211"></trkpt>
      <trkpt lat="43.0799024" lon="76.7890013"></trkpt>
      <trkpt lat="43.0802914" lon="76.788997"></trkpt>
      <trkpt lat="43.0812901" lon="76.7892579"></trkpt>
      <trkpt lat="43.0815258" lon="76.7891994"></trkpt>
      <trkpt lat="43.0825429" lon="76.7894441"></trkpt>
      <trkpt lat="43.0829691" lon="76.7891973"></trkpt>
      <trkpt lat="43.0837882" lon="76.7884778"></trkpt>
      <trkpt lat="43.0842657" lon="76.7877825"></trkpt>
      <trkpt lat="43.0846877" lon="76.7873489"></trkpt>
      <trkpt lat="43.0848448" lon="76.7872946"></trkpt>
      <trkpt lat="43.0848829" lon="76.7869956"></trkpt>
      <trkpt lat="43.0853749" lon="76.7863869"></trkpt>
      <trkpt lat="43.0860425" lon="76.7861853"></trkpt>
      <trkpt lat="43.086653" lon="76.7857082"></trkpt>
      <trkpt lat="43.0870118" lon="76.7855952"></trkpt>
      <trkpt lat="43.0875121" lon="76.7856662"></trkpt>
      <trkpt lat="43.0875072" lon="76.7860983"></trkpt>
      <trkpt lat="43.0876012" lon="76.7861341"></trkpt>
      <trkpt lat="43.087686" lon="76.7860563"></trkpt>
      <trkpt lat="43.087703" lon="76.7854474"></trkpt>
      <trkpt lat="43.0880861" lon="76.785172"></trkpt>
      <trkpt lat="43.0884302" lon="76.7851753"></trkpt>
      <trkpt lat="43.0889781" lon="76.7850053"></trkpt>
      <trkpt lat="43.0899178" lon="76.7849777"></trkpt>
      <trkpt lat="43.0914988" lon="76.7854683"></trkpt>
      <trkpt lat="43.0919462" lon="76.7855611"></trkpt>
      <trkpt lat="43.0925318" lon="76.7855545"></trkpt>
      <trkpt lat="43.0933284" lon="76.7851336"></trkpt>
      <trkpt lat="43.0942283" lon="76.7852782"></trkpt>
      <trkpt lat="43.0944764" lon="76.7852414"></trkpt>
      <trkpt lat="43.0948001" lon="76.7849616"></trkpt>
      <trkpt lat="43.0952978" lon="76.7847032"></trkpt>
      <trkpt lat="43.0951963" lon="76.7846145"></trkpt>
      <trkpt lat="43.0951659" lon="76.7847026"></trkpt>
      <trkpt lat="43.0951335" lon="76.7846084"></trkpt>
      <trkpt lat="43.0950394" lon="76.7846926"></trkpt>
    </trkseg>
  </trk>
</gpx>