<?xml version="1.0" encoding="UTF-8"?>
<gpx xmlns="http://www.topografix.com/GPX/1/1" version="1.1" creator="AlpineQuest 2.4.1.r10260" xmlns:xsi="http://www.w3.org/2001/XMLSchema-instance" xsi:schemaLocation="http://www.topografix.com/GPX/1/1 http://www.topografix.com/GPX/1/1/gpx.xsd">
<metadata>
<link href="https://www.alpinequest.net/fr" />
<time>2026-09-29T05:37:44Z</time>
</metadata>
<trk>
<name>Maroc post #2 sud-nord</name>
<extensions>
	<line xmlns="http://www.topografix.com/GPX/gpx_style/0/2">
		<color>EE1010</color>
	</line>
</extensions>
<trkseg>
<trkpt lat="30.9923175" lon="-7.9048371">
<ele>2060.065</ele>
</trkpt>
<trkpt lat="30.9927401" lon="-7.9041312">
<ele>2043.807</ele>
</trkpt>
<trkpt lat="30.9932076" lon="-7.903497">
<ele>2025.292</ele>
</trkpt>
<trkpt lat="30.9935582" lon="-7.9027891">
<ele>2012.751</ele>
</trkpt>
<trkpt lat="30.9939655" lon="-7.9020766">
<ele>2027.324</ele>
</trkpt>
<trkpt lat="30.9944029" lon="-7.9014461">
<ele>2035.171</ele>
</trkpt>
<trkpt lat="30.9948659" lon="-7.9007997">
<ele>2045.943</ele>
</trkpt>
<trkpt lat="30.9954478" lon="-7.9002998">
<ele>2061.325</ele>
</trkpt>
<trkpt lat="30.9960225" lon="-7.8997691">
<ele>2083.021</ele>
</trkpt>
<trkpt lat="30.9965428" lon="-7.8991762">
<ele>2094.267</ele>
</trkpt>
<trkpt lat="30.9970969" lon="-7.898629">
<ele>2102.476</ele>
</trkpt>
<trkpt lat="30.9977696" lon="-7.8982897">
<ele>2130.716</ele>
</trkpt>
<trkpt lat="30.99854" lon="-7.8981982">
<ele>2153.253</ele>
</trkpt>
<trkpt lat="30.9992489" lon="-7.8982553">
<ele>2171.743</ele>
</trkpt>
<trkpt lat="31.000002" lon="-7.8984455">
<ele>2202.478</ele>
</trkpt>
<trkpt lat="31.0007484" lon="-7.8985851">
<ele>2233.35</ele>
</trkpt>
<trkpt lat="31.0014568" lon="-7.8987502">
<ele>2254.679</ele>
</trkpt>
<trkpt lat="31.0021893" lon="-7.8988756">
<ele>2279.964</ele>
</trkpt>
<trkpt lat="31.002903" lon="-7.8988828">
<ele>2309.54</ele>
</trkpt>
<trkpt lat="31.0035724" lon="-7.8986318">
<ele>2335.457</ele>
</trkpt>
<trkpt lat="31.0042113" lon="-7.8982991">
<ele>2366.948</ele>
</trkpt>
<trkpt lat="31.0046575" lon="-7.89803">
<ele>2390.99</ele>
</trkpt>
<trkpt lat="31.0051295" lon="-7.8973885">
<ele>2418.406</ele>
</trkpt>
<trkpt lat="31.005608" lon="-7.8967733">
<ele>2454.136</ele>
</trkpt>
<trkpt lat="31.0060736" lon="-7.8961756">
<ele>2482.652</ele>
</trkpt>
<trkpt lat="31.0065101" lon="-7.895545">
<ele>2514.74</ele>
</trkpt>
<trkpt lat="31.0070448" lon="-7.8949334">
<ele>2550.913</ele>
</trkpt>
<trkpt lat="31.0075545" lon="-7.8943251">
<ele>2587.789</ele>
</trkpt>
<trkpt lat="31.0080589" lon="-7.8937028">
<ele>2633.742</ele>
</trkpt>
<trkpt lat="31.0086135" lon="-7.8932168">
<ele>2662.294</ele>
</trkpt>
<trkpt lat="31.0090936" lon="-7.8926087">
<ele>2699.406</ele>
</trkpt>
<trkpt lat="31.0093423" lon="-7.8923127">
<ele>2722.055</ele>
</trkpt>
<trkpt lat="31.0098626" lon="-7.8917506">
<ele>2764.869</ele>
</trkpt>
<trkpt lat="31.0104351" lon="-7.8912145">
<ele>2805.097</ele>
</trkpt>
<trkpt lat="31.011001" lon="-7.890603">
<ele>2856.16</ele>
</trkpt>
<trkpt lat="31.0115068" lon="-7.8900399">
<ele>2902.976</ele>
</trkpt>
<trkpt lat="31.0120733" lon="-7.8895278">
<ele>2944.34</ele>
</trkpt>
<trkpt lat="31.0126068" lon="-7.8889347">
<ele>2996.965</ele>
</trkpt>
<trkpt lat="31.0131879" lon="-7.888404">
<ele>3036.658</ele>
</trkpt>
<trkpt lat="31.0137684" lon="-7.8879366">
<ele>3027.613</ele>
</trkpt>
<trkpt lat="31.0143591" lon="-7.8874108">
<ele>2982.889</ele>
</trkpt>
<trkpt lat="31.0148786" lon="-7.8867596">
<ele>2934.463</ele>
</trkpt>
<trkpt lat="31.015371" lon="-7.8861596">
<ele>2889.953</ele>
</trkpt>
<trkpt lat="31.015806" lon="-7.8857776">
<ele>2858.178</ele>
</trkpt>
<trkpt lat="31.0162788" lon="-7.8851719">
<ele>2813.005</ele>
</trkpt>
<trkpt lat="31.0167722" lon="-7.8845803">
<ele>2762.369</ele>
</trkpt>
<trkpt lat="31.0172085" lon="-7.883906">
<ele>2733.577</ele>
</trkpt>
<trkpt lat="31.0177288" lon="-7.8833109">
<ele>2680.565</ele>
</trkpt>
<trkpt lat="31.0182485" lon="-7.8826914">
<ele>2639.399</ele>
</trkpt>
<trkpt lat="31.0186882" lon="-7.8820026">
<ele>2600.522</ele>
</trkpt>
<trkpt lat="31.0192061" lon="-7.8814185">
<ele>2560.337</ele>
</trkpt>
<trkpt lat="31.0197174" lon="-7.8808537">
<ele>2520.895</ele>
</trkpt>
<trkpt lat="31.0202113" lon="-7.8802357">
<ele>2483.051</ele>
</trkpt>
<trkpt lat="31.0207477" lon="-7.8797166">
<ele>2444.797</ele>
</trkpt>
<trkpt lat="31.0212557" lon="-7.8791615">
<ele>2411.138</ele>
</trkpt>
<trkpt lat="31.0216626" lon="-7.8784991">
<ele>2378.297</ele>
</trkpt>
<trkpt lat="31.0219425" lon="-7.8776583">
<ele>2347.448</ele>
</trkpt>
<trkpt lat="31.0220702" lon="-7.8768195">
<ele>2337.161</ele>
</trkpt>
<trkpt lat="31.0220688" lon="-7.8759812">
<ele>2323.083</ele>
</trkpt>
<trkpt lat="31.0220256" lon="-7.8751518">
<ele>2306.32</ele>
</trkpt>
<trkpt lat="31.021981" lon="-7.8750128">
<ele>2305.126</ele>
</trkpt>
<trkpt lat="31.0216213" lon="-7.8743075">
<ele>2301.263</ele>
</trkpt>
<trkpt lat="31.0211761" lon="-7.8736563">
<ele>2293.364</ele>
</trkpt>
<trkpt lat="31.0209051" lon="-7.8728968">
<ele>2281.125</ele>
</trkpt>
<trkpt lat="31.0206411" lon="-7.8721281">
<ele>2255.561</ele>
</trkpt>
<trkpt lat="31.0203166" lon="-7.8713643">
<ele>2239.837</ele>
</trkpt>
<trkpt lat="31.020049" lon="-7.8705684">
<ele>2222.378</ele>
</trkpt>
<trkpt lat="31.0197139" lon="-7.8698599">
<ele>2202.83</ele>
</trkpt>
<trkpt lat="31.0195168" lon="-7.8690865">
<ele>2180.784</ele>
</trkpt>
<trkpt lat="31.0193203" lon="-7.8682376">
<ele>2161.224</ele>
</trkpt>
<trkpt lat="31.0192057" lon="-7.8674064">
<ele>2131.036</ele>
</trkpt>
<trkpt lat="31.0190947" lon="-7.866607">
<ele>2090.155</ele>
</trkpt>
<trkpt lat="31.0191231" lon="-7.8659555">
<ele>2059.019</ele>
</trkpt>
</trkseg>
<trkseg>
<trkpt lat="31.0197749" lon="-7.866493">
<ele>2100.924</ele>
</trkpt>
<trkpt lat="31.0203205" lon="-7.8670627">
<ele>2128.245</ele>
</trkpt>
<trkpt lat="31.0209025" lon="-7.8675979">
<ele>2159.991</ele>
</trkpt>
<trkpt lat="31.0215528" lon="-7.8679466">
<ele>2179.385</ele>
</trkpt>
<trkpt lat="31.0222595" lon="-7.8682172">
<ele>2185.096</ele>
</trkpt>
<trkpt lat="31.0229521" lon="-7.8684112">
<ele>2194.979</ele>
</trkpt>
<trkpt lat="31.0236389" lon="-7.8685819">
<ele>2215.701</ele>
</trkpt>
<trkpt lat="31.0243956" lon="-7.8685882">
<ele>2223.443</ele>
</trkpt>
<trkpt lat="31.0251362" lon="-7.8685969">
<ele>2236.674</ele>
</trkpt>
<trkpt lat="31.0258664" lon="-7.8686858">
<ele>2262.827</ele>
</trkpt>
<trkpt lat="31.0265716" lon="-7.8687285">
<ele>2290.795</ele>
</trkpt>
<trkpt lat="31.0272616" lon="-7.8688252">
<ele>2319.365</ele>
</trkpt>
<trkpt lat="31.0273902" lon="-7.8688219">
<ele>2325.514</ele>
</trkpt>
<trkpt lat="31.0280773" lon="-7.8689558">
<ele>2347.879</ele>
</trkpt>
<trkpt lat="31.0287596" lon="-7.869209">
<ele>2363.462</ele>
</trkpt>
<trkpt lat="31.029341" lon="-7.8696839">
<ele>2376.551</ele>
</trkpt>
<trkpt lat="31.0299251" lon="-7.8701452">
<ele>2392.311</ele>
</trkpt>
<trkpt lat="31.0303194" lon="-7.8708547">
<ele>2397.913</ele>
</trkpt>
<trkpt lat="31.0306539" lon="-7.8715852">
<ele>2393.834</ele>
</trkpt>
<trkpt lat="31.0311397" lon="-7.8722344">
<ele>2404.607</ele>
</trkpt>
<trkpt lat="31.0315462" lon="-7.8728987">
<ele>2419.554</ele>
</trkpt>
<trkpt lat="31.0315479" lon="-7.872907">
<ele>2419.7</ele>
</trkpt>
<trkpt lat="31.0320539" lon="-7.8734727">
<ele>2427.927</ele>
</trkpt>
<trkpt lat="31.0325141" lon="-7.8740792">
<ele>2423.279</ele>
</trkpt>
<trkpt lat="31.0329566" lon="-7.8747113">
<ele>2417.862</ele>
</trkpt>
<trkpt lat="31.0334056" lon="-7.8753253">
<ele>2412.953</ele>
</trkpt>
<trkpt lat="31.0336289" lon="-7.8761144">
<ele>2407.472</ele>
</trkpt>
<trkpt lat="31.0337574" lon="-7.8769356">
<ele>2395.566</ele>
</trkpt>
<trkpt lat="31.0335916" lon="-7.8777428">
<ele>2383.108</ele>
</trkpt>
<trkpt lat="31.0333536" lon="-7.878523">
<ele>2364.557</ele>
</trkpt>
<trkpt lat="31.0330021" lon="-7.8792426">
<ele>2326.337</ele>
</trkpt>
<trkpt lat="31.0326779" lon="-7.8799391">
<ele>2315.702</ele>
</trkpt>
<trkpt lat="31.0325529" lon="-7.8807708">
<ele>2310.848</ele>
</trkpt>
<trkpt lat="31.0324148" lon="-7.8815973">
<ele>2307.87</ele>
</trkpt>
<trkpt lat="31.0324288" lon="-7.8824506">
<ele>2326.981</ele>
</trkpt>
<trkpt lat="31.0325271" lon="-7.8832643">
<ele>2331.424</ele>
</trkpt>
<trkpt lat="31.0328062" lon="-7.8840028">
<ele>2358.71</ele>
</trkpt>
<trkpt lat="31.0329203" lon="-7.8848027">
<ele>2356.525</ele>
</trkpt>
<trkpt lat="31.0329075" lon="-7.8848641">
<ele>2352.516</ele>
</trkpt>
<trkpt lat="31.0328666" lon="-7.8856917">
<ele>2327.047</ele>
</trkpt>
<trkpt lat="31.0328822" lon="-7.886541">
<ele>2321.076</ele>
</trkpt>
<trkpt lat="31.032771" lon="-7.8873495">
<ele>2325.016</ele>
</trkpt>
<trkpt lat="31.0324396" lon="-7.8881271">
<ele>2330.644</ele>
</trkpt>
<trkpt lat="31.0321581" lon="-7.8889057">
<ele>2339.758</ele>
</trkpt>
<trkpt lat="31.0319207" lon="-7.8897018">
<ele>2331.5</ele>
</trkpt>
<trkpt lat="31.0317621" lon="-7.8903804">
<ele>2324.061</ele>
</trkpt>
<trkpt lat="31.0319166" lon="-7.8911934">
<ele>2329.629</ele>
</trkpt>
<trkpt lat="31.0321282" lon="-7.8920286">
<ele>2338.994</ele>
</trkpt>
<trkpt lat="31.0325184" lon="-7.8927592">
<ele>2350.855</ele>
</trkpt>
<trkpt lat="31.0331802" lon="-7.8930952">
<ele>2389.813</ele>
</trkpt>
<trkpt lat="31.033873" lon="-7.8930721">
<ele>2424.38</ele>
</trkpt>
<trkpt lat="31.0345761" lon="-7.8928894">
<ele>2451.666</ele>
</trkpt>
<trkpt lat="31.0353225" lon="-7.8926686">
<ele>2480.301</ele>
</trkpt>
<trkpt lat="31.0360411" lon="-7.8925349">
<ele>2514.725</ele>
</trkpt>
<trkpt lat="31.0367414" lon="-7.8924183">
<ele>2545.344</ele>
</trkpt>
<trkpt lat="31.036885" lon="-7.892377">
<ele>2551.93</ele>
</trkpt>
<trkpt lat="31.0376069" lon="-7.8920795">
<ele>2591.767</ele>
</trkpt>
<trkpt lat="31.0382922" lon="-7.8918797">
<ele>2627.331</ele>
</trkpt>
<trkpt lat="31.0389932" lon="-7.8916799">
<ele>2660.652</ele>
</trkpt>
<trkpt lat="31.0397176" lon="-7.8914952">
<ele>2704.771</ele>
</trkpt>
<trkpt lat="31.0403987" lon="-7.8913058">
<ele>2748.784</ele>
</trkpt>
<trkpt lat="31.0410814" lon="-7.8909942">
<ele>2787.744</ele>
</trkpt>
<trkpt lat="31.0417693" lon="-7.8907522">
<ele>2825.865</ele>
</trkpt>
<trkpt lat="31.042471" lon="-7.8904695">
<ele>2870.088</ele>
</trkpt>
<trkpt lat="31.0431414" lon="-7.8901953">
<ele>2910.259</ele>
</trkpt>
<trkpt lat="31.0438389" lon="-7.890033">
<ele>2962.832</ele>
</trkpt>
<trkpt lat="31.0442032" lon="-7.8899032">
<ele>2987.578</ele>
</trkpt>
<trkpt lat="31.04491" lon="-7.8896149">
<ele>3033.503</ele>
</trkpt>
<trkpt lat="31.0456205" lon="-7.8893698">
<ele>3084.328</ele>
</trkpt>
<trkpt lat="31.0463182" lon="-7.8891111">
<ele>3137.264</ele>
</trkpt>
<trkpt lat="31.0470333" lon="-7.8889844">
<ele>3182.592</ele>
</trkpt>
<trkpt lat="31.0477308" lon="-7.8887496">
<ele>3230.875</ele>
</trkpt>
<trkpt lat="31.0483639" lon="-7.8882755">
<ele>3272.8</ele>
</trkpt>
<trkpt lat="31.049019" lon="-7.8879246">
<ele>3284.492</ele>
</trkpt>
<trkpt lat="31.049146" lon="-7.88786">
<ele>3275.578</ele>
</trkpt>
<trkpt lat="31.049764" lon="-7.8874764">
<ele>3240.556</ele>
</trkpt>
<trkpt lat="31.0504624" lon="-7.8871155">
<ele>3196.068</ele>
</trkpt>
<trkpt lat="31.0511121" lon="-7.8868147">
<ele>3156.214</ele>
</trkpt>
<trkpt lat="31.0517809" lon="-7.8865477">
<ele>3113.56</ele>
</trkpt>
<trkpt lat="31.0524879" lon="-7.8861375">
<ele>3066.666</ele>
</trkpt>
<trkpt lat="31.0531435" lon="-7.8857955">
<ele>3026.667</ele>
</trkpt>
<trkpt lat="31.0537972" lon="-7.8854319">
<ele>2981.096</ele>
</trkpt>
<trkpt lat="31.0543724" lon="-7.8849757">
<ele>2956.581</ele>
</trkpt>
<trkpt lat="31.0549545" lon="-7.8844998">
<ele>2929.072</ele>
</trkpt>
<trkpt lat="31.0554279" lon="-7.8840836">
<ele>2923.273</ele>
</trkpt>
<trkpt lat="31.0560891" lon="-7.8836833">
<ele>2875.965</ele>
</trkpt>
<trkpt lat="31.0567943" lon="-7.8832597">
<ele>2843.378</ele>
</trkpt>
<trkpt lat="31.057408" lon="-7.8828044">
<ele>2813.335</ele>
</trkpt>
<trkpt lat="31.0580453" lon="-7.8823565">
<ele>2781.754</ele>
</trkpt>
<trkpt lat="31.0586689" lon="-7.8819781">
<ele>2751.74</ele>
</trkpt>
<trkpt lat="31.0593011" lon="-7.8816333">
<ele>2720.138</ele>
</trkpt>
<trkpt lat="31.0599163" lon="-7.8812384">
<ele>2694.028</ele>
</trkpt>
<trkpt lat="31.0604208" lon="-7.880618">
<ele>2670.16</ele>
</trkpt>
<trkpt lat="31.0610097" lon="-7.8800309">
<ele>2638.45</ele>
</trkpt>
<trkpt lat="31.0616426" lon="-7.8795028">
<ele>2610.639</ele>
</trkpt>
<trkpt lat="31.0621857" lon="-7.8789936">
<ele>2583.64</ele>
</trkpt>
<trkpt lat="31.0627222" lon="-7.8784743">
<ele>2555.458</ele>
</trkpt>
<trkpt lat="31.0633308" lon="-7.8780206">
<ele>2527.747</ele>
</trkpt>
<trkpt lat="31.0638507" lon="-7.877444">
<ele>2502.487</ele>
</trkpt>
<trkpt lat="31.0641761" lon="-7.8767176">
<ele>2484.67</ele>
</trkpt>
<trkpt lat="31.0642738" lon="-7.8758872">
<ele>2457.735</ele>
</trkpt>
<trkpt lat="31.0640927" lon="-7.875098">
<ele>2429.249</ele>
</trkpt>
<trkpt lat="31.0640903" lon="-7.8750421">
<ele>2427.149</ele>
</trkpt>
<trkpt lat="31.0641209" lon="-7.8742193">
<ele>2408.618</ele>
</trkpt>
<trkpt lat="31.0638675" lon="-7.873446">
<ele>2388.168</ele>
</trkpt>
<trkpt lat="31.0636986" lon="-7.8726359">
<ele>2378.953</ele>
</trkpt>
<trkpt lat="31.0635297" lon="-7.8718243">
<ele>2372.295</ele>
</trkpt>
<trkpt lat="31.0636119" lon="-7.871024">
<ele>2356.138</ele>
</trkpt>
<trkpt lat="31.0638208" lon="-7.87024">
<ele>2346.191</ele>
</trkpt>
<trkpt lat="31.0642526" lon="-7.8695241">
<ele>2348.559</ele>
</trkpt>
<trkpt lat="31.0646357" lon="-7.8688161">
<ele>2339.412</ele>
</trkpt>
<trkpt lat="31.0648181" lon="-7.8680125">
<ele>2323.14</ele>
</trkpt>
<trkpt lat="31.0647751" lon="-7.8671911">
<ele>2297.673</ele>
</trkpt>
<trkpt lat="31.064662" lon="-7.8663718">
<ele>2288.471</ele>
</trkpt>
<trkpt lat="31.0646191" lon="-7.8655618">
<ele>2284.272</ele>
</trkpt>
<trkpt lat="31.0646178" lon="-7.864727">
<ele>2275.506</ele>
</trkpt>
<trkpt lat="31.0642977" lon="-7.8640035">
<ele>2258.582</ele>
</trkpt>
<trkpt lat="31.0638385" lon="-7.8633725">
<ele>2243.5</ele>
</trkpt>
<trkpt lat="31.0637367" lon="-7.8632592">
<ele>2243.278</ele>
</trkpt>
<trkpt lat="31.0631836" lon="-7.8627307">
<ele>2236.791</ele>
</trkpt>
<trkpt lat="31.0626527" lon="-7.8621175">
<ele>2222.595</ele>
</trkpt>
<trkpt lat="31.0622307" lon="-7.8614679">
<ele>2211.184</ele>
</trkpt>
<trkpt lat="31.0619098" lon="-7.8606942">
<ele>2196.491</ele>
</trkpt>
<trkpt lat="31.0616138" lon="-7.8599375">
<ele>2188.349</ele>
</trkpt>
<trkpt lat="31.0613643" lon="-7.8591777">
<ele>2176.392</ele>
</trkpt>
<trkpt lat="31.0611928" lon="-7.8583966">
<ele>2170.047</ele>
</trkpt>
<trkpt lat="31.0611912" lon="-7.8575465">
<ele>2164.283</ele>
</trkpt>
<trkpt lat="31.0613013" lon="-7.8567398">
<ele>2157.486</ele>
</trkpt>
<trkpt lat="31.0614965" lon="-7.8559421">
<ele>2142.62</ele>
</trkpt>
<trkpt lat="31.0616515" lon="-7.8551532">
<ele>2134.771</ele>
</trkpt>
<trkpt lat="31.0617066" lon="-7.8543425">
<ele>2125.872</ele>
</trkpt>
<trkpt lat="31.0616929" lon="-7.8535299">
<ele>2119.783</ele>
</trkpt>
<trkpt lat="31.0614005" lon="-7.8527547">
<ele>2123.816</ele>
</trkpt>
<trkpt lat="31.0609818" lon="-7.8520847">
<ele>2138.665</ele>
</trkpt>
</trkseg>
<trkseg>
<trkpt lat="31.0598703" lon="-7.851115">
<ele>2125.296</ele>
</trkpt>
<trkpt lat="31.0587336" lon="-7.8501785">
<ele>2118.489</ele>
</trkpt>
<trkpt lat="31.0575644" lon="-7.8492675">
<ele>2118.405</ele>
</trkpt>
<trkpt lat="31.0562382" lon="-7.8485615">
<ele>2084.664</ele>
</trkpt>
<trkpt lat="31.0548852" lon="-7.8481408">
<ele>2051.605</ele>
</trkpt>
<trkpt lat="31.0535341" lon="-7.8476626">
<ele>2024.534</ele>
</trkpt>
<trkpt lat="31.052258" lon="-7.8468502">
<ele>2019.729</ele>
</trkpt>
<trkpt lat="31.0509288" lon="-7.8463532">
<ele>2008.097</ele>
</trkpt>
<trkpt lat="31.0495276" lon="-7.8460437">
<ele>2057.788</ele>
</trkpt>
<trkpt lat="31.0481476" lon="-7.8456817">
<ele>2067.961</ele>
</trkpt>
<trkpt lat="31.0467662" lon="-7.8452382">
<ele>2031.061</ele>
</trkpt>
<trkpt lat="31.0462839" lon="-7.8437121">
<ele>2023.569</ele>
</trkpt>
<trkpt lat="31.0463265" lon="-7.8429805">
<ele>2020.21</ele>
</trkpt>
<trkpt lat="31.0462009" lon="-7.842177">
<ele>2024.669</ele>
</trkpt>
<trkpt lat="31.0460452" lon="-7.8413879">
<ele>2046.896</ele>
</trkpt>
<trkpt lat="31.0456424" lon="-7.8407239">
<ele>2066.289</ele>
</trkpt>
</trkseg>
<trkseg>
<trkpt lat="31.0456981" lon="-7.8398948">
<ele>2076.603</ele>
</trkpt>
<trkpt lat="31.0456279" lon="-7.8390774">
<ele>2068.18</ele>
</trkpt>
<trkpt lat="31.045486" lon="-7.8382596">
<ele>2078.366</ele>
</trkpt>
<trkpt lat="31.0454432" lon="-7.837454">
<ele>2089.911</ele>
</trkpt>
<trkpt lat="31.0456519" lon="-7.8366632">
<ele>2109.099</ele>
</trkpt>
<trkpt lat="31.046" lon="-7.8359641">
<ele>2138.338</ele>
</trkpt>
<trkpt lat="31.0464234" lon="-7.8352863">
<ele>2147.765</ele>
</trkpt>
<trkpt lat="31.046858" lon="-7.8346436">
<ele>2171.41</ele>
</trkpt>
<trkpt lat="31.0472673" lon="-7.8339297">
<ele>2187.374</ele>
</trkpt>
<trkpt lat="31.0477726" lon="-7.8333153">
<ele>2201.244</ele>
</trkpt>
<trkpt lat="31.0481964" lon="-7.8326536">
<ele>2214.63</ele>
</trkpt>
<trkpt lat="31.0484487" lon="-7.8318652">
<ele>2226.758</ele>
</trkpt>
<trkpt lat="31.0486861" lon="-7.8310728">
<ele>2242.608</ele>
</trkpt>
<trkpt lat="31.0488252" lon="-7.8302163">
<ele>2264.774</ele>
</trkpt>
<trkpt lat="31.0488745" lon="-7.8298037">
<ele>2262.045</ele>
</trkpt>
<trkpt lat="31.0493324" lon="-7.8291047">
<ele>2291.7</ele>
</trkpt>
<trkpt lat="31.0497583" lon="-7.828419">
<ele>2307.61</ele>
</trkpt>
<trkpt lat="31.0502079" lon="-7.8277872">
<ele>2332.9</ele>
</trkpt>
<trkpt lat="31.0507463" lon="-7.8272567">
<ele>2364.054</ele>
</trkpt>
<trkpt lat="31.0511973" lon="-7.8265991">
<ele>2383.187</ele>
</trkpt>
<trkpt lat="31.0515919" lon="-7.8259234">
<ele>2406.219</ele>
</trkpt>
<trkpt lat="31.0519544" lon="-7.8252101">
<ele>2434.956</ele>
</trkpt>
<trkpt lat="31.0522227" lon="-7.824424">
<ele>2457.054</ele>
</trkpt>
<trkpt lat="31.0523635" lon="-7.823587">
<ele>2490.166</ele>
</trkpt>
<trkpt lat="31.0524592" lon="-7.8227466">
<ele>2528.82</ele>
</trkpt>
<trkpt lat="31.0525101" lon="-7.8223718">
<ele>2538.733</ele>
</trkpt>
<trkpt lat="31.0527085" lon="-7.8215766">
<ele>2559.948</ele>
</trkpt>
<trkpt lat="31.0528482" lon="-7.820781">
<ele>2587.03</ele>
</trkpt>
<trkpt lat="31.053" lon="-7.8199033">
<ele>2624.656</ele>
</trkpt>
<trkpt lat="31.0531396" lon="-7.8191099">
<ele>2674.13</ele>
</trkpt>
<trkpt lat="31.0533339" lon="-7.8182985">
<ele>2710.881</ele>
</trkpt>
<trkpt lat="31.0536402" lon="-7.8175365">
<ele>2746.435</ele>
</trkpt>
<trkpt lat="31.0540588" lon="-7.816834">
<ele>2773.591</ele>
</trkpt>
<trkpt lat="31.0545126" lon="-7.8161995">
<ele>2789.328</ele>
</trkpt>
<trkpt lat="31.0550189" lon="-7.8156284">
<ele>2820.828</ele>
</trkpt>
<trkpt lat="31.0555556" lon="-7.8150708">
<ele>2859.708</ele>
</trkpt>
<trkpt lat="31.0561494" lon="-7.8145877">
<ele>2902.451</ele>
</trkpt>
<trkpt lat="31.0568355" lon="-7.8141275">
<ele>2943.292</ele>
</trkpt>
<trkpt lat="31.0574896" lon="-7.8137482">
<ele>2981.467</ele>
</trkpt>
<trkpt lat="31.0581437" lon="-7.8134126">
<ele>3011.37</ele>
</trkpt>
<trkpt lat="31.0587851" lon="-7.8130782">
<ele>3048.404</ele>
</trkpt>
<trkpt lat="31.0590644" lon="-7.8129649">
<ele>3059.786</ele>
</trkpt>
<trkpt lat="31.0596128" lon="-7.8124762">
<ele>3095.151</ele>
</trkpt>
<trkpt lat="31.060178" lon="-7.8119799">
<ele>3114.94</ele>
</trkpt>
<trkpt lat="31.0606737" lon="-7.8113551">
<ele>3078.722</ele>
</trkpt>
<trkpt lat="31.0611228" lon="-7.8106815">
<ele>3038.344</ele>
</trkpt>
<trkpt lat="31.0614167" lon="-7.8099371">
<ele>3016.459</ele>
</trkpt>
<trkpt lat="31.0615723" lon="-7.8091026">
<ele>3024.13</ele>
</trkpt>
<trkpt lat="31.0615295" lon="-7.8082966">
<ele>3025.711</ele>
</trkpt>
<trkpt lat="31.0616267" lon="-7.8074898">
<ele>3031.656</ele>
</trkpt>
<trkpt lat="31.0618067" lon="-7.8066957">
<ele>3033.101</ele>
</trkpt>
<trkpt lat="31.0621561" lon="-7.8059622">
<ele>3034.088</ele>
</trkpt>
<trkpt lat="31.0623686" lon="-7.8051787">
<ele>3039.471</ele>
</trkpt>
<trkpt lat="31.062063" lon="-7.8044393">
<ele>3046.072</ele>
</trkpt>
<trkpt lat="31.0614674" lon="-7.8039571">
<ele>3047.242</ele>
</trkpt>
<trkpt lat="31.0608712" lon="-7.8035183">
<ele>3076.056</ele>
</trkpt>
<trkpt lat="31.0602735" lon="-7.8030872">
<ele>3080.596</ele>
</trkpt>
<trkpt lat="31.0597061" lon="-7.8025525">
<ele>3084.748</ele>
</trkpt>
<trkpt lat="31.0591486" lon="-7.8020587">
<ele>3082.075</ele>
</trkpt>
<trkpt lat="31.0586053" lon="-7.8015215">
<ele>3102.459</ele>
</trkpt>
<trkpt lat="31.0582306" lon="-7.8008386">
<ele>3087.932</ele>
</trkpt>
<trkpt lat="31.0578249" lon="-7.8001531">
<ele>3097.727</ele>
</trkpt>
<trkpt lat="31.057571" lon="-7.7993888">
<ele>3113.34</ele>
</trkpt>
<trkpt lat="31.0578391" lon="-7.7987318">
<ele>3115.025</ele>
</trkpt>
<trkpt lat="31.0580943" lon="-7.7979787">
<ele>3131.256</ele>
</trkpt>
<trkpt lat="31.0585156" lon="-7.7973145">
<ele>3139.722</ele>
</trkpt>
<trkpt lat="31.0590815" lon="-7.7968329">
<ele>3146.423</ele>
</trkpt>
<trkpt lat="31.0595342" lon="-7.7962165">
<ele>3159.411</ele>
</trkpt>
<trkpt lat="31.0599154" lon="-7.7955292">
<ele>3172.317</ele>
</trkpt>
<trkpt lat="31.0600674" lon="-7.7946837">
<ele>3185.375</ele>
</trkpt>
<trkpt lat="31.059999" lon="-7.7938449">
<ele>3193.934</ele>
</trkpt>
<trkpt lat="31.0597762" lon="-7.7930833">
<ele>3192.63</ele>
</trkpt>
<trkpt lat="31.0595227" lon="-7.7923213">
<ele>3201.454</ele>
</trkpt>
<trkpt lat="31.0592975" lon="-7.7915709">
<ele>3218.638</ele>
</trkpt>
<trkpt lat="31.0593258" lon="-7.7907668">
<ele>3228.754</ele>
</trkpt>
<trkpt lat="31.0592546" lon="-7.7898995">
<ele>3242.708</ele>
</trkpt>
<trkpt lat="31.059236" lon="-7.7890447">
<ele>3253.69</ele>
</trkpt>
<trkpt lat="31.0593631" lon="-7.7882194">
<ele>3263.465</ele>
</trkpt>
<trkpt lat="31.0594027" lon="-7.7874033">
<ele>3277.627</ele>
</trkpt>
<trkpt lat="31.0595392" lon="-7.7865334">
<ele>3301.307</ele>
</trkpt>
<trkpt lat="31.0597639" lon="-7.7857324">
<ele>3323.935</ele>
</trkpt>
<trkpt lat="31.0600295" lon="-7.7849841">
<ele>3346.495</ele>
</trkpt>
<trkpt lat="31.0602538" lon="-7.7842042">
<ele>3358.264</ele>
</trkpt>
<trkpt lat="31.060417" lon="-7.7838295">
<ele>3372.232</ele>
</trkpt>
<trkpt lat="31.0607563" lon="-7.783064">
<ele>3401.655</ele>
</trkpt>
<trkpt lat="31.0610087" lon="-7.7822311">
<ele>3407.049</ele>
</trkpt>
<trkpt lat="31.0612319" lon="-7.7814653">
<ele>3427.907</ele>
</trkpt>
<trkpt lat="31.0614967" lon="-7.7806744">
<ele>3454.366</ele>
</trkpt>
<trkpt lat="31.0618728" lon="-7.7799206">
<ele>3485.683</ele>
</trkpt>
<trkpt lat="31.0622667" lon="-7.7791851">
<ele>3508.189</ele>
</trkpt>
<trkpt lat="31.062662" lon="-7.7785142">
<ele>3521.518</ele>
</trkpt>
<trkpt lat="31.0631397" lon="-7.7778535">
<ele>3555.668</ele>
</trkpt>
<trkpt lat="31.0636173" lon="-7.7772618">
<ele>3565.553</ele>
</trkpt>
<trkpt lat="31.0641571" lon="-7.7767238">
<ele>3587.109</ele>
</trkpt>
<trkpt lat="31.0646776" lon="-7.776183">
<ele>3609.505</ele>
</trkpt>
<trkpt lat="31.0648595" lon="-7.7760261">
<ele>3616.052</ele>
</trkpt>
<trkpt lat="31.0654186" lon="-7.7754257">
<ele>3636.121</ele>
</trkpt>
<trkpt lat="31.0659862" lon="-7.7749402">
<ele>3655.233</ele>
</trkpt>
<trkpt lat="31.0665507" lon="-7.7744593">
<ele>3674.285</ele>
</trkpt>
<trkpt lat="31.0672026" lon="-7.774032">
<ele>3704.718</ele>
</trkpt>
<trkpt lat="31.0678992" lon="-7.773726">
<ele>3736.194</ele>
</trkpt>
<trkpt lat="31.0686108" lon="-7.7736018">
<ele>3766.124</ele>
</trkpt>
<trkpt lat="31.0693172" lon="-7.773434">
<ele>3771.747</ele>
</trkpt>
<trkpt lat="31.070007" lon="-7.7732725">
<ele>3758.512</ele>
</trkpt>
<trkpt lat="31.070161" lon="-7.7732007">
<ele>3757.54</ele>
</trkpt>
<trkpt lat="31.0708364" lon="-7.7728368">
<ele>3758.259</ele>
</trkpt>
<trkpt lat="31.0714945" lon="-7.7725919">
<ele>3772.977</ele>
</trkpt>
<trkpt lat="31.0721924" lon="-7.7723625">
<ele>3787.785</ele>
</trkpt>
<trkpt lat="31.0728729" lon="-7.7721268">
<ele>3817.767</ele>
</trkpt>
<trkpt lat="31.0735504" lon="-7.7718102">
<ele>3845.306</ele>
</trkpt>
<trkpt lat="31.0741798" lon="-7.7714225">
<ele>3880.624</ele>
</trkpt>
<trkpt lat="31.0747701" lon="-7.7709504">
<ele>3908.26</ele>
</trkpt>
<trkpt lat="31.0753928" lon="-7.7705476">
<ele>3921.909</ele>
</trkpt>
<trkpt lat="31.0759313" lon="-7.7700228">
<ele>3921.319</ele>
</trkpt>
<trkpt lat="31.0764635" lon="-7.7694318">
<ele>3903.304</ele>
</trkpt>
<trkpt lat="31.0770417" lon="-7.7688518">
<ele>3872.663</ele>
</trkpt>
<trkpt lat="31.0775076" lon="-7.7682567">
<ele>3883.375</ele>
</trkpt>
<trkpt lat="31.0780281" lon="-7.7676798">
<ele>3888.807</ele>
</trkpt>
<trkpt lat="31.0785515" lon="-7.7671294">
<ele>3905.139</ele>
</trkpt>
<trkpt lat="31.0790286" lon="-7.766501">
<ele>3917.84</ele>
</trkpt>
<trkpt lat="31.0795501" lon="-7.7658891">
<ele>3930.538</ele>
</trkpt>
<trkpt lat="31.0801123" lon="-7.765328">
<ele>3948.815</ele>
</trkpt>
<trkpt lat="31.0805381" lon="-7.7646951">
<ele>3953.283</ele>
</trkpt>
<trkpt lat="31.0810432" lon="-7.7640864">
<ele>3966.643</ele>
</trkpt>
<trkpt lat="31.0815098" lon="-7.7634705">
<ele>3971.776</ele>
</trkpt>
<trkpt lat="31.0820611" lon="-7.7629729">
<ele>3976.069</ele>
</trkpt>
<trkpt lat="31.0822428" lon="-7.7628762">
<ele>3975.71</ele>
</trkpt>
<trkpt lat="31.0816127" lon="-7.7633804">
<ele>3975.202</ele>
</trkpt>
<trkpt lat="31.0810634" lon="-7.7639054">
<ele>3960.278</ele>
</trkpt>
<trkpt lat="31.080539" lon="-7.7644716">
<ele>3946.942</ele>
</trkpt>
<trkpt lat="31.0800194" lon="-7.7650118">
<ele>3938.099</ele>
</trkpt>
<trkpt lat="31.0794263" lon="-7.765453">
<ele>3921.189</ele>
</trkpt>
<trkpt lat="31.0789605" lon="-7.7661282">
<ele>3906.859</ele>
</trkpt>
<trkpt lat="31.0785932" lon="-7.7668207">
<ele>3902.95</ele>
</trkpt>
<trkpt lat="31.0782155" lon="-7.7675344">
<ele>3893.984</ele>
</trkpt>
<trkpt lat="31.078045" lon="-7.7683172">
<ele>3868.021</ele>
</trkpt>
<trkpt lat="31.0780811" lon="-7.7692301">
<ele>3823.898</ele>
</trkpt>
<trkpt lat="31.0783489" lon="-7.7695593">
<ele>3790.308</ele>
</trkpt>
<trkpt lat="31.0793743" lon="-7.7707655">
<ele>3689.193</ele>
</trkpt>
<trkpt lat="31.0805752" lon="-7.7716822">
<ele>3621.24</ele>
</trkpt>
<trkpt lat="31.0819037" lon="-7.7723882">
<ele>3566.88</ele>
</trkpt>
<trkpt lat="31.0832516" lon="-7.7728687">
<ele>3527.729</ele>
</trkpt>
<trkpt lat="31.0846351" lon="-7.7732872">
<ele>3479.04</ele>
</trkpt>
<trkpt lat="31.0860925" lon="-7.7735661">
<ele>3439.511</ele>
</trkpt>
<trkpt lat="31.0872896" lon="-7.7741881">
<ele>3377.916</ele>
</trkpt>
<trkpt lat="31.0883163" lon="-7.7753385">
<ele>3315.462</ele>
</trkpt>
<trkpt lat="31.0892917" lon="-7.7765526">
<ele>3285.597</ele>
</trkpt>
<trkpt lat="31.0905048" lon="-7.7775316">
<ele>3238.341</ele>
</trkpt>
<trkpt lat="31.0918054" lon="-7.7782715">
<ele>3179.948</ele>
</trkpt>
<trkpt lat="31.0931607" lon="-7.7785879">
<ele>3137.759</ele>
</trkpt>
<trkpt lat="31.0936197" lon="-7.7786236">
<ele>3120.752</ele>
</trkpt>
<trkpt lat="31.0949033" lon="-7.7792328">
<ele>3070.329</ele>
</trkpt>
<trkpt lat="31.0962621" lon="-7.7796403">
<ele>3044.082</ele>
</trkpt>
<trkpt lat="31.097621" lon="-7.7801805">
<ele>2991.749</ele>
</trkpt>
<trkpt lat="31.0987658" lon="-7.7811497">
<ele>2932.463</ele>
</trkpt>
<trkpt lat="31.0990538" lon="-7.7814923">
<ele>2917.797</ele>
</trkpt>
<trkpt lat="31.1001398" lon="-7.7825423">
<ele>2879.065</ele>
</trkpt>
<trkpt lat="31.1013843" lon="-7.7834745">
<ele>2836.6</ele>
</trkpt>
<trkpt lat="31.1023891" lon="-7.7846984">
<ele>2816.058</ele>
</trkpt>
<trkpt lat="31.1031996" lon="-7.7861529">
<ele>2784.214</ele>
</trkpt>
<trkpt lat="31.1039577" lon="-7.7875347">
<ele>2751.496</ele>
</trkpt>
<trkpt lat="31.1050641" lon="-7.7885472">
<ele>2698.784</ele>
</trkpt>
<trkpt lat="31.1062843" lon="-7.7894174">
<ele>2655.883</ele>
</trkpt>
<trkpt lat="31.1063472" lon="-7.7894691">
<ele>2655.08</ele>
</trkpt>
<trkpt lat="31.1070959" lon="-7.7905233">
<ele>2644.622</ele>
</trkpt>
</trkseg>
<trkseg>
<trkpt lat="31.1077507" lon="-7.790804">
<ele>2630.384</ele>
</trkpt>
<trkpt lat="31.1082382" lon="-7.7913939">
<ele>2620.81</ele>
</trkpt>
<trkpt lat="31.1085035" lon="-7.7921553">
<ele>2619.042</ele>
</trkpt>
<trkpt lat="31.1087428" lon="-7.7929324">
<ele>2616.469</ele>
</trkpt>
<trkpt lat="31.1088135" lon="-7.7933372">
<ele>2617.67</ele>
</trkpt>
<trkpt lat="31.1088349" lon="-7.7937414">
<ele>2620.851</ele>
</trkpt>
<trkpt lat="31.108932" lon="-7.7941414">
<ele>2618.435</ele>
</trkpt>
<trkpt lat="31.1091959" lon="-7.7944042">
<ele>2613.719</ele>
</trkpt>
<trkpt lat="31.109412" lon="-7.794719">
<ele>2620.67</ele>
</trkpt>
<trkpt lat="31.109413" lon="-7.7947273">
<ele>2620.987</ele>
</trkpt>
<trkpt lat="31.1096488" lon="-7.7950456">
<ele>2627.743</ele>
</trkpt>
<trkpt lat="31.1098253" lon="-7.7954062">
<ele>2631.231</ele>
</trkpt>
<trkpt lat="31.1096788" lon="-7.795784">
<ele>2644.399</ele>
</trkpt>
<trkpt lat="31.1095529" lon="-7.7961644">
<ele>2645.848</ele>
</trkpt>
<trkpt lat="31.109392" lon="-7.7965416">
<ele>2645.826</ele>
</trkpt>
<trkpt lat="31.1092658" lon="-7.7969192">
<ele>2648.466</ele>
</trkpt>
<trkpt lat="31.109443" lon="-7.7972766">
<ele>2644.799</ele>
</trkpt>
<trkpt lat="31.1094959" lon="-7.7972886">
<ele>2643.855</ele>
</trkpt>
<trkpt lat="31.1098466" lon="-7.7973516">
<ele>2641.175</ele>
</trkpt>
<trkpt lat="31.1101706" lon="-7.797531">
<ele>2651.142</ele>
</trkpt>
<trkpt lat="31.1105081" lon="-7.7976112">
<ele>2655.068</ele>
</trkpt>
<trkpt lat="31.1108672" lon="-7.7976135">
<ele>2656.291</ele>
</trkpt>
<trkpt lat="31.1112304" lon="-7.797574">
<ele>2658.838</ele>
</trkpt>
<trkpt lat="31.1113167" lon="-7.7979763">
<ele>2664.708</ele>
</trkpt>
<trkpt lat="31.1111848" lon="-7.7983843">
<ele>2654.119</ele>
</trkpt>
<trkpt lat="31.1110017" lon="-7.7987294">
<ele>2658.553</ele>
</trkpt>
<trkpt lat="31.1109066" lon="-7.7989329">
<ele>2659.251</ele>
</trkpt>
<trkpt lat="31.1107803" lon="-7.7993255">
<ele>2650.3</ele>
</trkpt>
<trkpt lat="31.1106617" lon="-7.7997394">
<ele>2641.953</ele>
</trkpt>
<trkpt lat="31.1105494" lon="-7.800143">
<ele>2631.363</ele>
</trkpt>
<trkpt lat="31.1104168" lon="-7.8005296">
<ele>2609.679</ele>
</trkpt>
<trkpt lat="31.1103471" lon="-7.8009374">
<ele>2596.662</ele>
</trkpt>
<trkpt lat="31.1103194" lon="-7.8013689">
<ele>2589.661</ele>
</trkpt>
<trkpt lat="31.1103886" lon="-7.801707">
<ele>2579.624</ele>
</trkpt>
<trkpt lat="31.1104595" lon="-7.8021292">
<ele>2564.049</ele>
</trkpt>
<trkpt lat="31.1105304" lon="-7.8025428">
<ele>2549.302</ele>
</trkpt>
<trkpt lat="31.1106422" lon="-7.8029373">
<ele>2531.218</ele>
</trkpt>
<trkpt lat="31.1107683" lon="-7.8033404">
<ele>2518.083</ele>
</trkpt>
<trkpt lat="31.1107984" lon="-7.8037729">
<ele>2519.984</ele>
</trkpt>
<trkpt lat="31.1108133" lon="-7.8042025">
<ele>2522.1</ele>
</trkpt>
<trkpt lat="31.1108469" lon="-7.8045075">
<ele>2520.367</ele>
</trkpt>
<trkpt lat="31.1108706" lon="-7.8049718">
<ele>2520.214</ele>
</trkpt>
<trkpt lat="31.1108784" lon="-7.805394">
<ele>2520.795</ele>
</trkpt>
<trkpt lat="31.1109145" lon="-7.8058357">
<ele>2524.56</ele>
</trkpt>
<trkpt lat="31.1108607" lon="-7.8062727">
<ele>2530.99</ele>
</trkpt>
<trkpt lat="31.1107278" lon="-7.8066741">
<ele>2537.689</ele>
</trkpt>
<trkpt lat="31.1106583" lon="-7.8070778">
<ele>2535.536</ele>
</trkpt>
<trkpt lat="31.110542" lon="-7.8074979">
<ele>2537.358</ele>
</trkpt>
<trkpt lat="31.1105333" lon="-7.8075303">
<ele>2536.671</ele>
</trkpt>
<trkpt lat="31.1104436" lon="-7.8079689">
<ele>2529.228</ele>
</trkpt>
<trkpt lat="31.110394" lon="-7.8083771">
<ele>2530.189</ele>
</trkpt>
<trkpt lat="31.1103592" lon="-7.8087876">
<ele>2529.342</ele>
</trkpt>
<trkpt lat="31.1103528" lon="-7.8092118">
<ele>2539.123</ele>
</trkpt>
<trkpt lat="31.110346" lon="-7.8096409">
<ele>2549.069</ele>
</trkpt>
<trkpt lat="31.1103951" lon="-7.8100594">
<ele>2553.052</ele>
</trkpt>
<trkpt lat="31.1105073" lon="-7.8104658">
<ele>2559.726</ele>
</trkpt>
<trkpt lat="31.1107848" lon="-7.8107585">
<ele>2563.095</ele>
</trkpt>
<trkpt lat="31.1111931" lon="-7.8108035">
<ele>2572.047</ele>
</trkpt>
<trkpt lat="31.1115512" lon="-7.8107307">
<ele>2586.447</ele>
</trkpt>
<trkpt lat="31.1119353" lon="-7.8107086">
<ele>2603.967</ele>
</trkpt>
<trkpt lat="31.1120742" lon="-7.8107051">
<ele>2612.265</ele>
</trkpt>
<trkpt lat="31.1123368" lon="-7.8109744">
<ele>2616.829</ele>
</trkpt>
<trkpt lat="31.1126428" lon="-7.8112317">
<ele>2623.457</ele>
</trkpt>
<trkpt lat="31.1129742" lon="-7.811447">
<ele>2628.636</ele>
</trkpt>
<trkpt lat="31.1133212" lon="-7.8116162">
<ele>2634.03</ele>
</trkpt>
<trkpt lat="31.1136596" lon="-7.8117484">
<ele>2639.861</ele>
</trkpt>
<trkpt lat="31.1140247" lon="-7.8118599">
<ele>2652.189</ele>
</trkpt>
<trkpt lat="31.1143641" lon="-7.8119985">
<ele>2660.935</ele>
</trkpt>
<trkpt lat="31.1147357" lon="-7.8120915">
<ele>2668.232</ele>
</trkpt>
<trkpt lat="31.1150681" lon="-7.8122117">
<ele>2675.038</ele>
</trkpt>
<trkpt lat="31.1154968" lon="-7.8123386">
<ele>2686.287</ele>
</trkpt>
<trkpt lat="31.1158434" lon="-7.8124414">
<ele>2693.793</ele>
</trkpt>
<trkpt lat="31.1161672" lon="-7.8125375">
<ele>2703.563</ele>
</trkpt>
<trkpt lat="31.1165504" lon="-7.8126545">
<ele>2714.077</ele>
</trkpt>
<trkpt lat="31.1169276" lon="-7.8127786">
<ele>2726.606</ele>
</trkpt>
<trkpt lat="31.1173245" lon="-7.8129383">
<ele>2738.759</ele>
</trkpt>
<trkpt lat="31.1176644" lon="-7.813118">
<ele>2749.501</ele>
</trkpt>
<trkpt lat="31.1180001" lon="-7.8133151">
<ele>2758.388</ele>
</trkpt>
<trkpt lat="31.1183304" lon="-7.8135058">
<ele>2768.19</ele>
</trkpt>
<trkpt lat="31.1186888" lon="-7.8136597">
<ele>2779.832</ele>
</trkpt>
<trkpt lat="31.1190471" lon="-7.813749">
<ele>2791.039</ele>
</trkpt>
<trkpt lat="31.1191787" lon="-7.8137773">
<ele>2795.39</ele>
</trkpt>
<trkpt lat="31.1195352" lon="-7.8138773">
<ele>2809.322</ele>
</trkpt>
<trkpt lat="31.1199353" lon="-7.8140432">
<ele>2827.377</ele>
</trkpt>
<trkpt lat="31.1203033" lon="-7.814186">
<ele>2840.289</ele>
</trkpt>
<trkpt lat="31.1206442" lon="-7.8142884">
<ele>2853.532</ele>
</trkpt>
<trkpt lat="31.1209839" lon="-7.8144924">
<ele>2867.165</ele>
</trkpt>
<trkpt lat="31.1212744" lon="-7.8147718">
<ele>2878.98</ele>
</trkpt>
<trkpt lat="31.1216205" lon="-7.8149713">
<ele>2884.662</ele>
</trkpt>
<trkpt lat="31.1219341" lon="-7.815175">
<ele>2894.995</ele>
</trkpt>
<trkpt lat="31.1219652" lon="-7.8151991">
<ele>2896.49</ele>
</trkpt>
<trkpt lat="31.1220983" lon="-7.8155981">
<ele>2907.839</ele>
</trkpt>
<trkpt lat="31.1222126" lon="-7.8160175">
<ele>2919.827</ele>
</trkpt>
<trkpt lat="31.1223934" lon="-7.816407">
<ele>2930.079</ele>
</trkpt>
<trkpt lat="31.1226446" lon="-7.8167546">
<ele>2938.457</ele>
</trkpt>
<trkpt lat="31.1228327" lon="-7.8170963">
<ele>2947.056</ele>
</trkpt>
<trkpt lat="31.1229679" lon="-7.8175185">
<ele>2958.994</ele>
</trkpt>
<trkpt lat="31.1229028" lon="-7.8179216">
<ele>2972.463</ele>
</trkpt>
<trkpt lat="31.1227815" lon="-7.8181971">
<ele>2984.101</ele>
</trkpt>
<trkpt lat="31.1228178" lon="-7.8186614">
<ele>3004.057</ele>
</trkpt>
<trkpt lat="31.1228882" lon="-7.8190553">
<ele>3014.945</ele>
</trkpt>
<trkpt lat="31.1229255" lon="-7.8195162">
<ele>3030.895</ele>
</trkpt>
<trkpt lat="31.1228717" lon="-7.8199605">
<ele>3044.831</ele>
</trkpt>
<trkpt lat="31.12287" lon="-7.8203724">
<ele>3059.408</ele>
</trkpt>
<trkpt lat="31.1229749" lon="-7.8207825">
<ele>3073.041</ele>
</trkpt>
<trkpt lat="31.1232315" lon="-7.8210631">
<ele>3079.849</ele>
</trkpt>
<trkpt lat="31.1232336" lon="-7.8210729">
<ele>3080.216</ele>
</trkpt>
<trkpt lat="31.1233884" lon="-7.821566">
<ele>3098.684</ele>
</trkpt>
<trkpt lat="31.1235437" lon="-7.8219955">
<ele>3112.654</ele>
</trkpt>
<trkpt lat="31.1237203" lon="-7.8224071">
<ele>3125.849</ele>
</trkpt>
<trkpt lat="31.1238756" lon="-7.8228113">
<ele>3137.207</ele>
</trkpt>
<trkpt lat="31.1240489" lon="-7.8231649">
<ele>3151.834</ele>
</trkpt>
<trkpt lat="31.1242317" lon="-7.823521">
<ele>3163.185</ele>
</trkpt>
<trkpt lat="31.1243554" lon="-7.8237275">
<ele>3170.124</ele>
</trkpt>
<trkpt lat="31.1244476" lon="-7.8241751">
<ele>3186.447</ele>
</trkpt>
<trkpt lat="31.1245377" lon="-7.8246075">
<ele>3207.434</ele>
</trkpt>
<trkpt lat="31.1246583" lon="-7.8250255">
<ele>3221.182</ele>
</trkpt>
<trkpt lat="31.1248211" lon="-7.825456">
<ele>3238.271</ele>
</trkpt>
<trkpt lat="31.1250307" lon="-7.8258333">
<ele>3256.551</ele>
</trkpt>
<trkpt lat="31.1252737" lon="-7.8261817">
<ele>3274.24</ele>
</trkpt>
<trkpt lat="31.125484" lon="-7.8265174">
<ele>3288.541</ele>
</trkpt>
<trkpt lat="31.1257892" lon="-7.8267413">
<ele>3305.006</ele>
</trkpt>
<trkpt lat="31.1261456" lon="-7.8267488">
<ele>3314.147</ele>
</trkpt>
<trkpt lat="31.1264933" lon="-7.8266066">
<ele>3317.205</ele>
</trkpt>
<trkpt lat="31.1267205" lon="-7.8265084">
<ele>3322.157</ele>
</trkpt>
<trkpt lat="31.1270762" lon="-7.8266273">
<ele>3339.267</ele>
</trkpt>
<trkpt lat="31.1274227" lon="-7.8267098">
<ele>3357.534</ele>
</trkpt>
<trkpt lat="31.1277585" lon="-7.8268029">
<ele>3377.413</ele>
</trkpt>
<trkpt lat="31.1281371" lon="-7.8268913">
<ele>3398.667</ele>
</trkpt>
<trkpt lat="31.1284775" lon="-7.8269815">
<ele>3418.528</ele>
</trkpt>
<trkpt lat="31.128889" lon="-7.8269921">
<ele>3441.664</ele>
</trkpt>
<trkpt lat="31.1292398" lon="-7.826934">
<ele>3463.438</ele>
</trkpt>
<trkpt lat="31.1295997" lon="-7.8268878">
<ele>3485.611</ele>
</trkpt>
<trkpt lat="31.1299537" lon="-7.8269298">
<ele>3505.685</ele>
</trkpt>
<trkpt lat="31.1303116" lon="-7.8270151">
<ele>3524.736</ele>
</trkpt>
<trkpt lat="31.1306647" lon="-7.8270483">
<ele>3540.597</ele>
</trkpt>
<trkpt lat="31.1307717" lon="-7.8270687">
<ele>3541.739</ele>
</trkpt>
<trkpt lat="31.1311096" lon="-7.8271897">
<ele>3539.968</ele>
</trkpt>
<trkpt lat="31.1314529" lon="-7.8272368">
<ele>3526.79</ele>
</trkpt>
<trkpt lat="31.1317779" lon="-7.8274022">
<ele>3505.341</ele>
</trkpt>
<trkpt lat="31.1320763" lon="-7.8276611">
<ele>3486.461</ele>
</trkpt>
<trkpt lat="31.1323201" lon="-7.8280129">
<ele>3465.05</ele>
</trkpt>
<trkpt lat="31.132537" lon="-7.8283725">
<ele>3434.031</ele>
</trkpt>
<trkpt lat="31.1326991" lon="-7.8287667">
<ele>3406.89</ele>
</trkpt>
<trkpt lat="31.1328113" lon="-7.8291526">
<ele>3386.524</ele>
</trkpt>
<trkpt lat="31.1329172" lon="-7.8295873">
<ele>3357.023</ele>
</trkpt>
<trkpt lat="31.1329427" lon="-7.829751">
<ele>3348.193</ele>
</trkpt>
<trkpt lat="31.1330703" lon="-7.8301882">
<ele>3329.801</ele>
</trkpt>
<trkpt lat="31.133163" lon="-7.8306024">
<ele>3307.252</ele>
</trkpt>
<trkpt lat="31.1332811" lon="-7.8309931">
<ele>3288.645</ele>
</trkpt>
<trkpt lat="31.133442" lon="-7.8313504">
<ele>3270.766</ele>
</trkpt>
<trkpt lat="31.1336378" lon="-7.8316945">
<ele>3250.194</ele>
</trkpt>
<trkpt lat="31.1338737" lon="-7.8319942">
<ele>3230.029</ele>
</trkpt>
<trkpt lat="31.1341356" lon="-7.8322799">
<ele>3212.68</ele>
</trkpt>
<trkpt lat="31.1344168" lon="-7.8325703">
<ele>3195.185</ele>
</trkpt>
<trkpt lat="31.1344455" lon="-7.8325999">
<ele>3193.292</ele>
</trkpt>
<trkpt lat="31.1345781" lon="-7.8329988">
<ele>3172.38</ele>
</trkpt>
<trkpt lat="31.1347419" lon="-7.8334863">
<ele>3152.666</ele>
</trkpt>
<trkpt lat="31.13489" lon="-7.833868">
<ele>3134.898</ele>
</trkpt>
<trkpt lat="31.1351258" lon="-7.8342731">
<ele>3115.323</ele>
</trkpt>
<trkpt lat="31.135359" lon="-7.8346043">
<ele>3095.073</ele>
</trkpt>
<trkpt lat="31.1356143" lon="-7.8349876">
<ele>3075.797</ele>
</trkpt>
<trkpt lat="31.1358475" lon="-7.8353481">
<ele>3061.63</ele>
</trkpt>
<trkpt lat="31.1360693" lon="-7.8356912">
<ele>3032.715</ele>
</trkpt>
<trkpt lat="31.1362467" lon="-7.8361661">
<ele>3005.189</ele>
</trkpt>
<trkpt lat="31.1364343" lon="-7.8366453">
<ele>2980.143</ele>
</trkpt>
<trkpt lat="31.1366452" lon="-7.8370542">
<ele>2961.272</ele>
</trkpt>
<trkpt lat="31.1368705" lon="-7.8374181">
<ele>2942.589</ele>
</trkpt>
<trkpt lat="31.1372336" lon="-7.8379797">
<ele>2914.339</ele>
</trkpt>
<trkpt lat="31.1374737" lon="-7.8383511">
<ele>2892.64</ele>
</trkpt>
<trkpt lat="31.1377201" lon="-7.8387322">
<ele>2878.313</ele>
</trkpt>
<trkpt lat="31.137942" lon="-7.8390753">
<ele>2864.673</ele>
</trkpt>
<trkpt lat="31.137986" lon="-7.8391435">
<ele>2861.545</ele>
</trkpt>
<trkpt lat="31.1382538" lon="-7.8395466">
<ele>2844.34</ele>
</trkpt>
<trkpt lat="31.138503" lon="-7.8399397">
<ele>2825.28</ele>
</trkpt>
<trkpt lat="31.1387185" lon="-7.8402658">
<ele>2802.439</ele>
</trkpt>
<trkpt lat="31.1390051" lon="-7.8405812">
<ele>2780.494</ele>
</trkpt>
<trkpt lat="31.139267" lon="-7.8408599">
<ele>2767.13</ele>
</trkpt>
<trkpt lat="31.1393375" lon="-7.8409348">
<ele>2764.546</ele>
</trkpt>
<trkpt lat="31.1397096" lon="-7.84116">
<ele>2749.566</ele>
</trkpt>
<trkpt lat="31.1400549" lon="-7.8413954">
<ele>2729.575</ele>
</trkpt>
<trkpt lat="31.1403405" lon="-7.8416422">
<ele>2711.633</ele>
</trkpt>
<trkpt lat="31.1406614" lon="-7.841918">
<ele>2699.19</ele>
</trkpt>
<trkpt lat="31.1410033" lon="-7.8422118">
<ele>2687.232</ele>
</trkpt>
<trkpt lat="31.1413387" lon="-7.8425">
<ele>2674.988</ele>
</trkpt>
<trkpt lat="31.14157" lon="-7.8426988">
<ele>2665.648</ele>
</trkpt>
<trkpt lat="31.1420085" lon="-7.8426693">
<ele>2640.824</ele>
</trkpt>
<trkpt lat="31.1423709" lon="-7.8426376">
<ele>2628.564</ele>
</trkpt>
<trkpt lat="31.1427239" lon="-7.8426173">
<ele>2612.491</ele>
</trkpt>
<trkpt lat="31.1431127" lon="-7.8425958">
<ele>2595.973</ele>
</trkpt>
<trkpt lat="31.1434758" lon="-7.8425901">
<ele>2583.004</ele>
</trkpt>
<trkpt lat="31.14384" lon="-7.842607">
<ele>2568.254</ele>
</trkpt>
<trkpt lat="31.144215" lon="-7.8426244">
<ele>2555.946</ele>
</trkpt>
<trkpt lat="31.1445852" lon="-7.8425081">
<ele>2537.9</ele>
</trkpt>
<trkpt lat="31.1449178" lon="-7.8423185">
<ele>2535.543</ele>
</trkpt>
<trkpt lat="31.1450307" lon="-7.8422542">
<ele>2533.562</ele>
</trkpt>
<trkpt lat="31.1454192" lon="-7.8422853">
<ele>2514.983</ele>
</trkpt>
<trkpt lat="31.1458464" lon="-7.8423432">
<ele>2508.753</ele>
</trkpt>
<trkpt lat="31.1461986" lon="-7.8423983">
<ele>2503.879</ele>
</trkpt>
<trkpt lat="31.1465315" lon="-7.8425034">
<ele>2488.726</ele>
</trkpt>
<trkpt lat="31.1468549" lon="-7.8426674">
<ele>2476.098</ele>
</trkpt>
<trkpt lat="31.1471877" lon="-7.8428148">
<ele>2466.399</ele>
</trkpt>
<trkpt lat="31.1475193" lon="-7.8429622">
<ele>2453.98</ele>
</trkpt>
<trkpt lat="31.1478785" lon="-7.8430438">
<ele>2449.197</ele>
</trkpt>
<trkpt lat="31.1482434" lon="-7.8431216">
<ele>2446.48</ele>
</trkpt>
<trkpt lat="31.1485919" lon="-7.8430645">
<ele>2444.858</ele>
</trkpt>
<trkpt lat="31.1485938" lon="-7.84306">
<ele>2445.041</ele>
</trkpt>
<trkpt lat="31.1489404" lon="-7.8428206">
<ele>2448.995</ele>
</trkpt>
<trkpt lat="31.1492436" lon="-7.8425795">
<ele>2446.951</ele>
</trkpt>
<trkpt lat="31.1495284" lon="-7.8423475">
<ele>2441.856</ele>
</trkpt>
<trkpt lat="31.1498247" lon="-7.8421367">
<ele>2443.193</ele>
</trkpt>
<trkpt lat="31.1501485" lon="-7.8419518">
<ele>2440.968</ele>
</trkpt>
<trkpt lat="31.1504745" lon="-7.8417811">
<ele>2432.004</ele>
</trkpt>
<trkpt lat="31.1507793" lon="-7.8415473">
<ele>2420.958</ele>
</trkpt>
<trkpt lat="31.151092" lon="-7.8413571">
<ele>2416.741</ele>
</trkpt>
<trkpt lat="31.1513721" lon="-7.8411065">
<ele>2419.129</ele>
</trkpt>
<trkpt lat="31.1516279" lon="-7.8408268">
<ele>2421.36</ele>
</trkpt>
<trkpt lat="31.1517815" lon="-7.8404475">
<ele>2420.848</ele>
</trkpt>
<trkpt lat="31.1517126" lon="-7.8400491">
<ele>2427.39</ele>
</trkpt>
<trkpt lat="31.151593" lon="-7.8396626">
<ele>2428.754</ele>
</trkpt>
<trkpt lat="31.1515434" lon="-7.8392458">
<ele>2426.272</ele>
</trkpt>
<trkpt lat="31.1515915" lon="-7.8388449">
<ele>2419.228</ele>
</trkpt>
<trkpt lat="31.1517088" lon="-7.8384424">
<ele>2412.611</ele>
</trkpt>
<trkpt lat="31.1520406" lon="-7.8382876">
<ele>2412.434</ele>
</trkpt>
<trkpt lat="31.1523529" lon="-7.8384608">
<ele>2408.694</ele>
</trkpt>
<trkpt lat="31.1527038" lon="-7.8385362">
<ele>2407.502</ele>
</trkpt>
<trkpt lat="31.1530019" lon="-7.8383141">
<ele>2406.471</ele>
</trkpt>
<trkpt lat="31.1531073" lon="-7.8379307">
<ele>2407.638</ele>
</trkpt>
<trkpt lat="31.1531304" lon="-7.8376649">
<ele>2409.885</ele>
</trkpt>
<trkpt lat="31.1532505" lon="-7.8372864">
<ele>2411.139</ele>
</trkpt>
<trkpt lat="31.153482" lon="-7.8369697">
<ele>2416.218</ele>
</trkpt>
<trkpt lat="31.1538287" lon="-7.836874">
<ele>2415.807</ele>
</trkpt>
<trkpt lat="31.1541728" lon="-7.836842">
<ele>2416.461</ele>
</trkpt>
<trkpt lat="31.1545201" lon="-7.836766">
<ele>2416.92</ele>
</trkpt>
<trkpt lat="31.1548573" lon="-7.836873">
<ele>2415.128</ele>
</trkpt>
<trkpt lat="31.1552108" lon="-7.8370414">
<ele>2416.412</ele>
</trkpt>
<trkpt lat="31.1554751" lon="-7.8373066">
<ele>2407.223</ele>
</trkpt>
<trkpt lat="31.1558189" lon="-7.8371393">
<ele>2410.985</ele>
</trkpt>
<trkpt lat="31.1561408" lon="-7.8369782">
<ele>2416.503</ele>
</trkpt>
<trkpt lat="31.1564829" lon="-7.8368975">
<ele>2415.618</ele>
</trkpt>
<trkpt lat="31.1568325" lon="-7.8369257">
<ele>2418.175</ele>
</trkpt>
<trkpt lat="31.1567923" lon="-7.8373262">
<ele>2423.008</ele>
</trkpt>
<trkpt lat="31.1565462" lon="-7.8376155">
<ele>2420.896</ele>
</trkpt>
<trkpt lat="31.1563569" lon="-7.8379534">
<ele>2423.047</ele>
</trkpt>
<trkpt lat="31.1561194" lon="-7.8383021">
<ele>2420.522</ele>
</trkpt>
<trkpt lat="31.1558935" lon="-7.8386104">
<ele>2420.926</ele>
</trkpt>
<trkpt lat="31.1556181" lon="-7.838867">
<ele>2420.317</ele>
</trkpt>
<trkpt lat="31.1553364" lon="-7.8391267">
<ele>2410.456</ele>
</trkpt>
<trkpt lat="31.1550748" lon="-7.8393947">
<ele>2402.204</ele>
</trkpt>
<trkpt lat="31.1548636" lon="-7.8397254">
<ele>2391.166</ele>
</trkpt>
<trkpt lat="31.1547165" lon="-7.840123">
<ele>2386.481</ele>
</trkpt>
<trkpt lat="31.1546818" lon="-7.840541">
<ele>2390.209</ele>
</trkpt>
<trkpt lat="31.1548547" lon="-7.8408926">
<ele>2397.555</ele>
</trkpt>
<trkpt lat="31.1550276" lon="-7.8410901">
<ele>2400.172</ele>
</trkpt>
<trkpt lat="31.1552301" lon="-7.8414265">
<ele>2391.689</ele>
</trkpt>
<trkpt lat="31.1552738" lon="-7.8414716">
<ele>2390.37</ele>
</trkpt>
</trkseg>
<trkseg>
<trkpt lat="31.155385" lon="-7.8410769">
<ele>2409.134</ele>
</trkpt>
<trkpt lat="31.1555045" lon="-7.840696">
<ele>2424.8</ele>
</trkpt>
<trkpt lat="31.1555328" lon="-7.8402863">
<ele>2437.377</ele>
</trkpt>
<trkpt lat="31.1555732" lon="-7.8398659">
<ele>2432.122</ele>
</trkpt>
<trkpt lat="31.1556431" lon="-7.8394655">
<ele>2427.866</ele>
</trkpt>
<trkpt lat="31.1557755" lon="-7.8390709">
<ele>2427.956</ele>
</trkpt>
<trkpt lat="31.1559487" lon="-7.8386786">
<ele>2424.925</ele>
</trkpt>
<trkpt lat="31.1561957" lon="-7.8383756">
<ele>2426.421</ele>
</trkpt>
<trkpt lat="31.1564425" lon="-7.8380641">
<ele>2431.134</ele>
</trkpt>
<trkpt lat="31.1566599" lon="-7.8377455">
<ele>2432.995</ele>
</trkpt>
<trkpt lat="31.1568358" lon="-7.8373938">
<ele>2427.368</ele>
</trkpt>
<trkpt lat="31.1569229" lon="-7.8371262">
<ele>2424.344</ele>
</trkpt>
<trkpt lat="31.1571313" lon="-7.8367588">
<ele>2429.178</ele>
</trkpt>
<trkpt lat="31.1573578" lon="-7.8364197">
<ele>2436.154</ele>
</trkpt>
<trkpt lat="31.1575335" lon="-7.8360579">
<ele>2438.475</ele>
</trkpt>
<trkpt lat="31.1576743" lon="-7.8356521">
<ele>2444.119</ele>
</trkpt>
<trkpt lat="31.1577568" lon="-7.8352526">
<ele>2453.871</ele>
</trkpt>
<trkpt lat="31.1578069" lon="-7.8348413">
<ele>2463.544</ele>
</trkpt>
<trkpt lat="31.1578062" lon="-7.8344238">
<ele>2470.784</ele>
</trkpt>
<trkpt lat="31.1577707" lon="-7.8340101">
<ele>2476.462</ele>
</trkpt>
<trkpt lat="31.157749" lon="-7.8335896">
<ele>2481.516</ele>
</trkpt>
<trkpt lat="31.1577408" lon="-7.8331463">
<ele>2490.576</ele>
</trkpt>
<trkpt lat="31.1577463" lon="-7.8327169">
<ele>2500.157</ele>
</trkpt>
<trkpt lat="31.157767" lon="-7.8322819">
<ele>2508.714</ele>
</trkpt>
<trkpt lat="31.1577899" lon="-7.8320095">
<ele>2512.21</ele>
</trkpt>
<trkpt lat="31.1580002" lon="-7.8316303">
<ele>2521.383</ele>
</trkpt>
<trkpt lat="31.1582042" lon="-7.831291">
<ele>2528.831</ele>
</trkpt>
<trkpt lat="31.1583943" lon="-7.8308974">
<ele>2532.469</ele>
</trkpt>
<trkpt lat="31.1585985" lon="-7.8305386">
<ele>2536.898</ele>
</trkpt>
<trkpt lat="31.1588237" lon="-7.8301923">
<ele>2547.341</ele>
</trkpt>
<trkpt lat="31.1589992" lon="-7.8297993">
<ele>2558.407</ele>
</trkpt>
<trkpt lat="31.1591169" lon="-7.829386">
<ele>2569.97</ele>
</trkpt>
<trkpt lat="31.1592357" lon="-7.828984">
<ele>2573.98</ele>
</trkpt>
<trkpt lat="31.15934" lon="-7.8285811">
<ele>2580.073</ele>
</trkpt>
<trkpt lat="31.1594465" lon="-7.8282122">
<ele>2583.922</ele>
</trkpt>
<trkpt lat="31.1595856" lon="-7.8278429">
<ele>2587.541</ele>
</trkpt>
<trkpt lat="31.1597399" lon="-7.8273896">
<ele>2590.715</ele>
</trkpt>
<trkpt lat="31.1598587" lon="-7.827">
<ele>2598.639</ele>
</trkpt>
<trkpt lat="31.1599573" lon="-7.8265991">
<ele>2606.381</ele>
</trkpt>
<trkpt lat="31.160073" lon="-7.8261339">
<ele>2611.417</ele>
</trkpt>
<trkpt lat="31.1601855" lon="-7.8256945">
<ele>2617.499</ele>
</trkpt>
<trkpt lat="31.1603167" lon="-7.8252662">
<ele>2626.939</ele>
</trkpt>
<trkpt lat="31.1604225" lon="-7.8248762">
<ele>2636.469</ele>
</trkpt>
<trkpt lat="31.1605331" lon="-7.8244534">
<ele>2647.64</ele>
</trkpt>
<trkpt lat="31.1606447" lon="-7.8240641">
<ele>2656.057</ele>
</trkpt>
<trkpt lat="31.1607919" lon="-7.823697">
<ele>2667.41</ele>
</trkpt>
<trkpt lat="31.1609208" lon="-7.8233849">
<ele>2673.064</ele>
</trkpt>
<trkpt lat="31.1610719" lon="-7.8228956">
<ele>2684.031</ele>
</trkpt>
<trkpt lat="31.1612106" lon="-7.8224634">
<ele>2699.278</ele>
</trkpt>
<trkpt lat="31.1613364" lon="-7.8219577">
<ele>2711.558</ele>
</trkpt>
<trkpt lat="31.1614249" lon="-7.8214696">
<ele>2722.799</ele>
</trkpt>
<trkpt lat="31.1615094" lon="-7.8210722">
<ele>2729.968</ele>
</trkpt>
<trkpt lat="31.1616193" lon="-7.8206229">
<ele>2736.617</ele>
</trkpt>
<trkpt lat="31.1617237" lon="-7.8202082">
<ele>2749.049</ele>
</trkpt>
<trkpt lat="31.1618419" lon="-7.819762">
<ele>2759.566</ele>
</trkpt>
<trkpt lat="31.1619187" lon="-7.8193682">
<ele>2770.525</ele>
</trkpt>
<trkpt lat="31.1619897" lon="-7.818965">
<ele>2780.697</ele>
</trkpt>
<trkpt lat="31.1619955" lon="-7.8188962">
<ele>2781.981</ele>
</trkpt>
<trkpt lat="31.161982" lon="-7.8184778">
<ele>2790.1</ele>
</trkpt>
<trkpt lat="31.1619671" lon="-7.8180503">
<ele>2801.53</ele>
</trkpt>
<trkpt lat="31.1619661" lon="-7.8176093">
<ele>2806.05</ele>
</trkpt>
<trkpt lat="31.1619521" lon="-7.8171855">
<ele>2817.831</ele>
</trkpt>
<trkpt lat="31.1619499" lon="-7.816727">
<ele>2837.556</ele>
</trkpt>
<trkpt lat="31.161955" lon="-7.8162446">
<ele>2860.291</ele>
</trkpt>
<trkpt lat="31.1619533" lon="-7.8158064">
<ele>2878.792</ele>
</trkpt>
<trkpt lat="31.1619546" lon="-7.8154585">
<ele>2890.717</ele>
</trkpt>
<trkpt lat="31.1620393" lon="-7.8150462">
<ele>2898.132</ele>
</trkpt>
<trkpt lat="31.1621427" lon="-7.8146415">
<ele>2902.628</ele>
</trkpt>
<trkpt lat="31.1622603" lon="-7.8141539">
<ele>2910.597</ele>
</trkpt>
<trkpt lat="31.1623443" lon="-7.8137298">
<ele>2919.251</ele>
</trkpt>
<trkpt lat="31.1624075" lon="-7.8133203">
<ele>2928.42</ele>
</trkpt>
<trkpt lat="31.1624895" lon="-7.8128594">
<ele>2939.936</ele>
</trkpt>
<trkpt lat="31.1625531" lon="-7.812461">
<ele>2953.329</ele>
</trkpt>
<trkpt lat="31.1626637" lon="-7.8120555">
<ele>2970.474</ele>
</trkpt>
<trkpt lat="31.1627376" lon="-7.811806">
<ele>2982.328</ele>
</trkpt>
<trkpt lat="31.1627928" lon="-7.81138">
<ele>3004.86</ele>
</trkpt>
<trkpt lat="31.16288" lon="-7.8109582">
<ele>3029.043</ele>
</trkpt>
<trkpt lat="31.1630265" lon="-7.8104837">
<ele>3053.644</ele>
</trkpt>
<trkpt lat="31.1631676" lon="-7.8100854">
<ele>3075.894</ele>
</trkpt>
<trkpt lat="31.1632999" lon="-7.8096473">
<ele>3093.445</ele>
</trkpt>
<trkpt lat="31.163391" lon="-7.8092483">
<ele>3114.483</ele>
</trkpt>
<trkpt lat="31.1634537" lon="-7.8088318">
<ele>3137.26</ele>
</trkpt>
<trkpt lat="31.1635513" lon="-7.8084381">
<ele>3155.743</ele>
</trkpt>
<trkpt lat="31.1636847" lon="-7.8080606">
<ele>3169.014</ele>
</trkpt>
<trkpt lat="31.163845" lon="-7.8076804">
<ele>3178.949</ele>
</trkpt>
<trkpt lat="31.1640836" lon="-7.8073612">
<ele>3181.195</ele>
</trkpt>
<trkpt lat="31.1643019" lon="-7.8070421">
<ele>3182.63</ele>
</trkpt>
<trkpt lat="31.1643165" lon="-7.8070178">
<ele>3182.844</ele>
</trkpt>
<trkpt lat="31.1643648" lon="-7.806605">
<ele>3183.322</ele>
</trkpt>
<trkpt lat="31.1643928" lon="-7.8061974">
<ele>3178.044</ele>
</trkpt>
<trkpt lat="31.1643714" lon="-7.80579">
<ele>3165.059</ele>
</trkpt>
<trkpt lat="31.1643359" lon="-7.805379">
<ele>3154.17</ele>
</trkpt>
<trkpt lat="31.1643352" lon="-7.8049586">
<ele>3147.854</ele>
</trkpt>
<trkpt lat="31.1643695" lon="-7.8045398">
<ele>3141.722</ele>
</trkpt>
<trkpt lat="31.1643816" lon="-7.8044393">
<ele>3140.043</ele>
</trkpt>
<trkpt lat="31.1645065" lon="-7.8040233">
<ele>3132.86</ele>
</trkpt>
<trkpt lat="31.1646551" lon="-7.8036553">
<ele>3132.0</ele>
</trkpt>
<trkpt lat="31.164733" lon="-7.8032623">
<ele>3133.168</ele>
</trkpt>
<trkpt lat="31.1647667" lon="-7.8028571">
<ele>3132.691</ele>
</trkpt>
<trkpt lat="31.1648303" lon="-7.8024541">
<ele>3126.065</ele>
</trkpt>
<trkpt lat="31.1648922" lon="-7.8020298">
<ele>3113.542</ele>
</trkpt>
<trkpt lat="31.1649412" lon="-7.8016121">
<ele>3102.852</ele>
</trkpt>
<trkpt lat="31.165023" lon="-7.8011864">
<ele>3085.833</ele>
</trkpt>
<trkpt lat="31.1651069" lon="-7.8007796">
<ele>3068.292</ele>
</trkpt>
<trkpt lat="31.1651582" lon="-7.8004726">
<ele>3053.288</ele>
</trkpt>
<trkpt lat="31.1652547" lon="-7.8000301">
<ele>3031.839</ele>
</trkpt>
<trkpt lat="31.1653238" lon="-7.7996097">
<ele>3014.765</ele>
</trkpt>
<trkpt lat="31.165414" lon="-7.7991981">
<ele>2995.769</ele>
</trkpt>
<trkpt lat="31.1655187" lon="-7.7987581">
<ele>2982.814</ele>
</trkpt>
<trkpt lat="31.165624" lon="-7.798349">
<ele>2970.86</ele>
</trkpt>
<trkpt lat="31.1657408" lon="-7.7979333">
<ele>2960.237</ele>
</trkpt>
<trkpt lat="31.165881" lon="-7.79756">
<ele>2948.079</ele>
</trkpt>
<trkpt lat="31.166014" lon="-7.7971677">
<ele>2939.639</ele>
</trkpt>
<trkpt lat="31.1661464" lon="-7.7967459">
<ele>2927.699</ele>
</trkpt>
<trkpt lat="31.1662511" lon="-7.7963528">
<ele>2917.399</ele>
</trkpt>
<trkpt lat="31.1663303" lon="-7.7960236">
<ele>2907.347</ele>
</trkpt>
<trkpt lat="31.1664051" lon="-7.7955804">
<ele>2894.272</ele>
</trkpt>
<trkpt lat="31.1665097" lon="-7.795141">
<ele>2882.573</ele>
</trkpt>
<trkpt lat="31.1665998" lon="-7.7947374">
<ele>2871.05</ele>
</trkpt>
<trkpt lat="31.1666973" lon="-7.7942946">
<ele>2856.175</ele>
</trkpt>
<trkpt lat="31.166802" lon="-7.7938945">
<ele>2840.304</ele>
</trkpt>
<trkpt lat="31.1669539" lon="-7.7934893">
<ele>2822.402</ele>
</trkpt>
<trkpt lat="31.1671217" lon="-7.7930959">
<ele>2806.445</ele>
</trkpt>
<trkpt lat="31.1673378" lon="-7.7927388">
<ele>2789.846</ele>
</trkpt>
<trkpt lat="31.1675639" lon="-7.7923945">
<ele>2773.045</ele>
</trkpt>
<trkpt lat="31.1678096" lon="-7.792075">
<ele>2762.162</ele>
</trkpt>
<trkpt lat="31.167997" lon="-7.7918677">
<ele>2753.776</ele>
</trkpt>
<trkpt lat="31.1682216" lon="-7.7914204">
<ele>2737.144</ele>
</trkpt>
<trkpt lat="31.1684614" lon="-7.7909904">
<ele>2724.52</ele>
</trkpt>
<trkpt lat="31.1686608" lon="-7.7906287">
<ele>2708.827</ele>
</trkpt>
<trkpt lat="31.1688631" lon="-7.7902327">
<ele>2695.022</ele>
</trkpt>
<trkpt lat="31.1690393" lon="-7.7898186">
<ele>2685.171</ele>
</trkpt>
<trkpt lat="31.1692341" lon="-7.7894365">
<ele>2673.023</ele>
</trkpt>
<trkpt lat="31.1694098" lon="-7.7890849">
<ele>2662.849</ele>
</trkpt>
<trkpt lat="31.1695845" lon="-7.7887342">
<ele>2652.235</ele>
</trkpt>
<trkpt lat="31.1697474" lon="-7.7883481">
<ele>2641.397</ele>
</trkpt>
<trkpt lat="31.1698942" lon="-7.7879725">
<ele>2628.111</ele>
</trkpt>
<trkpt lat="31.1700556" lon="-7.7876132">
<ele>2611.556</ele>
</trkpt>
<trkpt lat="31.1700966" lon="-7.787517">
<ele>2607.545</ele>
</trkpt>
<trkpt lat="31.1702417" lon="-7.7871363">
<ele>2594.467</ele>
</trkpt>
<trkpt lat="31.1704108" lon="-7.7867438">
<ele>2579.218</ele>
</trkpt>
<trkpt lat="31.1705957" lon="-7.7863897">
<ele>2566.028</ele>
</trkpt>
<trkpt lat="31.1708348" lon="-7.7860818">
<ele>2550.244</ele>
</trkpt>
<trkpt lat="31.1711818" lon="-7.785883">
<ele>2538.352</ele>
</trkpt>
<trkpt lat="31.1715124" lon="-7.785755">
<ele>2525.247</ele>
</trkpt>
<trkpt lat="31.1718394" lon="-7.7855998">
<ele>2506.951</ele>
</trkpt>
<trkpt lat="31.1721354" lon="-7.7853511">
<ele>2491.545</ele>
</trkpt>
<trkpt lat="31.1724246" lon="-7.7850836">
<ele>2482.736</ele>
</trkpt>
<trkpt lat="31.1727276" lon="-7.7848232">
<ele>2474.516</ele>
</trkpt>
<trkpt lat="31.1730168" lon="-7.7845898">
<ele>2460.911</ele>
</trkpt>
<trkpt lat="31.1733062" lon="-7.7843596">
<ele>2446.112</ele>
</trkpt>
<trkpt lat="31.1735881" lon="-7.7841043">
<ele>2439.947</ele>
</trkpt>
<trkpt lat="31.173776" lon="-7.7839314">
<ele>2439.561</ele>
</trkpt>
<trkpt lat="31.1739956" lon="-7.7836181">
<ele>2433.398</ele>
</trkpt>
<trkpt lat="31.1742215" lon="-7.7833092">
<ele>2424.462</ele>
</trkpt>
<trkpt lat="31.1744297" lon="-7.782956">
<ele>2413.809</ele>
</trkpt>
<trkpt lat="31.1746696" lon="-7.7826041">
<ele>2397.923</ele>
</trkpt>
<trkpt lat="31.1748937" lon="-7.7822637">
<ele>2386.996</ele>
</trkpt>
<trkpt lat="31.1751105" lon="-7.781888">
<ele>2375.124</ele>
</trkpt>
<trkpt lat="31.1753641" lon="-7.7815939">
<ele>2364.05</ele>
</trkpt>
<trkpt lat="31.1756122" lon="-7.7813033">
<ele>2356.343</ele>
</trkpt>
<trkpt lat="31.1758097" lon="-7.780973">
<ele>2344.88</ele>
</trkpt>
<trkpt lat="31.1761108" lon="-7.7806906">
<ele>2337.288</ele>
</trkpt>
<trkpt lat="31.1763859" lon="-7.7804279">
<ele>2332.649</ele>
</trkpt>
<trkpt lat="31.1766664" lon="-7.7801423">
<ele>2326.115</ele>
</trkpt>
<trkpt lat="31.176924" lon="-7.7798179">
<ele>2315.065</ele>
</trkpt>
<trkpt lat="31.1771992" lon="-7.7795191">
<ele>2295.783</ele>
</trkpt>
<trkpt lat="31.1774776" lon="-7.7792787">
<ele>2287.13</ele>
</trkpt>
<trkpt lat="31.1778089" lon="-7.7790928">
<ele>2279.109</ele>
</trkpt>
<trkpt lat="31.178185" lon="-7.7790071">
<ele>2263.913</ele>
</trkpt>
<trkpt lat="31.1785526" lon="-7.7789935">
<ele>2251.765</ele>
</trkpt>
<trkpt lat="31.1788971" lon="-7.7790117">
<ele>2245.287</ele>
</trkpt>
<trkpt lat="31.1792668" lon="-7.7789983">
<ele>2245.489</ele>
</trkpt>
<trkpt lat="31.179628" lon="-7.7790646">
<ele>2243.559</ele>
</trkpt>
<trkpt lat="31.1799649" lon="-7.7791472">
<ele>2218.193</ele>
</trkpt>
<trkpt lat="31.1800012" lon="-7.7791349">
<ele>2216.276</ele>
</trkpt>
<trkpt lat="31.1803866" lon="-7.7791097">
<ele>2211.762</ele>
</trkpt>
<trkpt lat="31.180766" lon="-7.7790851">
<ele>2198.547</ele>
</trkpt>
<trkpt lat="31.1811491" lon="-7.7790379">
<ele>2192.59</ele>
</trkpt>
<trkpt lat="31.1814854" lon="-7.778943">
<ele>2184.296</ele>
</trkpt>
<trkpt lat="31.1817522" lon="-7.7786728">
<ele>2176.947</ele>
</trkpt>
<trkpt lat="31.1819555" lon="-7.7782854">
<ele>2169.86</ele>
</trkpt>
<trkpt lat="31.1821457" lon="-7.7779151">
<ele>2164.415</ele>
</trkpt>
<trkpt lat="31.1822936" lon="-7.7775462">
<ele>2155.827</ele>
</trkpt>
<trkpt lat="31.1824683" lon="-7.7771797">
<ele>2146.879</ele>
</trkpt>
<trkpt lat="31.1826436" lon="-7.77681">
<ele>2144.367</ele>
</trkpt>
<trkpt lat="31.1828035" lon="-7.7764191">
<ele>2143.323</ele>
</trkpt>
<trkpt lat="31.1828957" lon="-7.7760305">
<ele>2140.956</ele>
</trkpt>
<trkpt lat="31.1829512" lon="-7.7756241">
<ele>2133.032</ele>
</trkpt>
<trkpt lat="31.1829906" lon="-7.7754862">
<ele>2130.781</ele>
</trkpt>
<trkpt lat="31.1832567" lon="-7.7751855">
<ele>2131.403</ele>
</trkpt>
<trkpt lat="31.1835109" lon="-7.7748774">
<ele>2123.81</ele>
</trkpt>
<trkpt lat="31.1837705" lon="-7.7745645">
<ele>2109.121</ele>
</trkpt>
<trkpt lat="31.1840805" lon="-7.7743301">
<ele>2102.965</ele>
</trkpt>
<trkpt lat="31.1844004" lon="-7.7741631">
<ele>2099.408</ele>
</trkpt>
<trkpt lat="31.1847318" lon="-7.7739854">
<ele>2101.146</ele>
</trkpt>
<trkpt lat="31.1850432" lon="-7.7737892">
<ele>2101.455</ele>
</trkpt>
<trkpt lat="31.1853334" lon="-7.7735706">
<ele>2095.815</ele>
</trkpt>
<trkpt lat="31.1856013" lon="-7.7733066">
<ele>2088.779</ele>
</trkpt>
<trkpt lat="31.1858269" lon="-7.7729878">
<ele>2082.376</ele>
</trkpt>
<trkpt lat="31.1860591" lon="-7.7726877">
<ele>2072.947</ele>
</trkpt>
<trkpt lat="31.1863684" lon="-7.7724611">
<ele>2068.455</ele>
</trkpt>
<trkpt lat="31.1867181" lon="-7.7724475">
<ele>2067.995</ele>
</trkpt>
<trkpt lat="31.1870367" lon="-7.7726168">
<ele>2063.115</ele>
</trkpt>
<trkpt lat="31.1873537" lon="-7.7727895">
<ele>2056.26</ele>
</trkpt>
<trkpt lat="31.1876579" lon="-7.772994">
<ele>2059.258</ele>
</trkpt>
<trkpt lat="31.1880075" lon="-7.7730154">
<ele>2056.58</ele>
</trkpt>
<trkpt lat="31.1883238" lon="-7.7729772">
<ele>2052.517</ele>
</trkpt>
<trkpt lat="31.1886428" lon="-7.7728221">
<ele>2052.142</ele>
</trkpt>
<trkpt lat="31.1889681" lon="-7.77264">
<ele>2059.9</ele>
</trkpt>
<trkpt lat="31.1892807" lon="-7.7724511">
<ele>2070.77</ele>
</trkpt>
<trkpt lat="31.1891983" lon="-7.7720503">
<ele>2041.885</ele>
</trkpt>
<trkpt lat="31.1889617" lon="-7.771746">
<ele>2021.93</ele>
</trkpt>
<trkpt lat="31.1892812" lon="-7.7715155">
<ele>2025.189</ele>
</trkpt>
<trkpt lat="31.1896263" lon="-7.7714568">
<ele>2032.428</ele>
</trkpt>
<trkpt lat="31.1899871" lon="-7.7714142">
<ele>2028.782</ele>
</trkpt>
<trkpt lat="31.1903379" lon="-7.7713978">
<ele>2039.643</ele>
</trkpt>
<trkpt lat="31.1906571" lon="-7.7712317">
<ele>2041.545</ele>
</trkpt>
<trkpt lat="31.1909673" lon="-7.7710312">
<ele>2038.43</ele>
</trkpt>
<trkpt lat="31.1912644" lon="-7.7708205">
<ele>2032.648</ele>
</trkpt>
<trkpt lat="31.1913975" lon="-7.770771">
<ele>2031.859</ele>
</trkpt>
<trkpt lat="31.1915387" lon="-7.7708242">
<ele>2030.78</ele>
</trkpt>
<trkpt lat="31.1918501" lon="-7.7705968">
<ele>2006.271</ele>
</trkpt>
<trkpt lat="31.1921822" lon="-7.7704528">
<ele>1983.34</ele>
</trkpt>
<trkpt lat="31.1925229" lon="-7.7703262">
<ele>1962.985</ele>
</trkpt>
<trkpt lat="31.1928215" lon="-7.7705375">
<ele>1959.205</ele>
</trkpt>
<trkpt lat="31.1931028" lon="-7.770779">
<ele>1954.945</ele>
</trkpt>
<trkpt lat="31.1934554" lon="-7.7708348">
<ele>1947.402</ele>
</trkpt>
<trkpt lat="31.193812" lon="-7.7709045">
<ele>1943.297</ele>
</trkpt>
<trkpt lat="31.1941259" lon="-7.7707195">
<ele>1946.443</ele>
</trkpt>
<trkpt lat="31.1940354" lon="-7.770328">
<ele>1941.928</ele>
</trkpt>
<trkpt lat="31.1938884" lon="-7.7699429">
<ele>1935.398</ele>
</trkpt>
<trkpt lat="31.1937216" lon="-7.7695598">
<ele>1933.447</ele>
</trkpt>
<trkpt lat="31.1936352" lon="-7.7691574">
<ele>1934.901</ele>
</trkpt>
<trkpt lat="31.1938523" lon="-7.7688422">
<ele>1943.705</ele>
</trkpt>
<trkpt lat="31.1941271" lon="-7.7685673">
<ele>1957.028</ele>
</trkpt>
<trkpt lat="31.1942313" lon="-7.7684576">
<ele>1962.98</ele>
</trkpt>
</trkseg>
<trkseg>
<trkpt lat="31.1939359" lon="-7.7687512">
<ele>1947.284</ele>
</trkpt>
<trkpt lat="31.1937317" lon="-7.7690958">
<ele>1938.596</ele>
</trkpt>
<trkpt lat="31.1936268" lon="-7.7694913">
<ele>1930.312</ele>
</trkpt>
<trkpt lat="31.1936826" lon="-7.7698969">
<ele>1929.993</ele>
</trkpt>
<trkpt lat="31.1937872" lon="-7.7702839">
<ele>1936.314</ele>
</trkpt>
<trkpt lat="31.1938927" lon="-7.7706769">
<ele>1939.422</ele>
</trkpt>
<trkpt lat="31.1935534" lon="-7.7707891">
<ele>1944.384</ele>
</trkpt>
<trkpt lat="31.1932162" lon="-7.7706915">
<ele>1949.369</ele>
</trkpt>
<trkpt lat="31.1929197" lon="-7.7709277">
<ele>1969.687</ele>
</trkpt>
<trkpt lat="31.1929734" lon="-7.7713531">
<ele>1978.429</ele>
</trkpt>
<trkpt lat="31.1930246" lon="-7.7717938">
<ele>1992.452</ele>
</trkpt>
<trkpt lat="31.1931156" lon="-7.7721969">
<ele>2000.913</ele>
</trkpt>
<trkpt lat="31.193124" lon="-7.7722217">
<ele>2001.275</ele>
</trkpt>
<trkpt lat="31.1932432" lon="-7.7726112">
<ele>2013.719</ele>
</trkpt>
<trkpt lat="31.1934511" lon="-7.7729348">
<ele>2024.272</ele>
</trkpt>
<trkpt lat="31.1936746" lon="-7.7732685">
<ele>2033.007</ele>
</trkpt>
<trkpt lat="31.1938533" lon="-7.773447">
<ele>2029.837</ele>
</trkpt>
<trkpt lat="31.1940072" lon="-7.7738288">
<ele>2035.714</ele>
</trkpt>
<trkpt lat="31.194203" lon="-7.7741621">
<ele>2035.502</ele>
</trkpt>
<trkpt lat="31.1943371" lon="-7.7745518">
<ele>2042.594</ele>
</trkpt>
<trkpt lat="31.1945726" lon="-7.774852">
<ele>2047.394</ele>
</trkpt>
<trkpt lat="31.1948231" lon="-7.7751326">
<ele>2053.356</ele>
</trkpt>
<trkpt lat="31.1951264" lon="-7.7753439">
<ele>2052.283</ele>
</trkpt>
<trkpt lat="31.1953475" lon="-7.7754752">
<ele>2048.373</ele>
</trkpt>
<trkpt lat="31.1955567" lon="-7.7758105">
<ele>2058.543</ele>
</trkpt>
<trkpt lat="31.1957103" lon="-7.7761912">
<ele>2066.447</ele>
</trkpt>
<trkpt lat="31.1959478" lon="-7.7765065">
<ele>2055.441</ele>
</trkpt>
<trkpt lat="31.1960115" lon="-7.7769072">
<ele>2057.143</ele>
</trkpt>
<trkpt lat="31.195942" lon="-7.7773101">
<ele>2071.168</ele>
</trkpt>
<trkpt lat="31.1958517" lon="-7.7777013">
<ele>2085.474</ele>
</trkpt>
<trkpt lat="31.1957755" lon="-7.7781067">
<ele>2093.171</ele>
</trkpt>
<trkpt lat="31.1957202" lon="-7.7785133">
<ele>2097.901</ele>
</trkpt>
<trkpt lat="31.195581" lon="-7.7788984">
<ele>2105.123</ele>
</trkpt>
<trkpt lat="31.1954339" lon="-7.7792374">
<ele>2112.747</ele>
</trkpt>
<trkpt lat="31.1955384" lon="-7.7796559">
<ele>2109.42</ele>
</trkpt>
<trkpt lat="31.1956659" lon="-7.780076">
<ele>2103.065</ele>
</trkpt>
<trkpt lat="31.1956106" lon="-7.7804791">
<ele>2108.774</ele>
</trkpt>
<trkpt lat="31.1955542" lon="-7.7808776">
<ele>2119.073</ele>
</trkpt>
<trkpt lat="31.1955407" lon="-7.7812858">
<ele>2126.949</ele>
</trkpt>
<trkpt lat="31.1955832" lon="-7.7816993">
<ele>2124.883</ele>
</trkpt>
<trkpt lat="31.1955559" lon="-7.7821139">
<ele>2132.646</ele>
</trkpt>
<trkpt lat="31.1955563" lon="-7.7825181">
<ele>2143.483</ele>
</trkpt>
<trkpt lat="31.1955639" lon="-7.7829358">
<ele>2154.489</ele>
</trkpt>
<trkpt lat="31.1956276" lon="-7.7833564">
<ele>2153.462</ele>
</trkpt>
<trkpt lat="31.1955914" lon="-7.7836699">
<ele>2154.978</ele>
</trkpt>
<trkpt lat="31.1955154" lon="-7.7840813">
<ele>2160.644</ele>
</trkpt>
<trkpt lat="31.1954667" lon="-7.7845225">
<ele>2159.22</ele>
</trkpt>
<trkpt lat="31.1954046" lon="-7.784927">
<ele>2168.807</ele>
</trkpt>
<trkpt lat="31.1954249" lon="-7.7853319">
<ele>2178.011</ele>
</trkpt>
<trkpt lat="31.19544" lon="-7.7857358">
<ele>2185.637</ele>
</trkpt>
<trkpt lat="31.1954606" lon="-7.7860958">
<ele>2192.761</ele>
</trkpt>
<trkpt lat="31.1953761" lon="-7.7865061">
<ele>2199.412</ele>
</trkpt>
<trkpt lat="31.1953694" lon="-7.7869409">
<ele>2197.425</ele>
</trkpt>
<trkpt lat="31.195356" lon="-7.7873508">
<ele>2189.637</ele>
</trkpt>
<trkpt lat="31.1952177" lon="-7.7877233">
<ele>2194.308</ele>
</trkpt>
<trkpt lat="31.1950135" lon="-7.7880493">
<ele>2202.454</ele>
</trkpt>
<trkpt lat="31.1948083" lon="-7.7883727">
<ele>2209.759</ele>
</trkpt>
<trkpt lat="31.1947347" lon="-7.7885488">
<ele>2210.393</ele>
</trkpt>
<trkpt lat="31.1946142" lon="-7.7889336">
<ele>2210.178</ele>
</trkpt>
<trkpt lat="31.1944596" lon="-7.789303">
<ele>2211.546</ele>
</trkpt>
<trkpt lat="31.1943548" lon="-7.7896864">
<ele>2208.549</ele>
</trkpt>
<trkpt lat="31.1942573" lon="-7.7900887">
<ele>2206.266</ele>
</trkpt>
<trkpt lat="31.1941667" lon="-7.79048">
<ele>2205.543</ele>
</trkpt>
<trkpt lat="31.1940546" lon="-7.7908669">
<ele>2208.767</ele>
</trkpt>
<trkpt lat="31.1938806" lon="-7.7912335">
<ele>2211.952</ele>
</trkpt>
<trkpt lat="31.1938725" lon="-7.7912623">
<ele>2212.542</ele>
</trkpt>
<trkpt lat="31.1938387" lon="-7.791703">
<ele>2214.322</ele>
</trkpt>
<trkpt lat="31.1937967" lon="-7.7921167">
<ele>2218.271</ele>
</trkpt>
<trkpt lat="31.1937628" lon="-7.7925306">
<ele>2223.98</ele>
</trkpt>
<trkpt lat="31.1937148" lon="-7.7929518">
<ele>2232.166</ele>
</trkpt>
<trkpt lat="31.1936588" lon="-7.7933667">
<ele>2236.126</ele>
</trkpt>
<trkpt lat="31.1936303" lon="-7.793716">
<ele>2236.041</ele>
</trkpt>
<trkpt lat="31.1935333" lon="-7.7941051">
<ele>2242.229</ele>
</trkpt>
<trkpt lat="31.1934414" lon="-7.7945031">
<ele>2245.901</ele>
</trkpt>
<trkpt lat="31.1933439" lon="-7.7949053">
<ele>2249.989</ele>
</trkpt>
<trkpt lat="31.1931908" lon="-7.7952704">
<ele>2253.462</ele>
</trkpt>
<trkpt lat="31.1930426" lon="-7.7956385">
<ele>2259.904</ele>
</trkpt>
<trkpt lat="31.1928047" lon="-7.7959454">
<ele>2266.96</ele>
</trkpt>
<trkpt lat="31.1925725" lon="-7.7962743">
<ele>2270.87</ele>
</trkpt>
<trkpt lat="31.1925171" lon="-7.7963843">
<ele>2271.952</ele>
</trkpt>
<trkpt lat="31.1919796" lon="-7.7968905">
<ele>2282.377</ele>
</trkpt>
<trkpt lat="31.1914157" lon="-7.7974312">
<ele>2301.443</ele>
</trkpt>
<trkpt lat="31.1908649" lon="-7.7979532">
<ele>2328.658</ele>
</trkpt>
<trkpt lat="31.1902868" lon="-7.7984052">
<ele>2356.679</ele>
</trkpt>
<trkpt lat="31.1897365" lon="-7.7989235">
<ele>2374.92</ele>
</trkpt>
<trkpt lat="31.1892299" lon="-7.7995168">
<ele>2391.167</ele>
</trkpt>
<trkpt lat="31.1886965" lon="-7.8000956">
<ele>2406.136</ele>
</trkpt>
<trkpt lat="31.1881942" lon="-7.8007564">
<ele>2423.845</ele>
</trkpt>
<trkpt lat="31.1877583" lon="-7.8014567">
<ele>2434.179</ele>
</trkpt>
<trkpt lat="31.187386" lon="-7.8020329">
<ele>2442.145</ele>
</trkpt>
<trkpt lat="31.186978" lon="-7.8027575">
<ele>2451.528</ele>
</trkpt>
<trkpt lat="31.1865948" lon="-7.8034805">
<ele>2465.367</ele>
</trkpt>
<trkpt lat="31.1861587" lon="-7.8041638">
<ele>2487.443</ele>
</trkpt>
<trkpt lat="31.1858252" lon="-7.8049407">
<ele>2496.347</ele>
</trkpt>
<trkpt lat="31.1854578" lon="-7.8056215">
<ele>2520.361</ele>
</trkpt>
<trkpt lat="31.1851341" lon="-7.8063715">
<ele>2542.119</ele>
</trkpt>
<trkpt lat="31.1847176" lon="-7.8071094">
<ele>2562.361</ele>
</trkpt>
<trkpt lat="31.1843795" lon="-7.8078368">
<ele>2589.844</ele>
</trkpt>
<trkpt lat="31.1842566" lon="-7.8081632">
<ele>2602.991</ele>
</trkpt>
<trkpt lat="31.1839096" lon="-7.8089145">
<ele>2637.459</ele>
</trkpt>
<trkpt lat="31.1835532" lon="-7.8096553">
<ele>2663.128</ele>
</trkpt>
<trkpt lat="31.1831748" lon="-7.8103515">
<ele>2684.64</ele>
</trkpt>
<trkpt lat="31.1827949" lon="-7.8110944">
<ele>2710.665</ele>
</trkpt>
<trkpt lat="31.1824835" lon="-7.8118202">
<ele>2735.924</ele>
</trkpt>
<trkpt lat="31.1822211" lon="-7.8126335">
<ele>2755.471</ele>
</trkpt>
<trkpt lat="31.1820388" lon="-7.8134234">
<ele>2795.29</ele>
</trkpt>
<trkpt lat="31.1818919" lon="-7.8138767">
<ele>2808.579</ele>
</trkpt>
<trkpt lat="31.181687" lon="-7.8146772">
<ele>2826.523</ele>
</trkpt>
<trkpt lat="31.1814723" lon="-7.8154826">
<ele>2853.957</ele>
</trkpt>
<trkpt lat="31.1813194" lon="-7.8163546">
<ele>2883.824</ele>
</trkpt>
<trkpt lat="31.1811806" lon="-7.8171779">
<ele>2916.988</ele>
</trkpt>
<trkpt lat="31.1810421" lon="-7.8180185">
<ele>2951.3</ele>
</trkpt>
<trkpt lat="31.1808893" lon="-7.8188146">
<ele>2988.728</ele>
</trkpt>
<trkpt lat="31.1808756" lon="-7.8189175">
<ele>2994.908</ele>
</trkpt>
<trkpt lat="31.1806518" lon="-7.8196994">
<ele>3035.783</ele>
</trkpt>
<trkpt lat="31.1805125" lon="-7.8205524">
<ele>3074.405</ele>
</trkpt>
<trkpt lat="31.180402" lon="-7.8213812">
<ele>3109.152</ele>
</trkpt>
<trkpt lat="31.1803195" lon="-7.8222191">
<ele>3136.728</ele>
</trkpt>
<trkpt lat="31.1802092" lon="-7.8230452">
<ele>3163.89</ele>
</trkpt>
<trkpt lat="31.1800822" lon="-7.8238569">
<ele>3200.814</ele>
</trkpt>
<trkpt lat="31.1800829" lon="-7.8238969">
<ele>3202.003</ele>
</trkpt>
<trkpt lat="31.180126" lon="-7.8247199">
<ele>3223.213</ele>
</trkpt>
<trkpt lat="31.180114" lon="-7.8255284">
<ele>3248.987</ele>
</trkpt>
<trkpt lat="31.1800724" lon="-7.8263727">
<ele>3280.141</ele>
</trkpt>
<trkpt lat="31.1797682" lon="-7.8271136">
<ele>3298.767</ele>
</trkpt>
<trkpt lat="31.1793026" lon="-7.8277756">
<ele>3287.488</ele>
</trkpt>
<trkpt lat="31.1790102" lon="-7.8285656">
<ele>3243.77</ele>
</trkpt>
<trkpt lat="31.1789819" lon="-7.8286843">
<ele>3238.311</ele>
</trkpt>
<trkpt lat="31.1787767" lon="-7.829479">
<ele>3204.329</ele>
</trkpt>
<trkpt lat="31.1785096" lon="-7.8303136">
<ele>3160.937</ele>
</trkpt>
<trkpt lat="31.1783136" lon="-7.8311005">
<ele>3113.109</ele>
</trkpt>
<trkpt lat="31.1781866" lon="-7.831896">
<ele>3082.802</ele>
</trkpt>
<trkpt lat="31.1779217" lon="-7.8327076">
<ele>3045.037</ele>
</trkpt>
<trkpt lat="31.1777407" lon="-7.8335143">
<ele>3008.522</ele>
</trkpt>
<trkpt lat="31.1776482" lon="-7.8338841">
<ele>2991.213</ele>
</trkpt>
<trkpt lat="31.1774697" lon="-7.8347881">
<ele>2956.185</ele>
</trkpt>
<trkpt lat="31.1773723" lon="-7.8356446">
<ele>2927.156</ele>
</trkpt>
<trkpt lat="31.1772887" lon="-7.8365061">
<ele>2897.691</ele>
</trkpt>
<trkpt lat="31.1772198" lon="-7.8373219">
<ele>2867.742</ele>
</trkpt>
<trkpt lat="31.1771097" lon="-7.8381164">
<ele>2843.732</ele>
</trkpt>
<trkpt lat="31.1770129" lon="-7.8389367">
<ele>2822.753</ele>
</trkpt>
<trkpt lat="31.1769847" lon="-7.8397565">
<ele>2800.94</ele>
</trkpt>
<trkpt lat="31.177038" lon="-7.8403766">
<ele>2783.893</ele>
</trkpt>
<trkpt lat="31.1772333" lon="-7.841201">
<ele>2770.001</ele>
</trkpt>
<trkpt lat="31.1776367" lon="-7.8419641">
<ele>2760.214</ele>
</trkpt>
<trkpt lat="31.1781666" lon="-7.84253">
<ele>2757.005</ele>
</trkpt>
<trkpt lat="31.1788278" lon="-7.8429585">
<ele>2743.613</ele>
</trkpt>
<trkpt lat="31.1795705" lon="-7.8431001">
<ele>2731.635</ele>
</trkpt>
<trkpt lat="31.1803046" lon="-7.8432546">
<ele>2736.996</ele>
</trkpt>
<trkpt lat="31.180989" lon="-7.8433667">
<ele>2739.187</ele>
</trkpt>
<trkpt lat="31.1817474" lon="-7.8434685">
<ele>2748.577</ele>
</trkpt>
<trkpt lat="31.1824788" lon="-7.8435477">
<ele>2740.893</ele>
</trkpt>
<trkpt lat="31.1831742" lon="-7.8435472">
<ele>2714.204</ele>
</trkpt>
<trkpt lat="31.1834339" lon="-7.8435399">
<ele>2712.411</ele>
</trkpt>
<trkpt lat="31.1841246" lon="-7.843709">
<ele>2701.396</ele>
</trkpt>
<trkpt lat="31.1848497" lon="-7.8438442">
<ele>2694.248</ele>
</trkpt>
<trkpt lat="31.1855554" lon="-7.8439188">
<ele>2689.217</ele>
</trkpt>
<trkpt lat="31.186259" lon="-7.844051">
<ele>2685.444</ele>
</trkpt>
<trkpt lat="31.1869763" lon="-7.8442302">
<ele>2682.053</ele>
</trkpt>
<trkpt lat="31.1876893" lon="-7.8443991">
<ele>2682.059</ele>
</trkpt>
<trkpt lat="31.1884354" lon="-7.8447026">
<ele>2680.882</ele>
</trkpt>
<trkpt lat="31.1891564" lon="-7.8449442">
<ele>2689.11</ele>
</trkpt>
<trkpt lat="31.1895847" lon="-7.8451013">
<ele>2679.466</ele>
</trkpt>
<trkpt lat="31.1899604" lon="-7.8458062">
<ele>2682.32</ele>
</trkpt>
<trkpt lat="31.1904344" lon="-7.8464114">
<ele>2680.976</ele>
</trkpt>
<trkpt lat="31.1909496" lon="-7.8469803">
<ele>2674.15</ele>
</trkpt>
<trkpt lat="31.1914736" lon="-7.8475391">
<ele>2677.211</ele>
</trkpt>
<trkpt lat="31.1920703" lon="-7.8479929">
<ele>2673.776</ele>
</trkpt>
<trkpt lat="31.1927089" lon="-7.8483782">
<ele>2656.225</ele>
</trkpt>
<trkpt lat="31.1930962" lon="-7.8487555">
<ele>2652.889</ele>
</trkpt>
<trkpt lat="31.1931519" lon="-7.8495732">
<ele>2648.452</ele>
</trkpt>
<trkpt lat="31.1933345" lon="-7.8503817">
<ele>2646.989</ele>
</trkpt>
<trkpt lat="31.1934201" lon="-7.8512229">
<ele>2647.617</ele>
</trkpt>
<trkpt lat="31.1937003" lon="-7.8520225">
<ele>2646.636</ele>
</trkpt>
<trkpt lat="31.1940492" lon="-7.8526755">
<ele>2643.478</ele>
</trkpt>
<trkpt lat="31.1942174" lon="-7.8534949">
<ele>2640.894</ele>
</trkpt>
<trkpt lat="31.1944843" lon="-7.8542408">
<ele>2640.267</ele>
</trkpt>
<trkpt lat="31.1948865" lon="-7.8549223">
<ele>2638.185</ele>
</trkpt>
<trkpt lat="31.1952908" lon="-7.8556394">
<ele>2640.261</ele>
</trkpt>
<trkpt lat="31.1958728" lon="-7.8561018">
<ele>2635.919</ele>
</trkpt>
<trkpt lat="31.1964431" lon="-7.8565709">
<ele>2632.11</ele>
</trkpt>
<trkpt lat="31.1969265" lon="-7.8569379">
<ele>2628.341</ele>
</trkpt>
<trkpt lat="31.1972788" lon="-7.8577379">
<ele>2627.262</ele>
</trkpt>
<trkpt lat="31.1975851" lon="-7.8584638">
<ele>2627.898</ele>
</trkpt>
<trkpt lat="31.1981385" lon="-7.8589943">
<ele>2629.317</ele>
</trkpt>
<trkpt lat="31.1988821" lon="-7.8590831">
<ele>2625.154</ele>
</trkpt>
<trkpt lat="31.1996093" lon="-7.8592452">
<ele>2621.804</ele>
</trkpt>
<trkpt lat="31.2003408" lon="-7.8595036">
<ele>2616.436</ele>
</trkpt>
<trkpt lat="31.201021" lon="-7.8597747">
<ele>2610.965</ele>
</trkpt>
<trkpt lat="31.2016978" lon="-7.860038">
<ele>2611.791</ele>
</trkpt>
<trkpt lat="31.2024102" lon="-7.8602834">
<ele>2610.041</ele>
</trkpt>
<trkpt lat="31.2030773" lon="-7.860569">
<ele>2607.201</ele>
</trkpt>
<trkpt lat="31.2035801" lon="-7.8611292">
<ele>2613.023</ele>
</trkpt>
</trkseg>
</trk>
</gpx>
