<?xml version="1.0" encoding="UTF-8"?>
<gpx xmlns="http://www.topografix.com/GPX/1/1" version="1.1" creator="AlpineQuest 2.4.1.r10260" xmlns:xsi="http://www.w3.org/2001/XMLSchema-instance" xsi:schemaLocation="http://www.topografix.com/GPX/1/1 http://www.topografix.com/GPX/1/1/gpx.xsd">
<metadata>
<link href="https://www.alpinequest.net/fr" />
<time>2026-10-08T03:33:30Z</time>
</metadata>
<trk>
<name>Maroc_N'goun</name>
<trkseg>
<trkpt lat="31.3814875" lon="-6.8940021">
<ele>1940.174</ele>
</trkpt>
<trkpt lat="31.3811465" lon="-6.8939114">
<ele>1960.899</ele>
</trkpt>
<trkpt lat="31.3808184" lon="-6.8937764">
<ele>1969.218</ele>
</trkpt>
<trkpt lat="31.3804756" lon="-6.8936925">
<ele>1965.817</ele>
</trkpt>
<trkpt lat="31.3801412" lon="-6.8935612">
<ele>1958.038</ele>
</trkpt>
<trkpt lat="31.3798128" lon="-6.8933949">
<ele>1954.965</ele>
</trkpt>
<trkpt lat="31.379637" lon="-6.8932999">
<ele>1956.507</ele>
</trkpt>
<trkpt lat="31.3792888" lon="-6.8931524">
<ele>1958.632</ele>
</trkpt>
<trkpt lat="31.3789413" lon="-6.8930849">
<ele>1961.479</ele>
</trkpt>
<trkpt lat="31.3785991" lon="-6.8929905">
<ele>1963.444</ele>
</trkpt>
<trkpt lat="31.3782514" lon="-6.8928562">
<ele>1965.193</ele>
</trkpt>
<trkpt lat="31.3779487" lon="-6.8926627">
<ele>1968.726</ele>
</trkpt>
<trkpt lat="31.3776504" lon="-6.8924449">
<ele>1978.372</ele>
</trkpt>
<trkpt lat="31.3773495" lon="-6.892211">
<ele>1991.529</ele>
</trkpt>
<trkpt lat="31.3770558" lon="-6.8919764">
<ele>2001.385</ele>
</trkpt>
<trkpt lat="31.3767494" lon="-6.8917734">
<ele>2006.408</ele>
</trkpt>
<trkpt lat="31.3766844" lon="-6.8917186">
<ele>2007.766</ele>
</trkpt>
<trkpt lat="31.3764212" lon="-6.890894">
<ele>2024.017</ele>
</trkpt>
<trkpt lat="31.3760289" lon="-6.8902303">
<ele>2036.525</ele>
</trkpt>
<trkpt lat="31.3746113" lon="-6.890174">
<ele>2020.457</ele>
</trkpt>
<trkpt lat="31.3733162" lon="-6.8895993">
<ele>2086.154</ele>
</trkpt>
<trkpt lat="31.3720368" lon="-6.8890106">
<ele>2124.83</ele>
</trkpt>
<trkpt lat="31.3707528" lon="-6.8883796">
<ele>2167.296</ele>
</trkpt>
<trkpt lat="31.3693558" lon="-6.8878039">
<ele>2202.648</ele>
</trkpt>
<trkpt lat="31.3679361" lon="-6.8875173">
<ele>2229.424</ele>
</trkpt>
<trkpt lat="31.366563" lon="-6.8874099">
<ele>2232.815</ele>
</trkpt>
<trkpt lat="31.3652466" lon="-6.8874401">
<ele>2228.092</ele>
</trkpt>
<trkpt lat="31.3637359" lon="-6.8874688">
<ele>2208.575</ele>
</trkpt>
<trkpt lat="31.362357" lon="-6.8875759">
<ele>2228.579</ele>
</trkpt>
<trkpt lat="31.3609943" lon="-6.8880245">
<ele>2250.862</ele>
</trkpt>
<trkpt lat="31.3597613" lon="-6.8887363">
<ele>2287.106</ele>
</trkpt>
<trkpt lat="31.3584622" lon="-6.889411">
<ele>2332.839</ele>
</trkpt>
<trkpt lat="31.3570885" lon="-6.8898071">
<ele>2370.026</ele>
</trkpt>
<trkpt lat="31.3557135" lon="-6.8899597">
<ele>2392.722</ele>
</trkpt>
<trkpt lat="31.3542922" lon="-6.889839">
<ele>2433.172</ele>
</trkpt>
<trkpt lat="31.3529196" lon="-6.8897183">
<ele>2478.482</ele>
</trkpt>
<trkpt lat="31.3527521" lon="-6.8896429">
<ele>2479.774</ele>
</trkpt>
<trkpt lat="31.3521122" lon="-6.8893183">
<ele>2487.438</ele>
</trkpt>
<trkpt lat="31.3514826" lon="-6.8889704">
<ele>2505.921</ele>
</trkpt>
<trkpt lat="31.3508293" lon="-6.8886833">
<ele>2531.244</ele>
</trkpt>
<trkpt lat="31.3501177" lon="-6.8887499">
<ele>2585.296</ele>
</trkpt>
<trkpt lat="31.3494314" lon="-6.8889841">
<ele>2646.677</ele>
</trkpt>
<trkpt lat="31.3487737" lon="-6.8892712">
<ele>2693.571</ele>
</trkpt>
<trkpt lat="31.348092" lon="-6.8893924">
<ele>2725.602</ele>
</trkpt>
<trkpt lat="31.3473944" lon="-6.8892131">
<ele>2741.522</ele>
</trkpt>
<trkpt lat="31.3472654" lon="-6.8890981">
<ele>2748.328</ele>
</trkpt>
<trkpt lat="31.3467904" lon="-6.8885163">
<ele>2753.894</ele>
</trkpt>
<trkpt lat="31.3463298" lon="-6.8878995">
<ele>2735.559</ele>
</trkpt>
<trkpt lat="31.345829" lon="-6.8873422">
<ele>2736.496</ele>
</trkpt>
<trkpt lat="31.3453113" lon="-6.8867905">
<ele>2712.777</ele>
</trkpt>
<trkpt lat="31.3448234" lon="-6.8861858">
<ele>2685.555</ele>
</trkpt>
<trkpt lat="31.3443352" lon="-6.8855911">
<ele>2662.395</ele>
</trkpt>
<trkpt lat="31.3438628" lon="-6.8849545">
<ele>2642.312</ele>
</trkpt>
<trkpt lat="31.3433703" lon="-6.8843612">
<ele>2634.707</ele>
</trkpt>
<trkpt lat="31.3429933" lon="-6.8836685">
<ele>2614.131</ele>
</trkpt>
<trkpt lat="31.342964" lon="-6.8828435">
<ele>2584.375</ele>
</trkpt>
<trkpt lat="31.343213" lon="-6.8820689">
<ele>2545.257</ele>
</trkpt>
<trkpt lat="31.3435334" lon="-6.8813444">
<ele>2510.165</ele>
</trkpt>
<trkpt lat="31.3440782" lon="-6.880822">
<ele>2478.558</ele>
</trkpt>
<trkpt lat="31.3445668" lon="-6.8802493">
<ele>2447.708</ele>
</trkpt>
<trkpt lat="31.345138" lon="-6.8797199">
<ele>2420.467</ele>
</trkpt>
<trkpt lat="31.3457656" lon="-6.8793813">
<ele>2389.394</ele>
</trkpt>
<trkpt lat="31.3463672" lon="-6.8789597">
<ele>2351.076</ele>
</trkpt>
<trkpt lat="31.3469538" lon="-6.878469">
<ele>2307.436</ele>
</trkpt>
<trkpt lat="31.347385" lon="-6.8778391">
<ele>2270.62</ele>
</trkpt>
<trkpt lat="31.3476249" lon="-6.8770609">
<ele>2260.154</ele>
</trkpt>
<trkpt lat="31.3475438" lon="-6.876197">
<ele>2246.976</ele>
</trkpt>
<trkpt lat="31.3476124" lon="-6.8753554">
<ele>2236.321</ele>
</trkpt>
<trkpt lat="31.3477921" lon="-6.8745756">
<ele>2233.774</ele>
</trkpt>
<trkpt lat="31.3477938" lon="-6.8745737">
<ele>2233.931</ele>
</trkpt>
<trkpt lat="31.3473372" lon="-6.8739197">
<ele>2216.154</ele>
</trkpt>
<trkpt lat="31.3469118" lon="-6.8732718">
<ele>2215.02</ele>
</trkpt>
<trkpt lat="31.3466466" lon="-6.8724969">
<ele>2205.064</ele>
</trkpt>
<trkpt lat="31.3469377" lon="-6.8717641">
<ele>2232.422</ele>
</trkpt>
<trkpt lat="31.3475227" lon="-6.8713412">
<ele>2242.474</ele>
</trkpt>
<trkpt lat="31.348189" lon="-6.8711433">
<ele>2252.394</ele>
</trkpt>
<trkpt lat="31.3488753" lon="-6.8712482">
<ele>2259.711</ele>
</trkpt>
<trkpt lat="31.3496158" lon="-6.8714594">
<ele>2270.579</ele>
</trkpt>
<trkpt lat="31.3503116" lon="-6.8715275">
<ele>2294.412</ele>
</trkpt>
<trkpt lat="31.3510202" lon="-6.8716235">
<ele>2315.157</ele>
</trkpt>
<trkpt lat="31.3514902" lon="-6.8717769">
<ele>2327.682</ele>
</trkpt>
<trkpt lat="31.3520509" lon="-6.8712727">
<ele>2330.899</ele>
</trkpt>
<trkpt lat="31.3527099" lon="-6.8710281">
<ele>2351.966</ele>
</trkpt>
<trkpt lat="31.3533663" lon="-6.8707493">
<ele>2387.668</ele>
</trkpt>
<trkpt lat="31.3540635" lon="-6.8704635">
<ele>2431.884</ele>
</trkpt>
<trkpt lat="31.3546769" lon="-6.8700874">
<ele>2443.396</ele>
</trkpt>
<trkpt lat="31.355276" lon="-6.8695836">
<ele>2416.612</ele>
</trkpt>
<trkpt lat="31.3558519" lon="-6.8691129">
<ele>2396.042</ele>
</trkpt>
<trkpt lat="31.3564789" lon="-6.8687507">
<ele>2384.926</ele>
</trkpt>
<trkpt lat="31.3571606" lon="-6.8684413">
<ele>2366.78</ele>
</trkpt>
<trkpt lat="31.3578442" lon="-6.8683269">
<ele>2345.934</ele>
</trkpt>
<trkpt lat="31.3585397" lon="-6.8683269">
<ele>2313.495</ele>
</trkpt>
<trkpt lat="31.3592542" lon="-6.868342">
<ele>2296.527</ele>
</trkpt>
<trkpt lat="31.3599752" lon="-6.8683541">
<ele>2260.443</ele>
</trkpt>
<trkpt lat="31.3606651" lon="-6.8685071">
<ele>2236.689</ele>
</trkpt>
<trkpt lat="31.3613879" lon="-6.8685466">
<ele>2221.098</ele>
</trkpt>
<trkpt lat="31.3621136" lon="-6.8684552">
<ele>2217.227</ele>
</trkpt>
<trkpt lat="31.3626782" lon="-6.8683948">
<ele>2206.863</ele>
</trkpt>
<trkpt lat="31.3633281" lon="-6.8679526">
<ele>2223.241</ele>
</trkpt>
<trkpt lat="31.3639775" lon="-6.8675267">
<ele>2224.317</ele>
</trkpt>
<trkpt lat="31.3646289" lon="-6.8670912">
<ele>2202.056</ele>
</trkpt>
<trkpt lat="31.3652765" lon="-6.8667318">
<ele>2183.49</ele>
</trkpt>
<trkpt lat="31.3659042" lon="-6.8663271">
<ele>2183.022</ele>
</trkpt>
<trkpt lat="31.3665209" lon="-6.8658571">
<ele>2146.599</ele>
</trkpt>
<trkpt lat="31.3670236" lon="-6.8652994">
<ele>2136.414</ele>
</trkpt>
<trkpt lat="31.3675117" lon="-6.8646732">
<ele>2127.721</ele>
</trkpt>
<trkpt lat="31.3680387" lon="-6.863999">
<ele>2112.835</ele>
</trkpt>
<trkpt lat="31.3684727" lon="-6.8633409">
<ele>2112.345</ele>
</trkpt>
<trkpt lat="31.3689453" lon="-6.8627077">
<ele>2093.132</ele>
</trkpt>
<trkpt lat="31.3694591" lon="-6.8621664">
<ele>2107.783</ele>
</trkpt>
<trkpt lat="31.3699706" lon="-6.8616755">
<ele>2118.547</ele>
</trkpt>
<trkpt lat="31.3706174" lon="-6.8612618">
<ele>2115.998</ele>
</trkpt>
<trkpt lat="31.3713034" lon="-6.8608986">
<ele>2109.901</ele>
</trkpt>
<trkpt lat="31.372014" lon="-6.860584">
<ele>2084.302</ele>
</trkpt>
<trkpt lat="31.3726585" lon="-6.8602106">
<ele>2069.883</ele>
</trkpt>
<trkpt lat="31.3733149" lon="-6.8598118">
<ele>2061.615</ele>
</trkpt>
<trkpt lat="31.3738699" lon="-6.8593257">
<ele>2057.107</ele>
</trkpt>
<trkpt lat="31.3743083" lon="-6.8586651">
<ele>2055.0</ele>
</trkpt>
<trkpt lat="31.3746564" lon="-6.8579648">
<ele>2056.31</ele>
</trkpt>
<trkpt lat="31.3749785" lon="-6.8572253">
<ele>2053.959</ele>
</trkpt>
<trkpt lat="31.3753567" lon="-6.8565499">
<ele>2040.653</ele>
</trkpt>
<trkpt lat="31.3753846" lon="-6.8565047">
<ele>2039.975</ele>
</trkpt>
<trkpt lat="31.3756504" lon="-6.8562092">
<ele>2033.055</ele>
</trkpt>
<trkpt lat="31.375914" lon="-6.855939">
<ele>2028.822</ele>
</trkpt>
<trkpt lat="31.3762068" lon="-6.8556822">
<ele>2032.285</ele>
</trkpt>
<trkpt lat="31.3765225" lon="-6.8554729">
<ele>2038.638</ele>
</trkpt>
<trkpt lat="31.3768632" lon="-6.8553261">
<ele>2039.471</ele>
</trkpt>
<trkpt lat="31.377212" lon="-6.8552091">
<ele>2038.267</ele>
</trkpt>
<trkpt lat="31.3775529" lon="-6.8551261">
<ele>2031.502</ele>
</trkpt>
<trkpt lat="31.3778937" lon="-6.8550696">
<ele>2026.104</ele>
</trkpt>
<trkpt lat="31.3780672" lon="-6.8551198">
<ele>2025.63</ele>
</trkpt>
<trkpt lat="31.3782397" lon="-6.8551828">
<ele>2027.612</ele>
</trkpt>
<trkpt lat="31.3784212" lon="-6.8552207">
<ele>2028.265</ele>
</trkpt>
<trkpt lat="31.3786025" lon="-6.8552451">
<ele>2027.584</ele>
</trkpt>
<trkpt lat="31.3787887" lon="-6.8552438">
<ele>2028.15</ele>
</trkpt>
<trkpt lat="31.3789653" lon="-6.8551965">
<ele>2028.494</ele>
</trkpt>
<trkpt lat="31.3791469" lon="-6.8551683">
<ele>2029.478</ele>
</trkpt>
<trkpt lat="31.3793209" lon="-6.8551661">
<ele>2028.924</ele>
</trkpt>
<trkpt lat="31.3794926" lon="-6.8551905">
<ele>2028.342</ele>
</trkpt>
<trkpt lat="31.379667" lon="-6.8552262">
<ele>2027.506</ele>
</trkpt>
<trkpt lat="31.379841" lon="-6.8552507">
<ele>2028.201</ele>
</trkpt>
<trkpt lat="31.380013" lon="-6.8552718">
<ele>2029.809</ele>
</trkpt>
<trkpt lat="31.3800165" lon="-6.8552718">
<ele>2029.81</ele>
</trkpt>
</trkseg>
<trkseg>
<trkpt lat="31.3800302" lon="-6.8550393">
<ele>2022.553</ele>
</trkpt>
<trkpt lat="31.3786334" lon="-6.8553407">
<ele>2029.666</ele>
</trkpt>
<trkpt lat="31.3772993" lon="-6.855838">
<ele>2041.141</ele>
</trkpt>
<trkpt lat="31.3759225" lon="-6.8559905">
<ele>2029.292</ele>
</trkpt>
<trkpt lat="31.3745347" lon="-6.8557964">
<ele>2072.096</ele>
</trkpt>
<trkpt lat="31.3740526" lon="-6.8557793">
<ele>2101.174</ele>
</trkpt>
<trkpt lat="31.3733276" lon="-6.8557727">
<ele>2140.15</ele>
</trkpt>
<trkpt lat="31.3726299" lon="-6.8556973">
<ele>2172.086</ele>
</trkpt>
<trkpt lat="31.3719998" lon="-6.8553429">
<ele>2177.779</ele>
</trkpt>
<trkpt lat="31.3714138" lon="-6.8549125">
<ele>2206.375</ele>
</trkpt>
<trkpt lat="31.3708708" lon="-6.8543887">
<ele>2224.519</ele>
</trkpt>
<trkpt lat="31.3702837" lon="-6.85394">
<ele>2224.681</ele>
</trkpt>
<trkpt lat="31.3697831" lon="-6.8533614">
<ele>2251.722</ele>
</trkpt>
<trkpt lat="31.3693071" lon="-6.8527732">
<ele>2266.141</ele>
</trkpt>
<trkpt lat="31.3688736" lon="-6.8521306">
<ele>2282.301</ele>
</trkpt>
<trkpt lat="31.368388" lon="-6.8515306">
<ele>2282.509</ele>
</trkpt>
<trkpt lat="31.3680489" lon="-6.8511402">
<ele>2298.765</ele>
</trkpt>
<trkpt lat="31.3677715" lon="-6.8503083">
<ele>2318.45</ele>
</trkpt>
<trkpt lat="31.3673242" lon="-6.8496637">
<ele>2337.045</ele>
</trkpt>
<trkpt lat="31.3668381" lon="-6.8490307">
<ele>2351.659</ele>
</trkpt>
<trkpt lat="31.3662092" lon="-6.8485466">
<ele>2372.258</ele>
</trkpt>
<trkpt lat="31.3655939" lon="-6.8481316">
<ele>2372.524</ele>
</trkpt>
<trkpt lat="31.3654102" lon="-6.8479714">
<ele>2374.501</ele>
</trkpt>
<trkpt lat="31.36505" lon="-6.8463861">
<ele>2353.563</ele>
</trkpt>
<trkpt lat="31.3650184" lon="-6.8462613">
<ele>2350.254</ele>
</trkpt>
<trkpt lat="31.3645464" lon="-6.8447026">
<ele>2338.32</ele>
</trkpt>
<trkpt lat="31.3637928" lon="-6.8432996">
<ele>2348.908</ele>
</trkpt>
<trkpt lat="31.3632599" lon="-6.8422241">
<ele>2376.14</ele>
</trkpt>
<trkpt lat="31.3629528" lon="-6.8406535">
<ele>2380.78</ele>
</trkpt>
<trkpt lat="31.3626458" lon="-6.8390014">
<ele>2406.638</ele>
</trkpt>
<trkpt lat="31.3626737" lon="-6.8373808">
<ele>2423.219</ele>
</trkpt>
<trkpt lat="31.3623387" lon="-6.8358177">
<ele>2450.717</ele>
</trkpt>
<trkpt lat="31.3619759" lon="-6.8342439">
<ele>2474.626</ele>
</trkpt>
<trkpt lat="31.36192" lon="-6.8341195">
<ele>2474.624</ele>
</trkpt>
<trkpt lat="31.3606921" lon="-6.8333522">
<ele>2512.319</ele>
</trkpt>
<trkpt lat="31.3599096" lon="-6.8320251">
<ele>2512.27</ele>
</trkpt>
<trkpt lat="31.3590987" lon="-6.8306786">
<ele>2519.252</ele>
</trkpt>
<trkpt lat="31.3576796" lon="-6.8302832">
<ele>2534.261</ele>
</trkpt>
<trkpt lat="31.3570497" lon="-6.8303667">
<ele>2569.093</ele>
</trkpt>
<trkpt lat="31.3557168" lon="-6.8296957">
<ele>2597.797</ele>
</trkpt>
<trkpt lat="31.3543415" lon="-6.8293776">
<ele>2580.165</ele>
</trkpt>
<trkpt lat="31.3529261" lon="-6.8293159">
<ele>2619.361</ele>
</trkpt>
<trkpt lat="31.3515501" lon="-6.8294804">
<ele>2609.094</ele>
</trkpt>
<trkpt lat="31.3501573" lon="-6.8297685">
<ele>2625.358</ele>
</trkpt>
<trkpt lat="31.348758" lon="-6.8297836">
<ele>2693.191</ele>
</trkpt>
<trkpt lat="31.3473916" lon="-6.829512">
<ele>2763.217</ele>
</trkpt>
<trkpt lat="31.345995" lon="-6.8293309">
<ele>2833.515</ele>
</trkpt>
<trkpt lat="31.3450689" lon="-6.8281297">
<ele>2825.821</ele>
</trkpt>
<trkpt lat="31.3457065" lon="-6.8266672">
<ele>2774.847</ele>
</trkpt>
<trkpt lat="31.346662" lon="-6.8254398">
<ele>2719.224</ele>
</trkpt>
<trkpt lat="31.3470807" lon="-6.8238726">
<ele>2664.571</ele>
</trkpt>
<trkpt lat="31.3472762" lon="-6.8222717">
<ele>2665.513</ele>
</trkpt>
<trkpt lat="31.3480277" lon="-6.8209158">
<ele>2720.436</ele>
</trkpt>
<trkpt lat="31.3492025" lon="-6.8200673">
<ele>2773.794</ele>
</trkpt>
<trkpt lat="31.3505964" lon="-6.8201719">
<ele>2814.554</ele>
</trkpt>
<trkpt lat="31.3518799" lon="-6.8194967">
<ele>2781.235</ele>
</trkpt>
<trkpt lat="31.3526334" lon="-6.8181225">
<ele>2709.496</ele>
</trkpt>
<trkpt lat="31.3529681" lon="-6.8165588">
<ele>2677.334</ele>
</trkpt>
<trkpt lat="31.3530829" lon="-6.814939">
<ele>2649.369</ele>
</trkpt>
<trkpt lat="31.3530271" lon="-6.8133243">
<ele>2632.347</ele>
</trkpt>
<trkpt lat="31.3533062" lon="-6.8128254">
<ele>2607.037</ele>
</trkpt>
<trkpt lat="31.3540042" lon="-6.8128631">
<ele>2594.755</ele>
</trkpt>
<trkpt lat="31.3546891" lon="-6.812758">
<ele>2594.635</ele>
</trkpt>
<trkpt lat="31.3554134" lon="-6.8126446">
<ele>2590.18</ele>
</trkpt>
<trkpt lat="31.3561122" lon="-6.8126368">
<ele>2586.508</ele>
</trkpt>
<trkpt lat="31.356808" lon="-6.8125689">
<ele>2550.402</ele>
</trkpt>
<trkpt lat="31.3575194" lon="-6.8125613">
<ele>2508.984</ele>
</trkpt>
<trkpt lat="31.3582462" lon="-6.8126212">
<ele>2452.236</ele>
</trkpt>
<trkpt lat="31.3586679" lon="-6.8126443">
<ele>2440.323</ele>
</trkpt>
<trkpt lat="31.3592558" lon="-6.813084">
<ele>2407.29</ele>
</trkpt>
<trkpt lat="31.3599252" lon="-6.8133351">
<ele>2388.058</ele>
</trkpt>
<trkpt lat="31.3606227" lon="-6.8133351">
<ele>2368.72</ele>
</trkpt>
<trkpt lat="31.3613584" lon="-6.8133351">
<ele>2322.88</ele>
</trkpt>
<trkpt lat="31.3620548" lon="-6.8132313">
<ele>2303.131</ele>
</trkpt>
<trkpt lat="31.3627428" lon="-6.8130744">
<ele>2296.791</ele>
</trkpt>
<trkpt lat="31.3632932" lon="-6.8127693">
<ele>2284.333</ele>
</trkpt>
<trkpt lat="31.36394" lon="-6.8124965">
<ele>2252.6</ele>
</trkpt>
<trkpt lat="31.3645841" lon="-6.8122011">
<ele>2243.606</ele>
</trkpt>
<trkpt lat="31.3652913" lon="-6.8118415">
<ele>2237.288</ele>
</trkpt>
<trkpt lat="31.3659752" lon="-6.8114568">
<ele>2226.153</ele>
</trkpt>
<trkpt lat="31.3666195" lon="-6.8110796">
<ele>2208.374</ele>
</trkpt>
<trkpt lat="31.3671913" lon="-6.8104946">
<ele>2199.13</ele>
</trkpt>
<trkpt lat="31.3676953" lon="-6.8098954">
<ele>2187.241</ele>
</trkpt>
<trkpt lat="31.3681848" lon="-6.8092847">
<ele>2203.078</ele>
</trkpt>
<trkpt lat="31.3686583" lon="-6.8086507">
<ele>2184.242</ele>
</trkpt>
<trkpt lat="31.3689952" lon="-6.8079049">
<ele>2164.571</ele>
</trkpt>
<trkpt lat="31.3690943" lon="-6.8071022">
<ele>2157.279</ele>
</trkpt>
<trkpt lat="31.3691785" lon="-6.8068511">
<ele>2159.168</ele>
</trkpt>
<trkpt lat="31.369708" lon="-6.8062707">
<ele>2159.105</ele>
</trkpt>
<trkpt lat="31.370239" lon="-6.805741">
<ele>2149.281</ele>
</trkpt>
<trkpt lat="31.3707256" lon="-6.8051494">
<ele>2137.97</ele>
</trkpt>
<trkpt lat="31.3712166" lon="-6.8045791">
<ele>2131.643</ele>
</trkpt>
<trkpt lat="31.3716773" lon="-6.8039458">
<ele>2125.517</ele>
</trkpt>
<trkpt lat="31.3720192" lon="-6.8032335">
<ele>2123.627</ele>
</trkpt>
<trkpt lat="31.3722495" lon="-6.8024258">
<ele>2120.565</ele>
</trkpt>
<trkpt lat="31.372527" lon="-6.801664">
<ele>2114.608</ele>
</trkpt>
<trkpt lat="31.3729198" lon="-6.8008154">
<ele>2120.221</ele>
</trkpt>
<trkpt lat="31.3732494" lon="-6.8001029">
<ele>2114.317</ele>
</trkpt>
<trkpt lat="31.3734292" lon="-6.7997141">
<ele>2113.722</ele>
</trkpt>
<trkpt lat="31.3743778" lon="-6.7984604">
<ele>2112.112</ele>
</trkpt>
<trkpt lat="31.3753296" lon="-6.7971908">
<ele>2114.832</ele>
</trkpt>
<trkpt lat="31.3756678" lon="-6.7967346">
<ele>2115.045</ele>
</trkpt>
<trkpt lat="31.3763397" lon="-6.796514">
<ele>2120.01</ele>
</trkpt>
<trkpt lat="31.377035" lon="-6.7963933">
<ele>2123.107</ele>
</trkpt>
<trkpt lat="31.3777201" lon="-6.7964763">
<ele>2119.672</ele>
</trkpt>
<trkpt lat="31.3784202" lon="-6.7963631">
<ele>2129.851</ele>
</trkpt>
<trkpt lat="31.3790636" lon="-6.7960293">
<ele>2128.347</ele>
</trkpt>
<trkpt lat="31.3797725" lon="-6.7959159">
<ele>2135.671</ele>
</trkpt>
<trkpt lat="31.3804539" lon="-6.7957887">
<ele>2146.314</ele>
</trkpt>
<trkpt lat="31.3811439" lon="-6.7956962">
<ele>2139.852</ele>
</trkpt>
<trkpt lat="31.3818274" lon="-6.7955084">
<ele>2136.47</ele>
</trkpt>
<trkpt lat="31.3825095" lon="-6.7952746">
<ele>2133.022</ele>
</trkpt>
<trkpt lat="31.3831804" lon="-6.7954614">
<ele>2145.618</ele>
</trkpt>
<trkpt lat="31.3839158" lon="-6.795568">
<ele>2133.943</ele>
</trkpt>
<trkpt lat="31.3845755" lon="-6.7952781">
<ele>2111.717</ele>
</trkpt>
<trkpt lat="31.3851187" lon="-6.7947096">
<ele>2092.203</ele>
</trkpt>
<trkpt lat="31.3856632" lon="-6.7941446">
<ele>2084.844</ele>
</trkpt>
<trkpt lat="31.3862371" lon="-6.7936302">
<ele>2079.442</ele>
</trkpt>
<trkpt lat="31.386238" lon="-6.7936292">
<ele>2079.385</ele>
</trkpt>
<trkpt lat="31.3869443" lon="-6.7936292">
<ele>2053.526</ele>
</trkpt>
<trkpt lat="31.3876843" lon="-6.7935318">
<ele>2021.038</ele>
</trkpt>
<trkpt lat="31.3884092" lon="-6.7934029">
<ele>1982.571</ele>
</trkpt>
<trkpt lat="31.3891195" lon="-6.7933509">
<ele>1969.202</ele>
</trkpt>
<trkpt lat="31.3897919" lon="-6.7931775">
<ele>1953.677</ele>
</trkpt>
<trkpt lat="31.3903643" lon="-6.7927116">
<ele>1950.786</ele>
</trkpt>
<trkpt lat="31.3907134" lon="-6.7919878">
<ele>1947.985</ele>
</trkpt>
<trkpt lat="31.3907841" lon="-6.791186">
<ele>1971.026</ele>
</trkpt>
<trkpt lat="31.3907841" lon="-6.7911851">
<ele>1971.055</ele>
</trkpt>
</trkseg>
<trkseg>
<trkpt lat="31.3900977" lon="-6.7910667">
<ele>1958.014</ele>
</trkpt>
<trkpt lat="31.3902655" lon="-6.7902348">
<ele>1973.981</ele>
</trkpt>
<trkpt lat="31.3905719" lon="-6.7894941">
<ele>2009.865</ele>
</trkpt>
<trkpt lat="31.3911445" lon="-6.7890325">
<ele>2043.864</ele>
</trkpt>
<trkpt lat="31.3917269" lon="-6.788515">
<ele>2079.139</ele>
</trkpt>
<trkpt lat="31.3921209" lon="-6.7878484">
<ele>2103.534</ele>
</trkpt>
<trkpt lat="31.3925399" lon="-6.7871705">
<ele>2132.309</ele>
</trkpt>
<trkpt lat="31.3927066" lon="-6.7863821">
<ele>2133.931</ele>
</trkpt>
<trkpt lat="31.3928326" lon="-6.7855776">
<ele>2117.314</ele>
</trkpt>
<trkpt lat="31.3932782" lon="-6.7849595">
<ele>2143.171</ele>
</trkpt>
<trkpt lat="31.3936849" lon="-6.7842901">
<ele>2165.002</ele>
</trkpt>
<trkpt lat="31.3938105" lon="-6.78348">
<ele>2169.168</ele>
</trkpt>
<trkpt lat="31.3934787" lon="-6.7827508">
<ele>2170.77</ele>
</trkpt>
<trkpt lat="31.3929175" lon="-6.7822801">
<ele>2154.036</ele>
</trkpt>
<trkpt lat="31.3924997" lon="-6.7816325">
<ele>2182.967</ele>
</trkpt>
<trkpt lat="31.3922478" lon="-6.7808641">
<ele>2216.133</ele>
</trkpt>
<trkpt lat="31.3919692" lon="-6.7800762">
<ele>2231.929</ele>
</trkpt>
<trkpt lat="31.3916617" lon="-6.7793285">
<ele>2236.512</ele>
</trkpt>
<trkpt lat="31.3915354" lon="-6.7785302">
<ele>2241.939</ele>
</trkpt>
<trkpt lat="31.3914936" lon="-6.7776788">
<ele>2249.589</ele>
</trkpt>
<trkpt lat="31.3917156" lon="-6.7768704">
<ele>2266.839</ele>
</trkpt>
<trkpt lat="31.3921328" lon="-6.7762311">
<ele>2280.694</ele>
</trkpt>
<trkpt lat="31.39254" lon="-6.7755721">
<ele>2291.831</ele>
</trkpt>
<trkpt lat="31.3927493" lon="-6.7747882">
<ele>2289.172</ele>
</trkpt>
<trkpt lat="31.3929295" lon="-6.7740047">
<ele>2300.173</ele>
</trkpt>
<trkpt lat="31.3930981" lon="-6.7731886">
<ele>2311.126</ele>
</trkpt>
<trkpt lat="31.3930562" lon="-6.7723611">
<ele>2313.512</ele>
</trkpt>
<trkpt lat="31.3930562" lon="-6.7720325">
<ele>2311.651</ele>
</trkpt>
<trkpt lat="31.3929434" lon="-6.7711936">
<ele>2320.033</ele>
</trkpt>
<trkpt lat="31.3927498" lon="-6.7704182">
<ele>2323.3</ele>
</trkpt>
<trkpt lat="31.3925822" lon="-6.7695959">
<ele>2300.189</ele>
</trkpt>
<trkpt lat="31.392317" lon="-6.7688179">
<ele>2297.297</ele>
</trkpt>
<trkpt lat="31.3921915" lon="-6.7679813">
<ele>2294.603</ele>
</trkpt>
<trkpt lat="31.3920365" lon="-6.7672205">
<ele>2298.703</ele>
</trkpt>
<trkpt lat="31.3921202" lon="-6.7660088">
<ele>2323.209</ele>
</trkpt>
<trkpt lat="31.3923739" lon="-6.7643769">
<ele>2334.032</ele>
</trkpt>
<trkpt lat="31.3924018" lon="-6.7631614">
<ele>2369.706</ele>
</trkpt>
<trkpt lat="31.3920382" lon="-6.7624711">
<ele>2394.632</ele>
</trkpt>
<trkpt lat="31.3917718" lon="-6.7616989">
<ele>2421.09</ele>
</trkpt>
<trkpt lat="31.3916188" lon="-6.7609079">
<ele>2455.829</ele>
</trkpt>
<trkpt lat="31.3915585" lon="-6.7600636">
<ele>2481.875</ele>
</trkpt>
<trkpt lat="31.391854" lon="-6.7593229">
<ele>2492.95</ele>
</trkpt>
<trkpt lat="31.3917285" lon="-6.7584916">
<ele>2515.753</ele>
</trkpt>
<trkpt lat="31.3920773" lon="-6.7577895">
<ele>2533.307</ele>
</trkpt>
<trkpt lat="31.3925643" lon="-6.7572093">
<ele>2562.745</ele>
</trkpt>
<trkpt lat="31.3928152" lon="-6.7564562">
<ele>2566.247</ele>
</trkpt>
<trkpt lat="31.3930097" lon="-6.755667">
<ele>2571.612</ele>
</trkpt>
<trkpt lat="31.393026" lon="-6.7548545">
<ele>2590.266</ele>
</trkpt>
<trkpt lat="31.3930121" lon="-6.7540057">
<ele>2589.393</ele>
</trkpt>
<trkpt lat="31.3930121" lon="-6.7531719">
<ele>2588.021</ele>
</trkpt>
<trkpt lat="31.3929423" lon="-6.7523581">
<ele>2592.844</ele>
</trkpt>
<trkpt lat="31.3928725" lon="-6.7515352">
<ele>2590.589</ele>
</trkpt>
<trkpt lat="31.3927623" lon="-6.7506442">
<ele>2608.44</ele>
</trkpt>
<trkpt lat="31.3926912" lon="-6.7498435">
<ele>2609.363</ele>
</trkpt>
<trkpt lat="31.3926214" lon="-6.7493138">
<ele>2603.715</ele>
</trkpt>
<trkpt lat="31.3928453" lon="-6.7485305">
<ele>2615.96</ele>
</trkpt>
<trkpt lat="31.3928466" lon="-6.7476914">
<ele>2618.431</ele>
</trkpt>
<trkpt lat="31.3928326" lon="-6.7468664">
<ele>2620.91</ele>
</trkpt>
<trkpt lat="31.3928326" lon="-6.7460218">
<ele>2636.705</ele>
</trkpt>
<trkpt lat="31.3928866" lon="-6.7452143">
<ele>2660.873</ele>
</trkpt>
<trkpt lat="31.393028" lon="-6.7446541">
<ele>2685.801</ele>
</trkpt>
<trkpt lat="31.3931535" lon="-6.743848">
<ele>2700.263</ele>
</trkpt>
<trkpt lat="31.3933059" lon="-6.7430614">
<ele>2712.737</ele>
</trkpt>
<trkpt lat="31.3936254" lon="-6.7423148">
<ele>2736.701</ele>
</trkpt>
<trkpt lat="31.3938372" lon="-6.7415074">
<ele>2742.534</ele>
</trkpt>
<trkpt lat="31.3939488" lon="-6.7406851">
<ele>2765.616</ele>
</trkpt>
<trkpt lat="31.394186" lon="-6.739907">
<ele>2801.414</ele>
</trkpt>
<trkpt lat="31.3941181" lon="-6.7390888">
<ele>2833.027</ele>
</trkpt>
<trkpt lat="31.3940325" lon="-6.7387508">
<ele>2842.833</ele>
</trkpt>
<trkpt lat="31.3941224" lon="-6.7378895">
<ele>2866.034</ele>
</trkpt>
<trkpt lat="31.3939002" lon="-6.7371206">
<ele>2885.045</ele>
</trkpt>
<trkpt lat="31.3934956" lon="-6.736417">
<ele>2905.796</ele>
</trkpt>
<trkpt lat="31.3929831" lon="-6.735825">
<ele>2942.03</ele>
</trkpt>
<trkpt lat="31.392545" lon="-6.7352016">
<ele>2963.046</ele>
</trkpt>
<trkpt lat="31.39249" lon="-6.7343864">
<ele>2996.88</ele>
</trkpt>
<trkpt lat="31.3924055" lon="-6.7338491">
<ele>3009.733</ele>
</trkpt>
<trkpt lat="31.3921697" lon="-6.7330911">
<ele>3034.593</ele>
</trkpt>
<trkpt lat="31.3920148" lon="-6.7323068">
<ele>3068.522</ele>
</trkpt>
<trkpt lat="31.3920675" lon="-6.7314878">
<ele>3074.107</ele>
</trkpt>
<trkpt lat="31.3920846" lon="-6.7314534">
<ele>3073.527</ele>
</trkpt>
<trkpt lat="31.392706" lon="-6.7310951">
<ele>3060.855</ele>
</trkpt>
<trkpt lat="31.3933167" lon="-6.7306839">
<ele>3036.095</ele>
</trkpt>
<trkpt lat="31.393739" lon="-6.7300401">
<ele>3007.153</ele>
</trkpt>
<trkpt lat="31.3941008" lon="-6.7293533">
<ele>2986.691</ele>
</trkpt>
<trkpt lat="31.3942273" lon="-6.728613">
<ele>2982.221</ele>
</trkpt>
<trkpt lat="31.3937571" lon="-6.7270754">
<ele>2952.595</ele>
</trkpt>
<trkpt lat="31.3936134" lon="-6.7254741">
<ele>2969.185</ele>
</trkpt>
<trkpt lat="31.393753" lon="-6.723856">
<ele>3003.113</ele>
</trkpt>
<trkpt lat="31.3939204" lon="-6.7222449">
<ele>3070.015</ele>
</trkpt>
<trkpt lat="31.3942528" lon="-6.720659">
<ele>3122.829</ele>
</trkpt>
<trkpt lat="31.3952556" lon="-6.7195132">
<ele>3097.038</ele>
</trkpt>
<trkpt lat="31.3962602" lon="-6.7183352">
<ele>3150.983</ele>
</trkpt>
<trkpt lat="31.3970176" lon="-6.7169312">
<ele>3169.999</ele>
</trkpt>
<trkpt lat="31.3979925" lon="-6.7157238">
<ele>3114.649</ele>
</trkpt>
<trkpt lat="31.3988852" lon="-6.7144716">
<ele>3144.949</ele>
</trkpt>
<trkpt lat="31.3988592" lon="-6.7128454">
<ele>3163.788</ele>
</trkpt>
<trkpt lat="31.3985237" lon="-6.7112834">
<ele>3202.12</ele>
</trkpt>
<trkpt lat="31.3981057" lon="-6.709733">
<ele>3204.429</ele>
</trkpt>
<trkpt lat="31.3979917" lon="-6.7080887">
<ele>3233.854</ele>
</trkpt>
<trkpt lat="31.3981033" lon="-6.7064582">
<ele>3237.627</ele>
</trkpt>
<trkpt lat="31.3979638" lon="-6.7048264">
<ele>3253.785</ele>
</trkpt>
<trkpt lat="31.3979359" lon="-6.7041743">
<ele>3254.819</ele>
</trkpt>
<trkpt lat="31.3990435" lon="-6.7031119">
<ele>3228.095</ele>
</trkpt>
<trkpt lat="31.4003593" lon="-6.7025905">
<ele>3184.731</ele>
</trkpt>
<trkpt lat="31.4016397" lon="-6.7018565">
<ele>3193.998</ele>
</trkpt>
<trkpt lat="31.4029282" lon="-6.7011882">
<ele>3197.833</ele>
</trkpt>
<trkpt lat="31.4036866" lon="-6.699844">
<ele>3189.329</ele>
</trkpt>
<trkpt lat="31.4045755" lon="-6.6984759">
<ele>3167.606</ele>
</trkpt>
<trkpt lat="31.4054966" lon="-6.6972533">
<ele>3131.743</ele>
</trkpt>
<trkpt lat="31.406363" lon="-6.695893">
<ele>3066.505</ele>
</trkpt>
<trkpt lat="31.4071718" lon="-6.694581">
<ele>3059.126</ele>
</trkpt>
<trkpt lat="31.4082592" lon="-6.6935663">
<ele>3048.213</ele>
</trkpt>
<trkpt lat="31.4094874" lon="-6.6928132">
<ele>3030.155</ele>
</trkpt>
<trkpt lat="31.4103826" lon="-6.6915459">
<ele>3013.385</ele>
</trkpt>
<trkpt lat="31.4111637" lon="-6.6902044">
<ele>2981.08</ele>
</trkpt>
<trkpt lat="31.4119449" lon="-6.6894776">
<ele>2945.341</ele>
</trkpt>
<trkpt lat="31.4126185" lon="-6.6891353">
<ele>2904.212</ele>
</trkpt>
<trkpt lat="31.4132172" lon="-6.6886924">
<ele>2867.069</ele>
</trkpt>
<trkpt lat="31.4138323" lon="-6.6882899">
<ele>2844.463</ele>
</trkpt>
<trkpt lat="31.4145303" lon="-6.6883191">
<ele>2803.847</ele>
</trkpt>
<trkpt lat="31.415239" lon="-6.6884253">
<ele>2742.08</ele>
</trkpt>
<trkpt lat="31.4159379" lon="-6.6883728">
<ele>2711.012</ele>
</trkpt>
<trkpt lat="31.416628" lon="-6.6882166">
<ele>2666.157</ele>
</trkpt>
<trkpt lat="31.4173449" lon="-6.6880797">
<ele>2638.396</ele>
</trkpt>
<trkpt lat="31.4180154" lon="-6.6878758">
<ele>2608.803</ele>
</trkpt>
<trkpt lat="31.4187245" lon="-6.6877546">
<ele>2578.29</ele>
</trkpt>
<trkpt lat="31.4189808" lon="-6.6877237">
<ele>2570.283</ele>
</trkpt>
<trkpt lat="31.4196221" lon="-6.6873838">
<ele>2534.642</ele>
</trkpt>
<trkpt lat="31.4203472" lon="-6.6870589">
<ele>2514.752</ele>
</trkpt>
<trkpt lat="31.4210589" lon="-6.6867728">
<ele>2488.686</ele>
</trkpt>
<trkpt lat="31.4217287" lon="-6.6864772">
<ele>2480.956</ele>
</trkpt>
<trkpt lat="31.4224256" lon="-6.6863029">
<ele>2455.895</ele>
</trkpt>
<trkpt lat="31.4231358" lon="-6.6862059">
<ele>2444.417</ele>
</trkpt>
<trkpt lat="31.4238492" lon="-6.6861234">
<ele>2428.603</ele>
</trkpt>
<trkpt lat="31.4245454" lon="-6.6856227">
<ele>2411.55</ele>
</trkpt>
<trkpt lat="31.4250642" lon="-6.6849709">
<ele>2403.96</ele>
</trkpt>
<trkpt lat="31.4252064" lon="-6.6847866">
<ele>2401.343</ele>
</trkpt>
<trkpt lat="31.4258245" lon="-6.6844224">
<ele>2376.408</ele>
</trkpt>
<trkpt lat="31.4264463" lon="-6.6840343">
<ele>2367.453</ele>
</trkpt>
<trkpt lat="31.426966" lon="-6.6834731">
<ele>2356.026</ele>
</trkpt>
<trkpt lat="31.4274409" lon="-6.6828808">
<ele>2346.979</ele>
</trkpt>
<trkpt lat="31.4278549" lon="-6.6821095">
<ele>2331.689</ele>
</trkpt>
<trkpt lat="31.4282479" lon="-6.6814428">
<ele>2332.039</ele>
</trkpt>
<trkpt lat="31.4287917" lon="-6.6808578">
<ele>2322.712</ele>
</trkpt>
<trkpt lat="31.4293184" lon="-6.6803395">
<ele>2322.328</ele>
</trkpt>
<trkpt lat="31.4298371" lon="-6.67981">
<ele>2300.185</ele>
</trkpt>
<trkpt lat="31.4302048" lon="-6.6794506">
<ele>2280.987</ele>
</trkpt>
<trkpt lat="31.4306149" lon="-6.6787886">
<ele>2263.161</ele>
</trkpt>
<trkpt lat="31.4310204" lon="-6.6781226">
<ele>2270.636</ele>
</trkpt>
<trkpt lat="31.4315191" lon="-6.6774916">
<ele>2252.327</ele>
</trkpt>
<trkpt lat="31.432023" lon="-6.6769172">
<ele>2242.377</ele>
</trkpt>
<trkpt lat="31.4325122" lon="-6.6762977">
<ele>2226.669</ele>
</trkpt>
<trkpt lat="31.4330139" lon="-6.6756702">
<ele>2213.441</ele>
</trkpt>
<trkpt lat="31.4331328" lon="-6.6755127">
<ele>2208.654</ele>
</trkpt>
<trkpt lat="31.433272" lon="-6.6753715">
<ele>2204.553</ele>
</trkpt>
<trkpt lat="31.4334189" lon="-6.6752542">
<ele>2199.807</ele>
</trkpt>
<trkpt lat="31.433558" lon="-6.6751207">
<ele>2193.89</ele>
</trkpt>
<trkpt lat="31.4336977" lon="-6.6749901">
<ele>2189.236</ele>
</trkpt>
<trkpt lat="31.4338508" lon="-6.6748843">
<ele>2185.947</ele>
</trkpt>
<trkpt lat="31.4338936" lon="-6.6748651">
<ele>2185.078</ele>
</trkpt>
<trkpt lat="31.434051" lon="-6.6747612">
<ele>2182.76</ele>
</trkpt>
<trkpt lat="31.4342015" lon="-6.6746383">
<ele>2180.618</ele>
</trkpt>
<trkpt lat="31.434345" lon="-6.674519">
<ele>2178.474</ele>
</trkpt>
<trkpt lat="31.4345083" lon="-6.6744306">
<ele>2177.077</ele>
</trkpt>
<trkpt lat="31.434659" lon="-6.674334">
<ele>2175.741</ele>
</trkpt>
<trkpt lat="31.434805" lon="-6.6742212">
<ele>2174.442</ele>
</trkpt>
<trkpt lat="31.4349517" lon="-6.6741079">
<ele>2171.318</ele>
</trkpt>
<trkpt lat="31.4351157" lon="-6.6740339">
<ele>2169.446</ele>
</trkpt>
<trkpt lat="31.4352311" lon="-6.6740301">
<ele>2168.419</ele>
</trkpt>
</trkseg>
<trkseg>
<trkpt lat="31.4498343" lon="-6.6246024">
<ele>2277.071</ele>
</trkpt>
<trkpt lat="31.4501097" lon="-6.6229824">
<ele>2279.106</ele>
</trkpt>
<trkpt lat="31.4506721" lon="-6.6214467">
<ele>2274.025</ele>
</trkpt>
<trkpt lat="31.4513656" lon="-6.6200269">
<ele>2281.383</ele>
</trkpt>
<trkpt lat="31.4518428" lon="-6.6184963">
<ele>2270.037</ele>
</trkpt>
<trkpt lat="31.452174" lon="-6.6168767">
<ele>2260.072</ele>
</trkpt>
<trkpt lat="31.4525399" lon="-6.6152572">
<ele>2268.574</ele>
</trkpt>
<trkpt lat="31.4528467" lon="-6.6142084">
<ele>2271.881</ele>
</trkpt>
<trkpt lat="31.4530433" lon="-6.6133776">
<ele>2275.58</ele>
</trkpt>
<trkpt lat="31.4531555" lon="-6.6125831">
<ele>2270.192</ele>
</trkpt>
<trkpt lat="31.4533919" lon="-6.6118146">
<ele>2271.717</ele>
</trkpt>
<trkpt lat="31.453629" lon="-6.6110446">
<ele>2272.892</ele>
</trkpt>
<trkpt lat="31.4539358" lon="-6.6102977">
<ele>2279.063</ele>
</trkpt>
<trkpt lat="31.4542136" lon="-6.6095133">
<ele>2283.767</ele>
</trkpt>
<trkpt lat="31.4543407" lon="-6.6087204">
<ele>2285.186</ele>
</trkpt>
<trkpt lat="31.454271" lon="-6.6078986">
<ele>2292.018</ele>
</trkpt>
<trkpt lat="31.4541743" lon="-6.6070491">
<ele>2290.236</ele>
</trkpt>
<trkpt lat="31.4538674" lon="-6.6063157">
<ele>2304.3</ele>
</trkpt>
<trkpt lat="31.4534781" lon="-6.6056443">
<ele>2311.903</ele>
</trkpt>
<trkpt lat="31.4531847" lon="-6.6048832">
<ele>2328.327</ele>
</trkpt>
<trkpt lat="31.4530022" lon="-6.6040972">
<ele>2317.172</ele>
</trkpt>
<trkpt lat="31.4529324" lon="-6.6032876">
<ele>2323.21</ele>
</trkpt>
<trkpt lat="31.4529882" lon="-6.6026016">
<ele>2325.942</ele>
</trkpt>
<trkpt lat="31.4530171" lon="-6.6017864">
<ele>2330.756</ele>
</trkpt>
<trkpt lat="31.4531133" lon="-6.6009868">
<ele>2331.454</ele>
</trkpt>
<trkpt lat="31.4532942" lon="-6.6002062">
<ele>2328.393</ele>
</trkpt>
<trkpt lat="31.4533796" lon="-6.5993957">
<ele>2338.068</ele>
</trkpt>
<trkpt lat="31.4534335" lon="-6.598572">
<ele>2339.854</ele>
</trkpt>
<trkpt lat="31.453601" lon="-6.5977738">
<ele>2341.826</ele>
</trkpt>
<trkpt lat="31.4537545" lon="-6.5969657">
<ele>2339.625</ele>
</trkpt>
<trkpt lat="31.4539083" lon="-6.5961444">
<ele>2339.215</ele>
</trkpt>
<trkpt lat="31.454007" lon="-6.595342">
<ele>2338.622</ele>
</trkpt>
<trkpt lat="31.454007" lon="-6.5953253">
<ele>2338.571</ele>
</trkpt>
<trkpt lat="31.4543331" lon="-6.5945248">
<ele>2341.335</ele>
</trkpt>
<trkpt lat="31.4545868" lon="-6.5937648">
<ele>2353.084</ele>
</trkpt>
<trkpt lat="31.4547806" lon="-6.5929795">
<ele>2356.446</ele>
</trkpt>
<trkpt lat="31.4548936" lon="-6.5921731">
<ele>2351.477</ele>
</trkpt>
<trkpt lat="31.4550748" lon="-6.5913599">
<ele>2356.94</ele>
</trkpt>
<trkpt lat="31.4553118" lon="-6.5905666">
<ele>2360.123</ele>
</trkpt>
<trkpt lat="31.4555471" lon="-6.5897361">
<ele>2362.888</ele>
</trkpt>
<trkpt lat="31.4557022" lon="-6.5889358">
<ele>2365.415</ele>
</trkpt>
<trkpt lat="31.4557301" lon="-6.5887912">
<ele>2366.106</ele>
</trkpt>
<trkpt lat="31.4560685" lon="-6.5872133">
<ele>2380.409</ele>
</trkpt>
<trkpt lat="31.4565172" lon="-6.5856432">
<ele>2394.552</ele>
</trkpt>
<trkpt lat="31.4569598" lon="-6.5840859">
<ele>2385.111</ele>
</trkpt>
<trkpt lat="31.4567681" lon="-6.5824295">
<ele>2393.838</ele>
</trkpt>
<trkpt lat="31.4567681" lon="-6.5808132">
<ele>2417.918</ele>
</trkpt>
<trkpt lat="31.4568518" lon="-6.5791679">
<ele>2422.989</ele>
</trkpt>
<trkpt lat="31.4565204" lon="-6.5776033">
<ele>2456.642</ele>
</trkpt>
<trkpt lat="31.4562104" lon="-6.5770513">
<ele>2443.959</ele>
</trkpt>
<trkpt lat="31.4562104" lon="-6.5753604">
<ele>2460.933</ele>
</trkpt>
<trkpt lat="31.4561268" lon="-6.5736999">
<ele>2486.986</ele>
</trkpt>
<trkpt lat="31.4559037" lon="-6.5721103">
<ele>2510.809</ele>
</trkpt>
<trkpt lat="31.4554879" lon="-6.5704976">
<ele>2532.228</ele>
</trkpt>
<trkpt lat="31.4547046" lon="-6.5691646">
<ele>2534.339</ele>
</trkpt>
<trkpt lat="31.4543391" lon="-6.5675869">
<ele>2565.737</ele>
</trkpt>
<trkpt lat="31.4545094" lon="-6.5659724">
<ele>2577.338</ele>
</trkpt>
<trkpt lat="31.4548414" lon="-6.5643284">
<ele>2591.852</ele>
</trkpt>
<trkpt lat="31.4552599" lon="-6.5627562">
<ele>2634.609</ele>
</trkpt>
<trkpt lat="31.4553768" lon="-6.5610843">
<ele>2642.174</ele>
</trkpt>
<trkpt lat="31.4552623" lon="-6.5594405">
<ele>2652.801</ele>
</trkpt>
<trkpt lat="31.4548472" lon="-6.5578712">
<ele>2701.047</ele>
</trkpt>
<trkpt lat="31.454844" lon="-6.5578173">
<ele>2701.429</ele>
</trkpt>
<trkpt lat="31.4546767" lon="-6.5562072">
<ele>2731.272</ele>
</trkpt>
<trkpt lat="31.454395" lon="-6.5546106">
<ele>2734.559</ele>
</trkpt>
<trkpt lat="31.4541484" lon="-6.5529611">
<ele>2729.212</ele>
</trkpt>
<trkpt lat="31.4535863" lon="-6.5514712">
<ele>2716.196</ele>
</trkpt>
<trkpt lat="31.4535863" lon="-6.5498291">
<ele>2730.472</ele>
</trkpt>
<trkpt lat="31.4540012" lon="-6.5482692">
<ele>2763.753</ele>
</trkpt>
<trkpt lat="31.4545623" lon="-6.5469872">
<ele>2804.837</ele>
</trkpt>
<trkpt lat="31.4549578" lon="-6.5454061">
<ele>2835.406</ele>
</trkpt>
<trkpt lat="31.4553203" lon="-6.5438366">
<ele>2851.365</ele>
</trkpt>
<trkpt lat="31.4559536" lon="-6.5423692">
<ele>2890.516</ele>
</trkpt>
<trkpt lat="31.4566001" lon="-6.5409118">
<ele>2924.931</ele>
</trkpt>
<trkpt lat="31.4572411" lon="-6.5394625">
<ele>2962.245</ele>
</trkpt>
<trkpt lat="31.4579908" lon="-6.5380913">
<ele>3039.653</ele>
</trkpt>
<trkpt lat="31.4588059" lon="-6.5367599">
<ele>3111.96</ele>
</trkpt>
<trkpt lat="31.459665" lon="-6.5353924">
<ele>3167.971</ele>
</trkpt>
<trkpt lat="31.4605878" lon="-6.5341689">
<ele>3201.418</ele>
</trkpt>
<trkpt lat="31.4605905" lon="-6.5341465">
<ele>3201.585</ele>
</trkpt>
<trkpt lat="31.4617369" lon="-6.5331775">
<ele>3236.4</ele>
</trkpt>
<trkpt lat="31.4627352" lon="-6.5319507">
<ele>3219.611</ele>
</trkpt>
<trkpt lat="31.4636892" lon="-6.530761">
<ele>3217.884</ele>
</trkpt>
<trkpt lat="31.4647735" lon="-6.5297556">
<ele>3229.575</ele>
</trkpt>
<trkpt lat="31.4658607" lon="-6.528727">
<ele>3183.593</ele>
</trkpt>
<trkpt lat="31.4667548" lon="-6.5274907">
<ele>3193.53</ele>
</trkpt>
<trkpt lat="31.4676733" lon="-6.5262429">
<ele>3208.789</ele>
</trkpt>
<trkpt lat="31.4685944" lon="-6.5249717">
<ele>3255.283</ele>
</trkpt>
<trkpt lat="31.4695435" lon="-6.5237803">
<ele>3297.796</ele>
</trkpt>
<trkpt lat="31.4703801" lon="-6.5224084">
<ele>3340.852</ele>
</trkpt>
<trkpt lat="31.4713821" lon="-6.5212758">
<ele>3406.996</ele>
</trkpt>
<trkpt lat="31.4727447" lon="-6.5206854">
<ele>3418.725</ele>
</trkpt>
<trkpt lat="31.4741613" lon="-6.5210543">
<ele>3463.109</ele>
</trkpt>
<trkpt lat="31.4754777" lon="-6.5215248">
<ele>3493.523</ele>
</trkpt>
<trkpt lat="31.4768189" lon="-6.5219484">
<ele>3518.184</ele>
</trkpt>
<trkpt lat="31.4782119" lon="-6.522338">
<ele>3528.387</ele>
</trkpt>
<trkpt lat="31.4795732" lon="-6.5228968">
<ele>3544.675</ele>
</trkpt>
<trkpt lat="31.4809435" lon="-6.5230362">
<ele>3586.215</ele>
</trkpt>
<trkpt lat="31.4811443" lon="-6.5230211">
<ele>3593.992</ele>
</trkpt>
<trkpt lat="31.4824595" lon="-6.5239025">
<ele>3592.323</ele>
</trkpt>
<trkpt lat="31.4837022" lon="-6.5246052">
<ele>3523.165</ele>
</trkpt>
<trkpt lat="31.4850051" lon="-6.5253694">
<ele>3508.303</ele>
</trkpt>
<trkpt lat="31.4862056" lon="-6.5262426">
<ele>3507.246</ele>
</trkpt>
<trkpt lat="31.4872648" lon="-6.5274166">
<ele>3443.736</ele>
</trkpt>
<trkpt lat="31.4882167" lon="-6.5286025">
<ele>3397.097</ele>
</trkpt>
<trkpt lat="31.4893823" lon="-6.5295201">
<ele>3405.877</ele>
</trkpt>
<trkpt lat="31.4907682" lon="-6.5297511">
<ele>3396.539</ele>
</trkpt>
<trkpt lat="31.4921427" lon="-6.529736">
<ele>3338.092</ele>
</trkpt>
<trkpt lat="31.4935385" lon="-6.5296605">
<ele>3334.256</ele>
</trkpt>
<trkpt lat="31.4944363" lon="-6.529389">
<ele>3357.289</ele>
</trkpt>
<trkpt lat="31.4958002" lon="-6.5300671">
<ele>3271.183</ele>
</trkpt>
<trkpt lat="31.4971466" lon="-6.5305078">
<ele>3175.785</ele>
</trkpt>
<trkpt lat="31.4985413" lon="-6.5308726">
<ele>3135.722</ele>
</trkpt>
<trkpt lat="31.4999629" lon="-6.5308894">
<ele>3084.821</ele>
</trkpt>
<trkpt lat="31.5013352" lon="-6.5307687">
<ele>3045.055</ele>
</trkpt>
<trkpt lat="31.5027235" lon="-6.5308863">
<ele>3002.047</ele>
</trkpt>
<trkpt lat="31.5040834" lon="-6.5313815">
<ele>3006.022</ele>
</trkpt>
<trkpt lat="31.5053688" lon="-6.5321176">
<ele>2987.407</ele>
</trkpt>
<trkpt lat="31.5066568" lon="-6.5328466">
<ele>2953.231</ele>
</trkpt>
<trkpt lat="31.507966" lon="-6.533498">
<ele>2949.737</ele>
</trkpt>
<trkpt lat="31.5093347" lon="-6.5333803">
<ele>2926.63</ele>
</trkpt>
<trkpt lat="31.5102792" lon="-6.5321797">
<ele>2922.296</ele>
</trkpt>
<trkpt lat="31.5108116" lon="-6.5306425">
<ele>2929.587</ele>
</trkpt>
<trkpt lat="31.5110653" lon="-6.5290578">
<ele>2938.451</ele>
</trkpt>
<trkpt lat="31.511149" lon="-6.5283547">
<ele>2940.567</ele>
</trkpt>
<trkpt lat="31.5112173" lon="-6.5267194">
<ele>2940.31</ele>
</trkpt>
<trkpt lat="31.5112993" lon="-6.5250886">
<ele>2954.515</ele>
</trkpt>
<trkpt lat="31.5117712" lon="-6.5235669">
<ele>2989.735</ele>
</trkpt>
<trkpt lat="31.5120534" lon="-6.5219671">
<ele>2991.975</ele>
</trkpt>
<trkpt lat="31.5119976" lon="-6.5203492">
<ele>3001.519</ele>
</trkpt>
<trkpt lat="31.5121927" lon="-6.5187241">
<ele>2998.724</ele>
</trkpt>
<trkpt lat="31.5130492" lon="-6.5173793">
<ele>2982.451</ele>
</trkpt>
<trkpt lat="31.5143885" lon="-6.5168941">
<ele>2968.524</ele>
</trkpt>
<trkpt lat="31.5157567" lon="-6.5167567">
<ele>2984.4</ele>
</trkpt>
<trkpt lat="31.5171472" lon="-6.5167266">
<ele>2989.55</ele>
</trkpt>
<trkpt lat="31.5184848" lon="-6.5172044">
<ele>2977.974</ele>
</trkpt>
<trkpt lat="31.5197594" lon="-6.5178689">
<ele>2961.492</ele>
</trkpt>
<trkpt lat="31.521129" lon="-6.5184592">
<ele>2963.281</ele>
</trkpt>
<trkpt lat="31.5225461" lon="-6.5188237">
<ele>2972.512</ele>
</trkpt>
<trkpt lat="31.5239088" lon="-6.518512">
<ele>2968.78</ele>
</trkpt>
<trkpt lat="31.5252529" lon="-6.5180576">
<ele>2932.433</ele>
</trkpt>
<trkpt lat="31.5266348" lon="-6.5174318">
<ele>2929.411</ele>
</trkpt>
<trkpt lat="31.5278755" lon="-6.516567">
<ele>2930.226</ele>
</trkpt>
<trkpt lat="31.5291815" lon="-6.5159287">
<ele>2921.794</ele>
</trkpt>
<trkpt lat="31.5305256" lon="-6.5155799">
<ele>2922.108</ele>
</trkpt>
<trkpt lat="31.5309743" lon="-6.5155347">
<ele>2926.598</ele>
</trkpt>
</trkseg>
<trkseg>
<trkpt lat="31.5311061" lon="-6.5149433">
<ele>2928.964</ele>
</trkpt>
<trkpt lat="31.5297841" lon="-6.5143546">
<ele>2930.735</ele>
</trkpt>
<trkpt lat="31.5285428" lon="-6.5135243">
<ele>2935.092</ele>
</trkpt>
<trkpt lat="31.527605" lon="-6.5121671">
<ele>2939.217</ele>
</trkpt>
<trkpt lat="31.527098" lon="-6.5106515">
<ele>2952.655</ele>
</trkpt>
<trkpt lat="31.5264054" lon="-6.5091853">
<ele>2971.498</ele>
</trkpt>
<trkpt lat="31.5254665" lon="-6.5079799">
<ele>2978.768</ele>
</trkpt>
<trkpt lat="31.5245531" lon="-6.5067565">
<ele>2992.697</ele>
</trkpt>
<trkpt lat="31.5238878" lon="-6.5052525">
<ele>3001.72</ele>
</trkpt>
<trkpt lat="31.5232475" lon="-6.503828">
<ele>3011.304</ele>
</trkpt>
<trkpt lat="31.5227197" lon="-6.5023039">
<ele>3038.47</ele>
</trkpt>
<trkpt lat="31.5226002" lon="-6.502023">
<ele>3044.865</ele>
</trkpt>
<trkpt lat="31.5215972" lon="-6.5008101">
<ele>3080.252</ele>
</trkpt>
<trkpt lat="31.5204194" lon="-6.4995986">
<ele>3140.883</ele>
</trkpt>
<trkpt lat="31.5195816" lon="-6.4982727">
<ele>3179.75</ele>
</trkpt>
<trkpt lat="31.5189419" lon="-6.4967182">
<ele>3229.086</ele>
</trkpt>
<trkpt lat="31.5182476" lon="-6.495237">
<ele>3266.088</ele>
</trkpt>
<trkpt lat="31.5172538" lon="-6.4940831">
<ele>3290.619</ele>
</trkpt>
<trkpt lat="31.516177" lon="-6.4930243">
<ele>3324.331</ele>
</trkpt>
<trkpt lat="31.5152342" lon="-6.491775">
<ele>3350.68</ele>
</trkpt>
<trkpt lat="31.5143205" lon="-6.4904837">
<ele>3368.481</ele>
</trkpt>
<trkpt lat="31.5133277" lon="-6.4893311">
<ele>3392.305</ele>
</trkpt>
<trkpt lat="31.5121941" lon="-6.4883884">
<ele>3421.34</ele>
</trkpt>
<trkpt lat="31.5119616" lon="-6.4881783">
<ele>3423.02</ele>
</trkpt>
<trkpt lat="31.5114866" lon="-6.4866197">
<ele>3436.78</ele>
</trkpt>
<trkpt lat="31.51027" lon="-6.4857518">
<ele>3456.013</ele>
</trkpt>
<trkpt lat="31.5091096" lon="-6.4847679">
<ele>3492.768</ele>
</trkpt>
<trkpt lat="31.5079253" lon="-6.4838639">
<ele>3532.498</ele>
</trkpt>
<trkpt lat="31.5068238" lon="-6.4827792">
<ele>3571.637</ele>
</trkpt>
<trkpt lat="31.5057116" lon="-6.481754">
<ele>3596.012</ele>
</trkpt>
<trkpt lat="31.5045797" lon="-6.4807251">
<ele>3647.396</ele>
</trkpt>
<trkpt lat="31.5035357" lon="-6.4796139">
<ele>3721.71</ele>
</trkpt>
<trkpt lat="31.5025617" lon="-6.478466">
<ele>3798.583</ele>
</trkpt>
<trkpt lat="31.5015146" lon="-6.4771437">
<ele>3828.578</ele>
</trkpt>
<trkpt lat="31.5006749" lon="-6.4757297">
<ele>3866.917</ele>
</trkpt>
<trkpt lat="31.4995967" lon="-6.4746833">
<ele>3922.504</ele>
</trkpt>
<trkpt lat="31.4986023" lon="-6.4738121">
<ele>3906.311</ele>
</trkpt>
<trkpt lat="31.4972802" lon="-6.4732679">
<ele>3925.015</ele>
</trkpt>
<trkpt lat="31.496444" lon="-6.4719745">
<ele>3930.724</ele>
</trkpt>
<trkpt lat="31.4955322" lon="-6.4706773">
<ele>3940.543</ele>
</trkpt>
<trkpt lat="31.4948137" lon="-6.469258">
<ele>3921.647</ele>
</trkpt>
<trkpt lat="31.4942538" lon="-6.4677874">
<ele>3899.777</ele>
</trkpt>
<trkpt lat="31.4941142" lon="-6.4661369">
<ele>3878.218</ele>
</trkpt>
<trkpt lat="31.4939741" lon="-6.4644649">
<ele>3864.317</ele>
</trkpt>
<trkpt lat="31.4940568" lon="-6.4627762">
<ele>3869.483</ele>
</trkpt>
<trkpt lat="31.4940289" lon="-6.4611396">
<ele>3891.084</ele>
</trkpt>
<trkpt lat="31.4939157" lon="-6.4595293">
<ele>3915.215</ele>
</trkpt>
<trkpt lat="31.4945907" lon="-6.4581184">
<ele>3969.724</ele>
</trkpt>
<trkpt lat="31.4955974" lon="-6.4569841">
<ele>3990.05</ele>
</trkpt>
<trkpt lat="31.4965256" lon="-6.4557262">
<ele>3977.226</ele>
</trkpt>
<trkpt lat="31.4967812" lon="-6.4541447">
<ele>3946.813</ele>
</trkpt>
<trkpt lat="31.4968823" lon="-6.4535377">
<ele>3945.46</ele>
</trkpt>
<trkpt lat="31.4974141" lon="-6.4519897">
<ele>3968.254</ele>
</trkpt>
<trkpt lat="31.4982011" lon="-6.4506615">
<ele>3969.658</ele>
</trkpt>
<trkpt lat="31.4994185" lon="-6.4499037">
<ele>3962.868</ele>
</trkpt>
<trkpt lat="31.5007765" lon="-6.4496006">
<ele>3960.092</ele>
</trkpt>
<trkpt lat="31.5021646" lon="-6.4491762">
<ele>3969.428</ele>
</trkpt>
<trkpt lat="31.5035204" lon="-6.4486762">
<ele>3992.548</ele>
</trkpt>
<trkpt lat="31.5045926" lon="-6.4476704">
<ele>3983.76</ele>
</trkpt>
<trkpt lat="31.5052064" lon="-6.4461848">
<ele>3977.323</ele>
</trkpt>
<trkpt lat="31.5060758" lon="-6.4448644">
<ele>4010.283</ele>
</trkpt>
<trkpt lat="31.5072337" lon="-6.4439566">
<ele>4043.134</ele>
</trkpt>
<trkpt lat="31.5086299" lon="-6.4440725">
<ele>4054.373</ele>
</trkpt>
<trkpt lat="31.5095459" lon="-6.4453722">
<ele>4002.24</ele>
</trkpt>
<trkpt lat="31.5087686" lon="-6.4467425">
<ele>3902.768</ele>
</trkpt>
<trkpt lat="31.5080598" lon="-6.4481351">
<ele>3796.011</ele>
</trkpt>
<trkpt lat="31.5077268" lon="-6.4497588">
<ele>3726.251</ele>
</trkpt>
<trkpt lat="31.5077745" lon="-6.4513678">
<ele>3685.844</ele>
</trkpt>
<trkpt lat="31.5087104" lon="-6.4526487">
<ele>3618.192</ele>
</trkpt>
<trkpt lat="31.5100093" lon="-6.4532751">
<ele>3559.971</ele>
</trkpt>
<trkpt lat="31.5112486" lon="-6.4540261">
<ele>3512.304</ele>
</trkpt>
<trkpt lat="31.5118447" lon="-6.4543202">
<ele>3498.239</ele>
</trkpt>
<trkpt lat="31.5133643" lon="-6.4544003">
<ele>3479.743</ele>
</trkpt>
<trkpt lat="31.5147558" lon="-6.4546484">
<ele>3467.409</ele>
</trkpt>
<trkpt lat="31.516126" lon="-6.4550864">
<ele>3425.655</ele>
</trkpt>
<trkpt lat="31.5174774" lon="-6.4554037">
<ele>3387.435</ele>
</trkpt>
<trkpt lat="31.5188732" lon="-6.4560304">
<ele>3362.916</ele>
</trkpt>
<trkpt lat="31.5201693" lon="-6.4566073">
<ele>3328.212</ele>
</trkpt>
<trkpt lat="31.5215396" lon="-6.4571314">
<ele>3286.018</ele>
</trkpt>
<trkpt lat="31.5228894" lon="-6.4577516">
<ele>3265.488</ele>
</trkpt>
<trkpt lat="31.524293" lon="-6.4581281">
<ele>3227.593</ele>
</trkpt>
<trkpt lat="31.5243277" lon="-6.4581273">
<ele>3226.537</ele>
</trkpt>
<trkpt lat="31.5257265" lon="-6.4581566">
<ele>3188.973</ele>
</trkpt>
<trkpt lat="31.527141" lon="-6.4578087">
<ele>3190.077</ele>
</trkpt>
<trkpt lat="31.5284442" lon="-6.4572942">
<ele>3170.313</ele>
</trkpt>
<trkpt lat="31.5298578" lon="-6.4570941">
<ele>3182.142</ele>
</trkpt>
<trkpt lat="31.531281" lon="-6.4570457">
<ele>3191.938</ele>
</trkpt>
<trkpt lat="31.5326676" lon="-6.4567311">
<ele>3168.817</ele>
</trkpt>
<trkpt lat="31.5340522" lon="-6.4562968">
<ele>3124.3</ele>
</trkpt>
<trkpt lat="31.5353859" lon="-6.4558723">
<ele>3100.449</ele>
</trkpt>
<trkpt lat="31.5366653" lon="-6.4552609">
<ele>3106.644</ele>
</trkpt>
<trkpt lat="31.5380061" lon="-6.4548276">
<ele>3090.231</ele>
</trkpt>
<trkpt lat="31.5393072" lon="-6.4542072">
<ele>3077.73</ele>
</trkpt>
<trkpt lat="31.5406103" lon="-6.4536978">
<ele>3045.0</ele>
</trkpt>
<trkpt lat="31.5419742" lon="-6.4533409">
<ele>3013.737</ele>
</trkpt>
<trkpt lat="31.5433217" lon="-6.453737">
<ele>2974.761</ele>
</trkpt>
<trkpt lat="31.5445325" lon="-6.4546663">
<ele>2903.286</ele>
</trkpt>
<trkpt lat="31.5454712" lon="-6.4558755">
<ele>2849.918</ele>
</trkpt>
<trkpt lat="31.5457224" lon="-6.4560749">
<ele>2841.332</ele>
</trkpt>
<trkpt lat="31.5465177" lon="-6.4574243">
<ele>2782.178</ele>
</trkpt>
<trkpt lat="31.5472913" lon="-6.4587828">
<ele>2737.299</ele>
</trkpt>
<trkpt lat="31.5479287" lon="-6.4602727">
<ele>2703.568</ele>
</trkpt>
<trkpt lat="31.5484214" lon="-6.4618173">
<ele>2678.098</ele>
</trkpt>
<trkpt lat="31.5492241" lon="-6.4631751">
<ele>2660.507</ele>
</trkpt>
<trkpt lat="31.5504608" lon="-6.4639157">
<ele>2632.029</ele>
</trkpt>
<trkpt lat="31.5517957" lon="-6.4644317">
<ele>2601.849</ele>
</trkpt>
<trkpt lat="31.5531863" lon="-6.4647924">
<ele>2524.794</ele>
</trkpt>
<trkpt lat="31.5546295" lon="-6.464827">
<ele>2503.525</ele>
</trkpt>
<trkpt lat="31.5560284" lon="-6.4648284">
<ele>2460.503</ele>
</trkpt>
<trkpt lat="31.5574066" lon="-6.4648987">
<ele>2482.094</ele>
</trkpt>
<trkpt lat="31.558814" lon="-6.4649683">
<ele>2467.693</ele>
</trkpt>
<trkpt lat="31.5602211" lon="-6.4650208">
<ele>2419.258</ele>
</trkpt>
<trkpt lat="31.5616074" lon="-6.4651423">
<ele>2342.068</ele>
</trkpt>
<trkpt lat="31.5621064" lon="-6.4653528">
<ele>2331.463</ele>
</trkpt>
<trkpt lat="31.5633869" lon="-6.4661095">
<ele>2316.599</ele>
</trkpt>
<trkpt lat="31.5646089" lon="-6.4668504">
<ele>2325.217</ele>
</trkpt>
<trkpt lat="31.5658183" lon="-6.4677113">
<ele>2316.699</ele>
</trkpt>
<trkpt lat="31.5668998" lon="-6.4687634">
<ele>2301.684</ele>
</trkpt>
<trkpt lat="31.5680806" lon="-6.4696591">
<ele>2288.743</ele>
</trkpt>
<trkpt lat="31.5692605" lon="-6.4705036">
<ele>2276.654</ele>
</trkpt>
<trkpt lat="31.5704778" lon="-6.4713985">
<ele>2278.557</ele>
</trkpt>
<trkpt lat="31.5717079" lon="-6.4721991">
<ele>2262.734</ele>
</trkpt>
<trkpt lat="31.5727742" lon="-6.4732172">
<ele>2257.643</ele>
</trkpt>
<trkpt lat="31.5736553" lon="-6.4744792">
<ele>2271.222</ele>
</trkpt>
<trkpt lat="31.5743505" lon="-6.4755232">
<ele>2267.398</ele>
</trkpt>
</trkseg>
<trkseg>
<trkpt lat="31.5735774" lon="-6.4741818">
<ele>2263.308</ele>
</trkpt>
<trkpt lat="31.5729844" lon="-6.4727251">
<ele>2265.555</ele>
</trkpt>
<trkpt lat="31.5724054" lon="-6.4712339">
<ele>2305.787</ele>
</trkpt>
<trkpt lat="31.5726987" lon="-6.4696367">
<ele>2337.19</ele>
</trkpt>
<trkpt lat="31.5732848" lon="-6.4681182">
<ele>2378.83</ele>
</trkpt>
<trkpt lat="31.5739743" lon="-6.4666827">
<ele>2425.665</ele>
</trkpt>
<trkpt lat="31.5748846" lon="-6.4653874">
<ele>2447.113</ele>
</trkpt>
<trkpt lat="31.5759225" lon="-6.4643114">
<ele>2469.068</ele>
</trkpt>
<trkpt lat="31.5767152" lon="-6.4629505">
<ele>2492.592</ele>
</trkpt>
<trkpt lat="31.5775083" lon="-6.4616153">
<ele>2508.03</ele>
</trkpt>
<trkpt lat="31.5782722" lon="-6.4602721">
<ele>2531.49</ele>
</trkpt>
<trkpt lat="31.5795318" lon="-6.4595384">
<ele>2553.026</ele>
</trkpt>
<trkpt lat="31.5799719" lon="-6.4580061">
<ele>2595.661</ele>
</trkpt>
<trkpt lat="31.5807948" lon="-6.4567128">
<ele>2632.579</ele>
</trkpt>
<trkpt lat="31.5811755" lon="-6.4551136">
<ele>2668.322</ele>
</trkpt>
<trkpt lat="31.5818065" lon="-6.453671">
<ele>2669.717</ele>
</trkpt>
<trkpt lat="31.5822906" lon="-6.4521548">
<ele>2686.064</ele>
</trkpt>
<trkpt lat="31.5819941" lon="-6.4505714">
<ele>2714.64</ele>
</trkpt>
<trkpt lat="31.581257" lon="-6.4492036">
<ele>2750.014</ele>
</trkpt>
<trkpt lat="31.5804193" lon="-6.4479152">
<ele>2803.361</ele>
</trkpt>
<trkpt lat="31.5794381" lon="-6.4467583">
<ele>2875.524</ele>
</trkpt>
<trkpt lat="31.5793221" lon="-6.4450766">
<ele>2923.807</ele>
</trkpt>
<trkpt lat="31.5792798" lon="-6.4434531">
<ele>2968.492</ele>
</trkpt>
<trkpt lat="31.5792517" lon="-6.4418035">
<ele>3017.875</ele>
</trkpt>
<trkpt lat="31.5796621" lon="-6.4402378">
<ele>3078.57</ele>
</trkpt>
<trkpt lat="31.5804408" lon="-6.4389114">
<ele>3137.504</ele>
</trkpt>
<trkpt lat="31.5812193" lon="-6.4375764">
<ele>3180.371</ele>
</trkpt>
<trkpt lat="31.5815746" lon="-6.4370551">
<ele>3207.902</ele>
</trkpt>
<trkpt lat="31.5822642" lon="-6.4356282">
<ele>3280.012</ele>
</trkpt>
<trkpt lat="31.5831903" lon="-6.4344095">
<ele>3351.498</ele>
</trkpt>
<trkpt lat="31.5841537" lon="-6.4332412">
<ele>3436.536</ele>
</trkpt>
<trkpt lat="31.5852651" lon="-6.4322063">
<ele>3488.93</ele>
</trkpt>
<trkpt lat="31.5858951" lon="-6.4307038">
<ele>3504.212</ele>
</trkpt>
<trkpt lat="31.5869173" lon="-6.4295684">
<ele>3497.324</ele>
</trkpt>
<trkpt lat="31.5881191" lon="-6.4287194">
<ele>3446.403</ele>
</trkpt>
<trkpt lat="31.5894694" lon="-6.4280294">
<ele>3405.367</ele>
</trkpt>
<trkpt lat="31.5908323" lon="-6.4272279">
<ele>3379.117</ele>
</trkpt>
<trkpt lat="31.5921037" lon="-6.4266167">
<ele>3352.364</ele>
</trkpt>
<trkpt lat="31.5934134" lon="-6.4261158">
<ele>3335.162</ele>
</trkpt>
<trkpt lat="31.594554" lon="-6.4250972">
<ele>3306.566</ele>
</trkpt>
<trkpt lat="31.5952142" lon="-6.4236625">
<ele>3289.141</ele>
</trkpt>
<trkpt lat="31.5959916" lon="-6.4222676">
<ele>3278.945</ele>
</trkpt>
<trkpt lat="31.596918" lon="-6.4210746">
<ele>3277.735</ele>
</trkpt>
<trkpt lat="31.5977619" lon="-6.4197381">
<ele>3239.75</ele>
</trkpt>
<trkpt lat="31.5982662" lon="-6.4185549">
<ele>3207.436</ele>
</trkpt>
<trkpt lat="31.5994081" lon="-6.4176133">
<ele>3216.21</ele>
</trkpt>
<trkpt lat="31.6005779" lon="-6.4166026">
<ele>3223.604</ele>
</trkpt>
<trkpt lat="31.6016155" lon="-6.4155266">
<ele>3223.031</ele>
</trkpt>
<trkpt lat="31.6026099" lon="-6.4144772">
<ele>3196.498</ele>
</trkpt>
<trkpt lat="31.6036013" lon="-6.4132485">
<ele>3165.06</ele>
</trkpt>
<trkpt lat="31.6044375" lon="-6.411895">
<ele>3174.628</ele>
</trkpt>
<trkpt lat="31.6054084" lon="-6.4107523">
<ele>3164.738</ele>
</trkpt>
<trkpt lat="31.606409" lon="-6.4096429">
<ele>3156.638</ele>
</trkpt>
<trkpt lat="31.607305" lon="-6.4083736">
<ele>3122.608</ele>
</trkpt>
<trkpt lat="31.6082969" lon="-6.4071875">
<ele>3094.312</ele>
</trkpt>
<trkpt lat="31.6095656" lon="-6.406431">
<ele>3086.526</ele>
</trkpt>
<trkpt lat="31.6110356" lon="-6.4063795">
<ele>3077.219</ele>
</trkpt>
<trkpt lat="31.6123938" lon="-6.4066041">
<ele>2999.075</ele>
</trkpt>
<trkpt lat="31.6138052" lon="-6.4065282">
<ele>2923.421</ele>
</trkpt>
<trkpt lat="31.6150359" lon="-6.4056786">
<ele>2837.408</ele>
</trkpt>
<trkpt lat="31.6162666" lon="-6.4048375">
<ele>2776.39</ele>
</trkpt>
<trkpt lat="31.61746" lon="-6.4039374">
<ele>2712.52</ele>
</trkpt>
<trkpt lat="31.6185712" lon="-6.4029195">
<ele>2651.208</ele>
</trkpt>
<trkpt lat="31.6196139" lon="-6.4017237">
<ele>2582.883</ele>
</trkpt>
<trkpt lat="31.6207531" lon="-6.4006453">
<ele>2510.184</ele>
</trkpt>
<trkpt lat="31.6219319" lon="-6.3997456">
<ele>2475.687</ele>
</trkpt>
<trkpt lat="31.6225153" lon="-6.3993728">
<ele>2447.092</ele>
</trkpt>
<trkpt lat="31.6236631" lon="-6.3983712">
<ele>2366.287</ele>
</trkpt>
<trkpt lat="31.624827" lon="-6.3974547">
<ele>2299.514</ele>
</trkpt>
<trkpt lat="31.6257369" lon="-6.3961594">
<ele>2263.223</ele>
</trkpt>
<trkpt lat="31.6268185" lon="-6.3951165">
<ele>2230.539</ele>
</trkpt>
<trkpt lat="31.6280888" lon="-6.3944712">
<ele>2198.196</ele>
</trkpt>
<trkpt lat="31.6294206" lon="-6.3940124">
<ele>2169.708</ele>
</trkpt>
<trkpt lat="31.6307661" lon="-6.3935105">
<ele>2144.552</ele>
</trkpt>
<trkpt lat="31.6320968" lon="-6.392992">
<ele>2108.531</ele>
</trkpt>
<trkpt lat="31.6334187" lon="-6.3923882">
<ele>2084.803</ele>
</trkpt>
<trkpt lat="31.6338733" lon="-6.3908641">
<ele>2115.954</ele>
</trkpt>
<trkpt lat="31.6338163" lon="-6.3892238">
<ele>2147.721</ele>
</trkpt>
<trkpt lat="31.6335557" lon="-6.3875969">
<ele>2193.54</ele>
</trkpt>
<trkpt lat="31.6333898" lon="-6.3859763">
<ele>2262.083</ele>
</trkpt>
<trkpt lat="31.6330421" lon="-6.3843685">
<ele>2266.143</ele>
</trkpt>
<trkpt lat="31.6337302" lon="-6.3828817">
<ele>2225.986</ele>
</trkpt>
<trkpt lat="31.6346188" lon="-6.3816211">
<ele>2197.208</ele>
</trkpt>
<trkpt lat="31.635966" lon="-6.3812219">
<ele>2201.325</ele>
</trkpt>
<trkpt lat="31.6373294" lon="-6.3809162">
<ele>2147.999</ele>
</trkpt>
<trkpt lat="31.6376759" lon="-6.3807457">
<ele>2129.159</ele>
</trkpt>
<trkpt lat="31.6390644" lon="-6.3806362">
<ele>2083.583</ele>
</trkpt>
<trkpt lat="31.6404411" lon="-6.3806894">
<ele>2060.215</ele>
</trkpt>
<trkpt lat="31.6418589" lon="-6.3810153">
<ele>2045.852</ele>
</trkpt>
<trkpt lat="31.6432044" lon="-6.381377">
<ele>2035.846</ele>
</trkpt>
<trkpt lat="31.6445624" lon="-6.3816187">
<ele>2015.177</ele>
</trkpt>
<trkpt lat="31.6459501" lon="-6.381894">
<ele>1990.943</ele>
</trkpt>
<trkpt lat="31.6472839" lon="-6.382427">
<ele>1985.245</ele>
</trkpt>
<trkpt lat="31.6486456" lon="-6.382891">
<ele>1965.111</ele>
</trkpt>
<trkpt lat="31.6499032" lon="-6.3836481">
<ele>1952.78</ele>
</trkpt>
<trkpt lat="31.6511544" lon="-6.3844652">
<ele>1943.758</ele>
</trkpt>
<trkpt lat="31.652398" lon="-6.3852654">
<ele>1930.44</ele>
</trkpt>
<trkpt lat="31.6534777" lon="-6.3862662">
<ele>1933.949</ele>
</trkpt>
<trkpt lat="31.6548907" lon="-6.3863271">
<ele>1959.112</ele>
</trkpt>
<trkpt lat="31.6560553" lon="-6.385479">
<ele>1941.333</ele>
</trkpt>
<trkpt lat="31.6572266" lon="-6.3845964">
<ele>1902.852</ele>
</trkpt>
<trkpt lat="31.6583009" lon="-6.3835709">
<ele>1903.389</ele>
</trkpt>
<trkpt lat="31.6590198" lon="-6.3821946">
<ele>1909.613</ele>
</trkpt>
<trkpt lat="31.6595371" lon="-6.3809427">
<ele>1910.234</ele>
</trkpt>
<trkpt lat="31.6605666" lon="-6.3798498">
<ele>1905.038</ele>
</trkpt>
<trkpt lat="31.6616333" lon="-6.3788159">
<ele>1911.12</ele>
</trkpt>
<trkpt lat="31.6622737" lon="-6.3779544">
<ele>1913.956</ele>
</trkpt>
<trkpt lat="31.6626987" lon="-6.376414">
<ele>1919.464</ele>
</trkpt>
<trkpt lat="31.6637582" lon="-6.3753802">
<ele>1942.733</ele>
</trkpt>
<trkpt lat="31.6644624" lon="-6.3739957">
<ele>1935.034</ele>
</trkpt>
<trkpt lat="31.6646973" lon="-6.3723999">
<ele>1946.531</ele>
</trkpt>
<trkpt lat="31.6650629" lon="-6.3707925">
<ele>1943.711</ele>
</trkpt>
<trkpt lat="31.6657371" lon="-6.3693573">
<ele>1952.099</ele>
</trkpt>
<trkpt lat="31.6662645" lon="-6.3678487">
<ele>1954.198</ele>
</trkpt>
<trkpt lat="31.667041" lon="-6.3664368">
<ele>1960.656</ele>
</trkpt>
<trkpt lat="31.667951" lon="-6.3651757">
<ele>1975.166</ele>
</trkpt>
<trkpt lat="31.6681386" lon="-6.3642222">
<ele>1983.161</ele>
</trkpt>
</trkseg>
<trkseg>
<trkpt lat="31.6672585" lon="-6.3629604">
<ele>1977.692</ele>
</trkpt>
<trkpt lat="31.6667307" lon="-6.3614509">
<ele>1961.89</ele>
</trkpt>
<trkpt lat="31.6662813" lon="-6.3598455">
<ele>1952.289</ele>
</trkpt>
<trkpt lat="31.6659914" lon="-6.3582021">
<ele>1966.855</ele>
</trkpt>
<trkpt lat="31.665731" lon="-6.3565837">
<ele>1984.849</ele>
</trkpt>
<trkpt lat="31.6652181" lon="-6.355091">
<ele>1996.544</ele>
</trkpt>
<trkpt lat="31.6646541" lon="-6.3535908">
<ele>1992.11</ele>
</trkpt>
<trkpt lat="31.6639751" lon="-6.3521789">
<ele>1989.126</ele>
</trkpt>
<trkpt lat="31.6632244" lon="-6.3508285">
<ele>1987.823</ele>
</trkpt>
<trkpt lat="31.6624737" lon="-6.3494782">
<ele>1999.356</ele>
</trkpt>
<trkpt lat="31.6619308" lon="-6.3479434">
<ele>2009.683</ele>
</trkpt>
<trkpt lat="31.6612952" lon="-6.3465133">
<ele>2024.68</ele>
</trkpt>
<trkpt lat="31.660666" lon="-6.3450318">
<ele>2038.102</ele>
</trkpt>
<trkpt lat="31.6600226" lon="-6.3435763">
<ele>2061.269</ele>
</trkpt>
<trkpt lat="31.6589854" lon="-6.3424977">
<ele>2107.793</ele>
</trkpt>
<trkpt lat="31.6577074" lon="-6.3418096">
<ele>2100.451</ele>
</trkpt>
<trkpt lat="31.6570934" lon="-6.3403705">
<ele>2169.803</ele>
</trkpt>
<trkpt lat="31.656739" lon="-6.3387885">
<ele>2188.961</ele>
</trkpt>
<trkpt lat="31.656457" lon="-6.3371877">
<ele>2215.256</ele>
</trkpt>
<trkpt lat="31.6565019" lon="-6.335545">
<ele>2251.971</ele>
</trkpt>
<trkpt lat="31.6563882" lon="-6.3348551">
<ele>2281.07</ele>
</trkpt>
<trkpt lat="31.655882" lon="-6.3333365">
<ele>2303.921</ele>
</trkpt>
<trkpt lat="31.6555997" lon="-6.3317101">
<ele>2324.073</ele>
</trkpt>
<trkpt lat="31.6553105" lon="-6.3301095">
<ele>2358.616</ele>
</trkpt>
<trkpt lat="31.6550431" lon="-6.3285084">
<ele>2395.305</ele>
</trkpt>
<trkpt lat="31.6549349" lon="-6.3268522">
<ele>2425.883</ele>
</trkpt>
<trkpt lat="31.6549573" lon="-6.3251758">
<ele>2477.843</ele>
</trkpt>
<trkpt lat="31.6550246" lon="-6.3235668">
<ele>2526.674</ele>
</trkpt>
<trkpt lat="31.6550254" lon="-6.321908">
<ele>2553.026</ele>
</trkpt>
<trkpt lat="31.6549748" lon="-6.3202163">
<ele>2587.983</ele>
</trkpt>
<trkpt lat="31.6547798" lon="-6.3185878">
<ele>2613.045</ele>
</trkpt>
<trkpt lat="31.6557425" lon="-6.3174281">
<ele>2616.172</ele>
</trkpt>
<trkpt lat="31.6566661" lon="-6.3160982">
<ele>2609.755</ele>
</trkpt>
<trkpt lat="31.6574573" lon="-6.3146946">
<ele>2599.786</ele>
</trkpt>
<trkpt lat="31.6582204" lon="-6.3133429">
<ele>2583.347</ele>
</trkpt>
<trkpt lat="31.6579315" lon="-6.3117679">
<ele>2590.109</ele>
</trkpt>
<trkpt lat="31.657902" lon="-6.311743">
<ele>2590.299</ele>
</trkpt>
<trkpt lat="31.657215" lon="-6.3102885">
<ele>2618.767</ele>
</trkpt>
<trkpt lat="31.6568959" lon="-6.3086458">
<ele>2657.733</ele>
</trkpt>
<trkpt lat="31.6567369" lon="-6.3069994">
<ele>2714.779</ele>
</trkpt>
<trkpt lat="31.6563972" lon="-6.3054256">
<ele>2758.365</ele>
</trkpt>
<trkpt lat="31.6560781" lon="-6.3037829">
<ele>2801.082</ele>
</trkpt>
<trkpt lat="31.655985" lon="-6.3021606">
<ele>2840.543</ele>
</trkpt>
<trkpt lat="31.6558921" lon="-6.3005468">
<ele>2859.377</ele>
</trkpt>
<trkpt lat="31.6559333" lon="-6.3004004">
<ele>2861.674</ele>
</trkpt>
<trkpt lat="31.6552255" lon="-6.2990149">
<ele>2848.97</ele>
</trkpt>
<trkpt lat="31.6545179" lon="-6.2976293">
<ele>2875.67</ele>
</trkpt>
<trkpt lat="31.6541415" lon="-6.2960392">
<ele>2889.983</ele>
</trkpt>
<trkpt lat="31.6538234" lon="-6.2944564">
<ele>2883.349</ele>
</trkpt>
<trkpt lat="31.6533386" lon="-6.2929117">
<ele>2922.545</ele>
</trkpt>
<trkpt lat="31.6529481" lon="-6.2913476">
<ele>2957.372</ele>
</trkpt>
<trkpt lat="31.6520396" lon="-6.2901378">
<ele>3033.05</ele>
</trkpt>
<trkpt lat="31.6508041" lon="-6.2893887">
<ele>3121.108</ele>
</trkpt>
<trkpt lat="31.6494795" lon="-6.2889667">
<ele>3161.777</ele>
</trkpt>
<trkpt lat="31.6481254" lon="-6.2885197">
<ele>3217.049</ele>
</trkpt>
<trkpt lat="31.6468478" lon="-6.2878657">
<ele>3270.029</ele>
</trkpt>
<trkpt lat="31.645667" lon="-6.2869102">
<ele>3359.073</ele>
</trkpt>
<trkpt lat="31.6445365" lon="-6.2859193">
<ele>3428.943</ele>
</trkpt>
<trkpt lat="31.6434632" lon="-6.2848757">
<ele>3487.336</ele>
</trkpt>
<trkpt lat="31.6431087" lon="-6.2832852">
<ele>3479.681</ele>
</trkpt>
<trkpt lat="31.6431247" lon="-6.2816603">
<ele>3505.986</ele>
</trkpt>
<trkpt lat="31.643506" lon="-6.2801123">
<ele>3537.147</ele>
</trkpt>
<trkpt lat="31.6443728" lon="-6.2788608">
<ele>3558.298</ele>
</trkpt>
<trkpt lat="31.6449594" lon="-6.2774021">
<ele>3567.943</ele>
</trkpt>
<trkpt lat="31.645671" lon="-6.2760173">
<ele>3554.408</ele>
</trkpt>
<trkpt lat="31.6458471" lon="-6.2743887">
<ele>3537.406</ele>
</trkpt>
<trkpt lat="31.6459232" lon="-6.2737285">
<ele>3534.679</ele>
</trkpt>
<trkpt lat="31.6465974" lon="-6.2722849">
<ele>3556.523</ele>
</trkpt>
<trkpt lat="31.6473451" lon="-6.2708822">
<ele>3583.808</ele>
</trkpt>
<trkpt lat="31.6476532" lon="-6.2693103">
<ele>3564.27</ele>
</trkpt>
<trkpt lat="31.6485112" lon="-6.2679735">
<ele>3570.701</ele>
</trkpt>
<trkpt lat="31.6490526" lon="-6.2664218">
<ele>3563.533</ele>
</trkpt>
<trkpt lat="31.6499043" lon="-6.265145">
<ele>3582.697</ele>
</trkpt>
<trkpt lat="31.6509408" lon="-6.2640348">
<ele>3587.859</ele>
</trkpt>
<trkpt lat="31.6517036" lon="-6.262666">
<ele>3635.42</ele>
</trkpt>
<trkpt lat="31.6522162" lon="-6.2611321">
<ele>3692.307</ele>
</trkpt>
<trkpt lat="31.6528614" lon="-6.2596977">
<ele>3723.653</ele>
</trkpt>
<trkpt lat="31.6533589" lon="-6.2581384">
<ele>3738.243</ele>
</trkpt>
<trkpt lat="31.6538426" lon="-6.2566223">
<ele>3702.703</ele>
</trkpt>
<trkpt lat="31.6542273" lon="-6.2556984">
<ele>3739.611</ele>
</trkpt>
<trkpt lat="31.6547249" lon="-6.2541477">
<ele>3733.116</ele>
</trkpt>
<trkpt lat="31.6556501" lon="-6.252912">
<ele>3705.809</ele>
</trkpt>
<trkpt lat="31.6564275" lon="-6.2515514">
<ele>3715.333</ele>
</trkpt>
<trkpt lat="31.6570874" lon="-6.2501252">
<ele>3711.237</ele>
</trkpt>
<trkpt lat="31.6581768" lon="-6.2491335">
<ele>3709.508</ele>
</trkpt>
<trkpt lat="31.6592061" lon="-6.248032">
<ele>3684.888</ele>
</trkpt>
<trkpt lat="31.6603247" lon="-6.2470482">
<ele>3588.054</ele>
</trkpt>
<trkpt lat="31.6614435" lon="-6.2460729">
<ele>3492.545</ele>
</trkpt>
<trkpt lat="31.6624715" lon="-6.244903">
<ele>3405.193</ele>
</trkpt>
<trkpt lat="31.6636802" lon="-6.2440795">
<ele>3334.271</ele>
</trkpt>
<trkpt lat="31.6649878" lon="-6.2435187">
<ele>3273.004</ele>
</trkpt>
<trkpt lat="31.6663311" lon="-6.2429143">
<ele>3243.501</ele>
</trkpt>
<trkpt lat="31.6677646" lon="-6.2429063">
<ele>3219.139</ele>
</trkpt>
<trkpt lat="31.6691981" lon="-6.2433258">
<ele>3208.22</ele>
</trkpt>
<trkpt lat="31.6705449" lon="-6.2437901">
<ele>3215.25</ele>
</trkpt>
<trkpt lat="31.6718554" lon="-6.2442553">
<ele>3191.781</ele>
</trkpt>
<trkpt lat="31.6732211" lon="-6.2445482">
<ele>3173.434</ele>
</trkpt>
<trkpt lat="31.6746136" lon="-6.2447036">
<ele>3155.738</ele>
</trkpt>
<trkpt lat="31.6759959" lon="-6.2451158">
<ele>3135.737</ele>
</trkpt>
<trkpt lat="31.6772389" lon="-6.2458989">
<ele>3120.767</ele>
</trkpt>
<trkpt lat="31.6785366" lon="-6.2464755">
<ele>3075.471</ele>
</trkpt>
<trkpt lat="31.679778" lon="-6.2471646">
<ele>3041.044</ele>
</trkpt>
<trkpt lat="31.6809935" lon="-6.2480424">
<ele>3020.403</ele>
</trkpt>
<trkpt lat="31.6822851" lon="-6.2486961">
<ele>2986.177</ele>
</trkpt>
<trkpt lat="31.6835994" lon="-6.249392">
<ele>2957.231</ele>
</trkpt>
<trkpt lat="31.6848567" lon="-6.2501663">
<ele>2918.755</ele>
</trkpt>
<trkpt lat="31.6861396" lon="-6.2507347">
<ele>2903.498</ele>
</trkpt>
<trkpt lat="31.6874257" lon="-6.2514912">
<ele>2887.695</ele>
</trkpt>
<trkpt lat="31.688669" lon="-6.2522999">
<ele>2867.707</ele>
</trkpt>
<trkpt lat="31.6894921" lon="-6.2536401">
<ele>2863.627</ele>
</trkpt>
<trkpt lat="31.6904441" lon="-6.2548661">
<ele>2839.177</ele>
</trkpt>
<trkpt lat="31.6914182" lon="-6.2561001">
<ele>2811.012</ele>
</trkpt>
<trkpt lat="31.6923821" lon="-6.257172">
<ele>2764.41</ele>
</trkpt>
<trkpt lat="31.6931902" lon="-6.2584869">
<ele>2712.531</ele>
</trkpt>
<trkpt lat="31.6940698" lon="-6.2597317">
<ele>2669.585</ele>
</trkpt>
<trkpt lat="31.6951505" lon="-6.2608265">
<ele>2622.058</ele>
</trkpt>
<trkpt lat="31.6963288" lon="-6.261671">
<ele>2589.019</ele>
</trkpt>
<trkpt lat="31.6974595" lon="-6.2627046">
<ele>2566.944</ele>
</trkpt>
<trkpt lat="31.6987158" lon="-6.2634276">
<ele>2552.084</ele>
</trkpt>
<trkpt lat="31.7000519" lon="-6.2641487">
<ele>2543.0</ele>
</trkpt>
<trkpt lat="31.7013562" lon="-6.2646995">
<ele>2536.598</ele>
</trkpt>
<trkpt lat="31.7014951" lon="-6.264739">
<ele>2535.006</ele>
</trkpt>
<trkpt lat="31.702827" lon="-6.2652036">
<ele>2535.326</ele>
</trkpt>
<trkpt lat="31.7041734" lon="-6.265668">
<ele>2530.898</ele>
</trkpt>
<trkpt lat="31.7055764" lon="-6.2660454">
<ele>2538.476</ele>
</trkpt>
<trkpt lat="31.7069807" lon="-6.2660638">
<ele>2545.501</ele>
</trkpt>
<trkpt lat="31.7082982" lon="-6.2665459">
<ele>2553.553</ele>
</trkpt>
<trkpt lat="31.7086023" lon="-6.2681804">
<ele>2570.147</ele>
</trkpt>
<trkpt lat="31.7087176" lon="-6.2698279">
<ele>2539.134</ele>
</trkpt>
<trkpt lat="31.7086732" lon="-6.2714962">
<ele>2497.153</ele>
</trkpt>
<trkpt lat="31.7081386" lon="-6.2729966">
<ele>2488.762</ele>
</trkpt>
<trkpt lat="31.7082884" lon="-6.273677">
<ele>2469.99</ele>
</trkpt>
<trkpt lat="31.7079811" lon="-6.2752831">
<ele>2432.971</ele>
</trkpt>
<trkpt lat="31.7078853" lon="-6.2769271">
<ele>2423.01</ele>
</trkpt>
<trkpt lat="31.7075411" lon="-6.2784999">
<ele>2414.71</ele>
</trkpt>
<trkpt lat="31.7076774" lon="-6.2801041">
<ele>2397.118</ele>
</trkpt>
<trkpt lat="31.7082558" lon="-6.2816124">
<ele>2383.021</ele>
</trkpt>
<trkpt lat="31.7088839" lon="-6.2830427">
<ele>2381.262</ele>
</trkpt>
<trkpt lat="31.7081806" lon="-6.2844615">
<ele>2362.537</ele>
</trkpt>
<trkpt lat="31.7071222" lon="-6.285102">
<ele>2377.025</ele>
</trkpt>
<trkpt lat="31.7066533" lon="-6.2866179">
<ele>2321.834</ele>
</trkpt>
<trkpt lat="31.7054452" lon="-6.287433">
<ele>2330.352</ele>
</trkpt>
<trkpt lat="31.7042395" lon="-6.2883933">
<ele>2266.093</ele>
</trkpt>
<trkpt lat="31.7035283" lon="-6.289778">
<ele>2243.092</ele>
</trkpt>
<trkpt lat="31.7038026" lon="-6.2913705">
<ele>2250.603</ele>
</trkpt>
<trkpt lat="31.7038376" lon="-6.2921478">
<ele>2244.237</ele>
</trkpt>
<trkpt lat="31.7041846" lon="-6.2937299">
<ele>2229.976</ele>
</trkpt>
<trkpt lat="31.7046038" lon="-6.2952848">
<ele>2179.289</ele>
</trkpt>
<trkpt lat="31.7049806" lon="-6.2969091">
<ele>2157.464</ele>
</trkpt>
<trkpt lat="31.705544" lon="-6.2983836">
<ele>2149.547</ele>
</trkpt>
<trkpt lat="31.7060355" lon="-6.2999111">
<ele>2150.678</ele>
</trkpt>
<trkpt lat="31.7066066" lon="-6.3014196">
<ele>2133.909</ele>
</trkpt>
<trkpt lat="31.7075075" lon="-6.3026383">
<ele>2129.068</ele>
</trkpt>
</trkseg>
</trk>
</gpx>
