<?xml version="1.0" encoding="UTF-8"?>
<gpx version="1.1" creator="lgrs-site-migration" xmlns="http://www.topografix.com/GPX/1/1">
  <trk><name>maroc</name>
    <trkseg>
      <trkpt lat="31.1364159" lon="-7.9203426"></trkpt>
      <trkpt lat="31.1360772" lon="-7.9198914"></trkpt>
      <trkpt lat="31.1357499" lon="-7.9196645"></trkpt>
      <trkpt lat="31.1357021" lon="-7.9195117"></trkpt>
      <trkpt lat="31.1359036" lon="-7.919119"></trkpt>
      <trkpt lat="31.1363305" lon="-7.919103"></trkpt>
      <trkpt lat="31.1364478" lon="-7.9189895"></trkpt>
      <trkpt lat="31.1364603" lon="-7.9188301"></trkpt>
      <trkpt lat="31.1360817" lon="-7.918413"></trkpt>
      <trkpt lat="31.1360425" lon="-7.9180812"></trkpt>
      <trkpt lat="31.1360946" lon="-7.9179908"></trkpt>
      <trkpt lat="31.1365914" lon="-7.9179837"></trkpt>
      <trkpt lat="31.1366998" lon="-7.9177878"></trkpt>
      <trkpt lat="31.1367233" lon="-7.9174437"></trkpt>
      <trkpt lat="31.136648" lon="-7.9171649"></trkpt>
      <trkpt lat="31.1361358" lon="-7.9168883"></trkpt>
      <trkpt lat="31.1358095" lon="-7.9164759"></trkpt>
      <trkpt lat="31.1356846" lon="-7.9160483"></trkpt>
      <trkpt lat="31.135804" lon="-7.9153147"></trkpt>
      <trkpt lat="31.1362515" lon="-7.9146576"></trkpt>
      <trkpt lat="31.1361605" lon="-7.9144966"></trkpt>
      <trkpt lat="31.1361859" lon="-7.9145742"></trkpt>
      <trkpt lat="31.136324" lon="-7.9145093"></trkpt>
      <trkpt lat="31.1365178" lon="-7.914249"></trkpt>
      <trkpt lat="31.1367969" lon="-7.9129294"></trkpt>
      <trkpt lat="31.1373592" lon="-7.9123194"></trkpt>
      <trkpt lat="31.1374952" lon="-7.9116083"></trkpt>
      <trkpt lat="31.1379358" lon="-7.9105831"></trkpt>
      <trkpt lat="31.1380488" lon="-7.9100615"></trkpt>
      <trkpt lat="31.1390463" lon="-7.9084046"></trkpt>
      <trkpt lat="31.1392075" lon="-7.907833"></trkpt>
      <trkpt lat="31.1396045" lon="-7.9073173"></trkpt>
      <trkpt lat="31.1396571" lon="-7.9068259"></trkpt>
      <trkpt lat="31.1400563" lon="-7.9062192"></trkpt>
      <trkpt lat="31.1403613" lon="-7.9054655"></trkpt>
      <trkpt lat="31.1405088" lon="-7.9052918"></trkpt>
      <trkpt lat="31.1412965" lon="-7.9048668"></trkpt>
      <trkpt lat="31.1412488" lon="-7.9047242"></trkpt>
      <trkpt lat="31.1416917" lon="-7.9040687"></trkpt>
      <trkpt lat="31.1415788" lon="-7.9040261"></trkpt>
      <trkpt lat="31.1416269" lon="-7.9038187"></trkpt>
      <trkpt lat="31.1424187" lon="-7.9026515"></trkpt>
      <trkpt lat="31.1425383" lon="-7.9026059"></trkpt>
      <trkpt lat="31.142527" lon="-7.9024554"></trkpt>
      <trkpt lat="31.1427424" lon="-7.9020237"></trkpt>
      <trkpt lat="31.1428951" lon="-7.9020432"></trkpt>
      <trkpt lat="31.142911" lon="-7.9022947"></trkpt>
      <trkpt lat="31.1430464" lon="-7.9021262"></trkpt>
      <trkpt lat="31.1431573" lon="-7.9016306"></trkpt>
      <trkpt lat="31.1433592" lon="-7.9013241"></trkpt>
      <trkpt lat="31.1433803" lon="-7.9006586"></trkpt>
      <trkpt lat="31.1435377" lon="-7.9003638"></trkpt>
      <trkpt lat="31.1432407" lon="-7.8997099"></trkpt>
      <trkpt lat="31.1433679" lon="-7.8987644"></trkpt>
      <trkpt lat="31.143243" lon="-7.8984513"></trkpt>
      <trkpt lat="31.1434533" lon="-7.8977745"></trkpt>
      <trkpt lat="31.1436622" lon="-7.897477"></trkpt>
      <trkpt lat="31.1437695" lon="-7.8968871"></trkpt>
      <trkpt lat="31.1440244" lon="-7.8962972"></trkpt>
      <trkpt lat="31.1442214" lon="-7.8963016"></trkpt>
      <trkpt lat="31.1442255" lon="-7.8956753"></trkpt>
      <trkpt lat="31.1443454" lon="-7.8955303"></trkpt>
      <trkpt lat="31.1445082" lon="-7.8956264"></trkpt>
      <trkpt lat="31.1445537" lon="-7.8951842"></trkpt>
      <trkpt lat="31.1448767" lon="-7.8946328"></trkpt>
      <trkpt lat="31.1452785" lon="-7.8943354"></trkpt>
      <trkpt lat="31.1453894" lon="-7.8944249"></trkpt>
      <trkpt lat="31.1454645" lon="-7.8943176"></trkpt>
      <trkpt lat="31.1455896" lon="-7.8943351"></trkpt>
      <trkpt lat="31.1456311" lon="-7.8941867"></trkpt>
      <trkpt lat="31.1457791" lon="-7.894168"></trkpt>
      <trkpt lat="31.145964" lon="-7.8939579"></trkpt>
      <trkpt lat="31.1461101" lon="-7.894084"></trkpt>
      <trkpt lat="31.1464371" lon="-7.8939331"></trkpt>
      <trkpt lat="31.1468194" lon="-7.8935379"></trkpt>
      <trkpt lat="31.1469615" lon="-7.8932472"></trkpt>
      <trkpt lat="31.147076" lon="-7.8935247"></trkpt>
      <trkpt lat="31.1475571" lon="-7.8922703"></trkpt>
      <trkpt lat="31.1475381" lon="-7.8918827"></trkpt>
      <trkpt lat="31.1477625" lon="-7.8919551"></trkpt>
      <trkpt lat="31.1476851" lon="-7.891385"></trkpt>
      <trkpt lat="31.1478675" lon="-7.8915514"></trkpt>
      <trkpt lat="31.1482495" lon="-7.8916167"></trkpt>
      <trkpt lat="31.1480352" lon="-7.8910189"></trkpt>
      <trkpt lat="31.1476283" lon="-7.8903659"></trkpt>
      <trkpt lat="31.1481252" lon="-7.8904658"></trkpt>
      <trkpt lat="31.1485766" lon="-7.8906697"></trkpt>
      <trkpt lat="31.1482901" lon="-7.8901408"></trkpt>
      <trkpt lat="31.148032" lon="-7.889141"></trkpt>
      <trkpt lat="31.1481094" lon="-7.8888876"></trkpt>
      <trkpt lat="31.1482552" lon="-7.8887845"></trkpt>
      <trkpt lat="31.1483552" lon="-7.888789"></trkpt>
      <trkpt lat="31.1483741" lon="-7.8888999"></trkpt>
      <trkpt lat="31.1483479" lon="-7.8887604"></trkpt>
      <trkpt lat="31.1481827" lon="-7.8887823"></trkpt>
      <trkpt lat="31.1481341" lon="-7.8885566"></trkpt>
      <trkpt lat="31.1482151" lon="-7.8869704"></trkpt>
      <trkpt lat="31.1478364" lon="-7.8857873"></trkpt>
      <trkpt lat="31.1473751" lon="-7.8849959"></trkpt>
      <trkpt lat="31.1469609" lon="-7.884701"></trkpt>
      <trkpt lat="31.1466748" lon="-7.8837539"></trkpt>
      <trkpt lat="31.1468507" lon="-7.8832596"></trkpt>
      <trkpt lat="31.1471868" lon="-7.8827607"></trkpt>
      <trkpt lat="31.1476701" lon="-7.8825795"></trkpt>
      <trkpt lat="31.1486184" lon="-7.8820266"></trkpt>
      <trkpt lat="31.1487893" lon="-7.881276"></trkpt>
      <trkpt lat="31.1486317" lon="-7.8809826"></trkpt>
      <trkpt lat="31.1481496" lon="-7.8806382"></trkpt>
      <trkpt lat="31.1472046" lon="-7.8794774"></trkpt>
      <trkpt lat="31.1468428" lon="-7.8792785"></trkpt>
      <trkpt lat="31.1466132" lon="-7.8788283"></trkpt>
      <trkpt lat="31.1465544" lon="-7.8785051"></trkpt>
      <trkpt lat="31.1463282" lon="-7.8781548"></trkpt>
      <trkpt lat="31.1466045" lon="-7.8777617"></trkpt>
      <trkpt lat="31.1474746" lon="-7.8772325"></trkpt>
      <trkpt lat="31.1475745" lon="-7.8767624"></trkpt>
      <trkpt lat="31.1482187" lon="-7.875733"></trkpt>
      <trkpt lat="31.1483534" lon="-7.8747044"></trkpt>
      <trkpt lat="31.1486971" lon="-7.8742464"></trkpt>
      <trkpt lat="31.1487657" lon="-7.873956"></trkpt>
      <trkpt lat="31.1476114" lon="-7.8724234"></trkpt>
      <trkpt lat="31.147048" lon="-7.871858"></trkpt>
      <trkpt lat="31.1470786" lon="-7.8715183"></trkpt>
      <trkpt lat="31.1474335" lon="-7.8712043"></trkpt>
      <trkpt lat="31.1473539" lon="-7.8709263"></trkpt>
      <trkpt lat="31.147406" lon="-7.8706689"></trkpt>
      <trkpt lat="31.1476346" lon="-7.8703546"></trkpt>
      <trkpt lat="31.1476122" lon="-7.8702037"></trkpt>
      <trkpt lat="31.1474408" lon="-7.8701919"></trkpt>
      <trkpt lat="31.1474316" lon="-7.8698824"></trkpt>
      <trkpt lat="31.147259" lon="-7.8698739"></trkpt>
      <trkpt lat="31.1472246" lon="-7.8697281"></trkpt>
      <trkpt lat="31.1469646" lon="-7.8697984"></trkpt>
      <trkpt lat="31.1468579" lon="-7.8694556"></trkpt>
      <trkpt lat="31.1462617" lon="-7.8696208"></trkpt>
      <trkpt lat="31.1461808" lon="-7.869392"></trkpt>
      <trkpt lat="31.1458655" lon="-7.8695908"></trkpt>
      <trkpt lat="31.145637" lon="-7.8693018"></trkpt>
      <trkpt lat="31.145489" lon="-7.8693994"></trkpt>
      <trkpt lat="31.1453309" lon="-7.8693082"></trkpt>
      <trkpt lat="31.1452295" lon="-7.8694312"></trkpt>
      <trkpt lat="31.1451541" lon="-7.8693018"></trkpt>
      <trkpt lat="31.1450893" lon="-7.8693846"></trkpt>
      <trkpt lat="31.1449955" lon="-7.8692747"></trkpt>
      <trkpt lat="31.144891" lon="-7.8694489"></trkpt>
      <trkpt lat="31.1448161" lon="-7.8693159"></trkpt>
      <trkpt lat="31.14465" lon="-7.8696278"></trkpt>
      <trkpt lat="31.1445241" lon="-7.8694682"></trkpt>
      <trkpt lat="31.1443601" lon="-7.8696284"></trkpt>
      <trkpt lat="31.1442442" lon="-7.8694516"></trkpt>
      <trkpt lat="31.144056" lon="-7.8694516"></trkpt>
      <trkpt lat="31.1440023" lon="-7.8695458"></trkpt>
      <trkpt lat="31.1437385" lon="-7.8693201"></trkpt>
      <trkpt lat="31.1435571" lon="-7.8694844"></trkpt>
      <trkpt lat="31.1434145" lon="-7.8693825"></trkpt>
      <trkpt lat="31.1442851" lon="-7.869814"></trkpt>
      <trkpt lat="31.1449174" lon="-7.8699771"></trkpt>
      <trkpt lat="31.1451543" lon="-7.869883"></trkpt>
      <trkpt lat="31.1453584" lon="-7.8699264"></trkpt>
      <trkpt lat="31.1455152" lon="-7.870018"></trkpt>
      <trkpt lat="31.1457252" lon="-7.8703473"></trkpt>
      <trkpt lat="31.1459561" lon="-7.8703937"></trkpt>
      <trkpt lat="31.1460536" lon="-7.8705242"></trkpt>
      <trkpt lat="31.146785" lon="-7.8705414"></trkpt>
      <trkpt lat="31.1471483" lon="-7.8708119"></trkpt>
      <trkpt lat="31.1474019" lon="-7.8708282"></trkpt>
      <trkpt lat="31.1475697" lon="-7.8709872"></trkpt>
      <trkpt lat="31.1483892" lon="-7.8707386"></trkpt>
      <trkpt lat="31.148554" lon="-7.8706163"></trkpt>
      <trkpt lat="31.1493021" lon="-7.8690174"></trkpt>
      <trkpt lat="31.1492573" lon="-7.8687464"></trkpt>
      <trkpt lat="31.1481033" lon="-7.868101"></trkpt>
      <trkpt lat="31.1480995" lon="-7.8676848"></trkpt>
      <trkpt lat="31.1479059" lon="-7.8673542"></trkpt>
      <trkpt lat="31.1479456" lon="-7.8672638"></trkpt>
      <trkpt lat="31.1486485" lon="-7.8669991"></trkpt>
      <trkpt lat="31.1491409" lon="-7.8665049"></trkpt>
      <trkpt lat="31.1495817" lon="-7.8643384"></trkpt>
      <trkpt lat="31.149479" lon="-7.8640706"></trkpt>
      <trkpt lat="31.1488205" lon="-7.8633077"></trkpt>
      <trkpt lat="31.1486254" lon="-7.8627342"></trkpt>
      <trkpt lat="31.1486436" lon="-7.8624076"></trkpt>
      <trkpt lat="31.1492044" lon="-7.862069"></trkpt>
      <trkpt lat="31.1493428" lon="-7.8615637"></trkpt>
      <trkpt lat="31.1492858" lon="-7.8614017"></trkpt>
      <trkpt lat="31.1488096" lon="-7.8611147"></trkpt>
      <trkpt lat="31.1487541" lon="-7.8609172"></trkpt>
      <trkpt lat="31.1490508" lon="-7.8605634"></trkpt>
      <trkpt lat="31.1490896" lon="-7.860164"></trkpt>
      <trkpt lat="31.1492575" lon="-7.860036"></trkpt>
      <trkpt lat="31.1494558" lon="-7.8599505"></trkpt>
      <trkpt lat="31.149801" lon="-7.8599553"></trkpt>
      <trkpt lat="31.1509161" lon="-7.8602426"></trkpt>
      <trkpt lat="31.1510394" lon="-7.8601087"></trkpt>
      <trkpt lat="31.1511032" lon="-7.8597278"></trkpt>
      <trkpt lat="31.1510289" lon="-7.8576328"></trkpt>
      <trkpt lat="31.1507203" lon="-7.8570596"></trkpt>
      <trkpt lat="31.1507823" lon="-7.8566787"></trkpt>
      <trkpt lat="31.1501687" lon="-7.8557404"></trkpt>
      <trkpt lat="31.1499493" lon="-7.8549727"></trkpt>
      <trkpt lat="31.1495295" lon="-7.854572"></trkpt>
      <trkpt lat="31.1489767" lon="-7.8544176"></trkpt>
      <trkpt lat="31.1493124" lon="-7.8538303"></trkpt>
      <trkpt lat="31.1501536" lon="-7.8533782"></trkpt>
      <trkpt lat="31.1502346" lon="-7.8529374"></trkpt>
      <trkpt lat="31.1500969" lon="-7.8526112"></trkpt>
      <trkpt lat="31.1498049" lon="-7.8524884"></trkpt>
      <trkpt lat="31.1496905" lon="-7.8523086"></trkpt>
      <trkpt lat="31.1499541" lon="-7.8514501"></trkpt>
      <trkpt lat="31.15006" lon="-7.8507778"></trkpt>
      <trkpt lat="31.149853" lon="-7.8503453"></trkpt>
      <trkpt lat="31.1490802" lon="-7.8495487"></trkpt>
      <trkpt lat="31.1491927" lon="-7.8492558"></trkpt>
      <trkpt lat="31.149115" lon="-7.8488768"></trkpt>
      <trkpt lat="31.1492203" lon="-7.8486587"></trkpt>
      <trkpt lat="31.1495343" lon="-7.8485083"></trkpt>
      <trkpt lat="31.1497911" lon="-7.848147"></trkpt>
      <trkpt lat="31.1500039" lon="-7.8475413"></trkpt>
      <trkpt lat="31.1500755" lon="-7.8470273"></trkpt>
      <trkpt lat="31.1501985" lon="-7.8469778"></trkpt>
      <trkpt lat="31.1504073" lon="-7.8470797"></trkpt>
      <trkpt lat="31.1510928" lon="-7.8471683"></trkpt>
      <trkpt lat="31.1509831" lon="-7.8467271"></trkpt>
      <trkpt lat="31.1507755" lon="-7.8462061"></trkpt>
      <trkpt lat="31.1505438" lon="-7.8459023"></trkpt>
      <trkpt lat="31.150533" lon="-7.8457271"></trkpt>
      <trkpt lat="31.1514217" lon="-7.8447472"></trkpt>
      <trkpt lat="31.1520471" lon="-7.8447134"></trkpt>
      <trkpt lat="31.1523335" lon="-7.8444919"></trkpt>
      <trkpt lat="31.1524106" lon="-7.8439188"></trkpt>
      <trkpt lat="31.1527365" lon="-7.8438993"></trkpt>
      <trkpt lat="31.1531168" lon="-7.8433281"></trkpt>
      <trkpt lat="31.1531685" lon="-7.8431154"></trkpt>
      <trkpt lat="31.1529907" lon="-7.842733"></trkpt>
      <trkpt lat="31.1529415" lon="-7.8419595"></trkpt>
      <trkpt lat="31.1532194" lon="-7.8411972"></trkpt>
      <trkpt lat="31.1533743" lon="-7.8400872"></trkpt>
      <trkpt lat="31.1538149" lon="-7.8402185"></trkpt>
      <trkpt lat="31.1536919" lon="-7.8405153"></trkpt>
      <trkpt lat="31.153725" lon="-7.8407549"></trkpt>
      <trkpt lat="31.154155" lon="-7.8420071"></trkpt>
      <trkpt lat="31.154609" lon="-7.8426132"></trkpt>
      <trkpt lat="31.1546834" lon="-7.8426132"></trkpt>
      <trkpt lat="31.1545917" lon="-7.8424183"></trkpt>
      <trkpt lat="31.1546936" lon="-7.8424297"></trkpt>
      <trkpt lat="31.1550159" lon="-7.8427813"></trkpt>
      <trkpt lat="31.1552422" lon="-7.843868"></trkpt>
      <trkpt lat="31.1554555" lon="-7.844088"></trkpt>
      <trkpt lat="31.1555967" lon="-7.8444284"></trkpt>
      <trkpt lat="31.1555759" lon="-7.8446976"></trkpt>
      <trkpt lat="31.1558423" lon="-7.8448095"></trkpt>
      <trkpt lat="31.1560019" lon="-7.844762"></trkpt>
      <trkpt lat="31.1559482" lon="-7.8450557"></trkpt>
      <trkpt lat="31.1560243" lon="-7.8453589"></trkpt>
      <trkpt lat="31.1563405" lon="-7.8456452"></trkpt>
      <trkpt lat="31.1566011" lon="-7.8457106"></trkpt>
      <trkpt lat="31.1566596" lon="-7.8458695"></trkpt>
      <trkpt lat="31.1565877" lon="-7.8461256"></trkpt>
      <trkpt lat="31.1568061" lon="-7.8459794"></trkpt>
      <trkpt lat="31.1570987" lon="-7.8463661"></trkpt>
      <trkpt lat="31.1571517" lon="-7.8465661"></trkpt>
      <trkpt lat="31.1572762" lon="-7.8463291"></trkpt>
      <trkpt lat="31.1572534" lon="-7.8463789"></trkpt>
      <trkpt lat="31.1569873" lon="-7.8461501"></trkpt>
      <trkpt lat="31.1571518" lon="-7.8464783"></trkpt>
      <trkpt lat="31.1572969" lon="-7.8471714"></trkpt>
      <trkpt lat="31.1572117" lon="-7.8475258"></trkpt>
      <trkpt lat="31.1577404" lon="-7.8480405"></trkpt>
      <trkpt lat="31.157631" lon="-7.8488284"></trkpt>
      <trkpt lat="31.1579548" lon="-7.8490144"></trkpt>
      <trkpt lat="31.15779" lon="-7.8493111"></trkpt>
      <trkpt lat="31.1577232" lon="-7.8497259"></trkpt>
      <trkpt lat="31.1575674" lon="-7.8498211"></trkpt>
      <trkpt lat="31.1575852" lon="-7.8499318"></trkpt>
      <trkpt lat="31.1576839" lon="-7.8501156"></trkpt>
      <trkpt lat="31.1579095" lon="-7.850163"></trkpt>
      <trkpt lat="31.1580979" lon="-7.8507379"></trkpt>
      <trkpt lat="31.1584069" lon="-7.8508636"></trkpt>
      <trkpt lat="31.1589272" lon="-7.8515759"></trkpt>
      <trkpt lat="31.1591737" lon="-7.8520611"></trkpt>
      <trkpt lat="31.1594395" lon="-7.8531447"></trkpt>
      <trkpt lat="31.1596638" lon="-7.8535897"></trkpt>
      <trkpt lat="31.1598374" lon="-7.8536955"></trkpt>
      <trkpt lat="31.1599103" lon="-7.8539504"></trkpt>
      <trkpt lat="31.1599113" lon="-7.8544548"></trkpt>
      <trkpt lat="31.1597804" lon="-7.8548645"></trkpt>
      <trkpt lat="31.1598527" lon="-7.855387"></trkpt>
      <trkpt lat="31.15978" lon="-7.8556161"></trkpt>
      <trkpt lat="31.1596185" lon="-7.8556553"></trkpt>
      <trkpt lat="31.1598585" lon="-7.8564183"></trkpt>
      <trkpt lat="31.1598383" lon="-7.8572301"></trkpt>
      <trkpt lat="31.1595949" lon="-7.8577122"></trkpt>
      <trkpt lat="31.1596016" lon="-7.8578954"></trkpt>
      <trkpt lat="31.1596954" lon="-7.8580286"></trkpt>
      <trkpt lat="31.1603341" lon="-7.8578884"></trkpt>
      <trkpt lat="31.1609793" lon="-7.8580264"></trkpt>
      <trkpt lat="31.1610206" lon="-7.8582866"></trkpt>
      <trkpt lat="31.1612913" lon="-7.8584416"></trkpt>
      <trkpt lat="31.1614978" lon="-7.8590075"></trkpt>
      <trkpt lat="31.1616059" lon="-7.8589998"></trkpt>
      <trkpt lat="31.1621065" lon="-7.8593073"></trkpt>
      <trkpt lat="31.162244" lon="-7.8602592"></trkpt>
      <trkpt lat="31.161931" lon="-7.861097"></trkpt>
      <trkpt lat="31.161861" lon="-7.8615324"></trkpt>
      <trkpt lat="31.1622363" lon="-7.8616587"></trkpt>
      <trkpt lat="31.1624019" lon="-7.8615484"></trkpt>
      <trkpt lat="31.1625066" lon="-7.8615742"></trkpt>
      <trkpt lat="31.1628006" lon="-7.8619424"></trkpt>
      <trkpt lat="31.1630765" lon="-7.8621178"></trkpt>
      <trkpt lat="31.1632847" lon="-7.8624292"></trkpt>
      <trkpt lat="31.1635365" lon="-7.8632744"></trkpt>
      <trkpt lat="31.1637848" lon="-7.8635856"></trkpt>
      <trkpt lat="31.164822" lon="-7.8637477"></trkpt>
      <trkpt lat="31.1653634" lon="-7.8632836"></trkpt>
      <trkpt lat="31.1660042" lon="-7.8630368"></trkpt>
      <trkpt lat="31.1661038" lon="-7.8630789"></trkpt>
      <trkpt lat="31.1663373" lon="-7.8637247"></trkpt>
      <trkpt lat="31.166724" lon="-7.8639601"></trkpt>
      <trkpt lat="31.1668098" lon="-7.863942"></trkpt>
      <trkpt lat="31.1667898" lon="-7.8637488"></trkpt>
      <trkpt lat="31.1669812" lon="-7.8639792"></trkpt>
      <trkpt lat="31.167054" lon="-7.8637242"></trkpt>
      <trkpt lat="31.1672479" lon="-7.8635246"></trkpt>
      <trkpt lat="31.1675588" lon="-7.8635627"></trkpt>
      <trkpt lat="31.1677188" lon="-7.8630031"></trkpt>
      <trkpt lat="31.1682072" lon="-7.8625403"></trkpt>
      <trkpt lat="31.1703809" lon="-7.8615815"></trkpt>
      <trkpt lat="31.1704556" lon="-7.8613792"></trkpt>
      <trkpt lat="31.1706397" lon="-7.8613467"></trkpt>
      <trkpt lat="31.170902" lon="-7.8614476"></trkpt>
      <trkpt lat="31.1710085" lon="-7.8611141"></trkpt>
      <trkpt lat="31.1707991" lon="-7.8609271"></trkpt>
      <trkpt lat="31.170703" lon="-7.8606634"></trkpt>
      <trkpt lat="31.1705035" lon="-7.8605474"></trkpt>
      <trkpt lat="31.1705784" lon="-7.8604856"></trkpt>
      <trkpt lat="31.1711098" lon="-7.8602643"></trkpt>
      <trkpt lat="31.171457" lon="-7.8603994"></trkpt>
      <trkpt lat="31.1718778" lon="-7.8604274"></trkpt>
      <trkpt lat="31.1716699" lon="-7.8601383"></trkpt>
      <trkpt lat="31.1716714" lon="-7.8599747"></trkpt>
      <trkpt lat="31.1719893" lon="-7.8588641"></trkpt>
      <trkpt lat="31.1719538" lon="-7.8582805"></trkpt>
      <trkpt lat="31.1721249" lon="-7.8584736"></trkpt>
      <trkpt lat="31.1722152" lon="-7.8583685"></trkpt>
      <trkpt lat="31.1720141" lon="-7.8575684"></trkpt>
      <trkpt lat="31.1723191" lon="-7.8576587"></trkpt>
      <trkpt lat="31.1720675" lon="-7.8570001"></trkpt>
      <trkpt lat="31.1723818" lon="-7.8570679"></trkpt>
      <trkpt lat="31.1723852" lon="-7.8570131"></trkpt>
      <trkpt lat="31.1721385" lon="-7.8566259"></trkpt>
      <trkpt lat="31.1723062" lon="-7.8565313"></trkpt>
      <trkpt lat="31.172119" lon="-7.8562921"></trkpt>
      <trkpt lat="31.1722497" lon="-7.8562561"></trkpt>
      <trkpt lat="31.1724152" lon="-7.8563425"></trkpt>
      <trkpt lat="31.1723633" lon="-7.8559756"></trkpt>
      <trkpt lat="31.1722446" lon="-7.8557639"></trkpt>
      <trkpt lat="31.1725358" lon="-7.8558339"></trkpt>
      <trkpt lat="31.1724988" lon="-7.8554896"></trkpt>
      <trkpt lat="31.1726454" lon="-7.8555967"></trkpt>
      <trkpt lat="31.1727316" lon="-7.8552635"></trkpt>
      <trkpt lat="31.1728304" lon="-7.8553739"></trkpt>
      <trkpt lat="31.1728717" lon="-7.855279"></trkpt>
      <trkpt lat="31.1727436" lon="-7.854957"></trkpt>
      <trkpt lat="31.1723241" lon="-7.8547535"></trkpt>
      <trkpt lat="31.1724645" lon="-7.8546255"></trkpt>
      <trkpt lat="31.1722132" lon="-7.854536"></trkpt>
      <trkpt lat="31.1723226" lon="-7.8544399"></trkpt>
      <trkpt lat="31.1723242" lon="-7.8543096"></trkpt>
      <trkpt lat="31.172719" lon="-7.8542056"></trkpt>
      <trkpt lat="31.1726892" lon="-7.8540567"></trkpt>
      <trkpt lat="31.1723746" lon="-7.8538599"></trkpt>
      <trkpt lat="31.1725718" lon="-7.8538367"></trkpt>
      <trkpt lat="31.172381" lon="-7.8536136"></trkpt>
      <trkpt lat="31.1725368" lon="-7.8535784"></trkpt>
      <trkpt lat="31.1722817" lon="-7.8531787"></trkpt>
      <trkpt lat="31.1726499" lon="-7.853213"></trkpt>
      <trkpt lat="31.1723031" lon="-7.8526011"></trkpt>
      <trkpt lat="31.1727253" lon="-7.8526559"></trkpt>
      <trkpt lat="31.1726017" lon="-7.8522624"></trkpt>
      <trkpt lat="31.1723551" lon="-7.8520182"></trkpt>
      <trkpt lat="31.1726233" lon="-7.8519144"></trkpt>
      <trkpt lat="31.1725053" lon="-7.8513368"></trkpt>
      <trkpt lat="31.1727814" lon="-7.8511196"></trkpt>
      <trkpt lat="31.1730013" lon="-7.8506053"></trkpt>
      <trkpt lat="31.1729696" lon="-7.8496187"></trkpt>
      <trkpt lat="31.1728431" lon="-7.8492359"></trkpt>
      <trkpt lat="31.1729247" lon="-7.8487681"></trkpt>
      <trkpt lat="31.173076" lon="-7.8487007"></trkpt>
      <trkpt lat="31.1731058" lon="-7.847927"></trkpt>
      <trkpt lat="31.1733482" lon="-7.8474952"></trkpt>
      <trkpt lat="31.1740198" lon="-7.8472592"></trkpt>
      <trkpt lat="31.1746278" lon="-7.847448"></trkpt>
      <trkpt lat="31.1747801" lon="-7.8473944"></trkpt>
      <trkpt lat="31.1750074" lon="-7.8465739"></trkpt>
      <trkpt lat="31.1749128" lon="-7.8458399"></trkpt>
      <trkpt lat="31.1753898" lon="-7.8450627"></trkpt>
      <trkpt lat="31.1760624" lon="-7.8443883"></trkpt>
      <trkpt lat="31.1764624" lon="-7.8438565"></trkpt>
      <trkpt lat="31.1766636" lon="-7.8438077"></trkpt>
      <trkpt lat="31.1776309" lon="-7.8439294"></trkpt>
      <trkpt lat="31.1783213" lon="-7.8441084"></trkpt>
      <trkpt lat="31.179233" lon="-7.8440668"></trkpt>
      <trkpt lat="31.1790741" lon="-7.8435419"></trkpt>
      <trkpt lat="31.1792606" lon="-7.843227"></trkpt>
      <trkpt lat="31.1792517" lon="-7.8430128"></trkpt>
      <trkpt lat="31.1790484" lon="-7.8430652"></trkpt>
      <trkpt lat="31.17903" lon="-7.8428511"></trkpt>
      <trkpt lat="31.1788525" lon="-7.8428821"></trkpt>
      <trkpt lat="31.178595" lon="-7.8427683"></trkpt>
      <trkpt lat="31.1787558" lon="-7.8425042"></trkpt>
      <trkpt lat="31.1784082" lon="-7.8422784"></trkpt>
      <trkpt lat="31.1786207" lon="-7.8421619"></trkpt>
      <trkpt lat="31.1784001" lon="-7.8419185"></trkpt>
      <trkpt lat="31.1779557" lon="-7.8410322"></trkpt>
      <trkpt lat="31.1781021" lon="-7.841104"></trkpt>
      <trkpt lat="31.1780773" lon="-7.8405401"></trkpt>
      <trkpt lat="31.1777845" lon="-7.8400787"></trkpt>
      <trkpt lat="31.1779451" lon="-7.8400909"></trkpt>
      <trkpt lat="31.1778677" lon="-7.8399725"></trkpt>
      <trkpt lat="31.1778696" lon="-7.839336"></trkpt>
      <trkpt lat="31.1777752" lon="-7.8392834"></trkpt>
      <trkpt lat="31.177901" lon="-7.8392818"></trkpt>
      <trkpt lat="31.1780203" lon="-7.8388178"></trkpt>
      <trkpt lat="31.1780819" lon="-7.8379111"></trkpt>
      <trkpt lat="31.1779274" lon="-7.8375652"></trkpt>
      <trkpt lat="31.1776668" lon="-7.8372735"></trkpt>
      <trkpt lat="31.1776455" lon="-7.8355714"></trkpt>
      <trkpt lat="31.1774837" lon="-7.8352201"></trkpt>
      <trkpt lat="31.17773" lon="-7.8351851"></trkpt>
      <trkpt lat="31.1776379" lon="-7.8349257"></trkpt>
      <trkpt lat="31.1778204" lon="-7.8348667"></trkpt>
      <trkpt lat="31.1780398" lon="-7.8349641"></trkpt>
      <trkpt lat="31.1779608" lon="-7.8344596"></trkpt>
      <trkpt lat="31.1781331" lon="-7.8344865"></trkpt>
      <trkpt lat="31.1778921" lon="-7.8339994"></trkpt>
      <trkpt lat="31.1779778" lon="-7.8339263"></trkpt>
      <trkpt lat="31.1781557" lon="-7.8339633"></trkpt>
      <trkpt lat="31.1779592" lon="-7.8335256"></trkpt>
      <trkpt lat="31.1781934" lon="-7.8335701"></trkpt>
      <trkpt lat="31.1780522" lon="-7.833023"></trkpt>
      <trkpt lat="31.1782629" lon="-7.8330766"></trkpt>
      <trkpt lat="31.1781858" lon="-7.832653"></trkpt>
      <trkpt lat="31.1785435" lon="-7.8328993"></trkpt>
      <trkpt lat="31.1785031" lon="-7.8321581"></trkpt>
      <trkpt lat="31.1787598" lon="-7.8323159"></trkpt>
      <trkpt lat="31.1786869" lon="-7.8320465"></trkpt>
      <trkpt lat="31.1787505" lon="-7.8319588"></trkpt>
      <trkpt lat="31.1786361" lon="-7.8318077"></trkpt>
      <trkpt lat="31.1786194" lon="-7.8316005"></trkpt>
      <trkpt lat="31.1789436" lon="-7.8317106"></trkpt>
      <trkpt lat="31.1785139" lon="-7.8307205"></trkpt>
      <trkpt lat="31.1783926" lon="-7.8301639"></trkpt>
      <trkpt lat="31.178218" lon="-7.8299365"></trkpt>
      <trkpt lat="31.1785041" lon="-7.8299673"></trkpt>
      <trkpt lat="31.1783557" lon="-7.829657"></trkpt>
      <trkpt lat="31.1784616" lon="-7.8295895"></trkpt>
      <trkpt lat="31.1789913" lon="-7.829911"></trkpt>
      <trkpt lat="31.1788578" lon="-7.8294092"></trkpt>
      <trkpt lat="31.1785345" lon="-7.8287476"></trkpt>
      <trkpt lat="31.178915" lon="-7.8288825"></trkpt>
      <trkpt lat="31.1792871" lon="-7.8288833"></trkpt>
      <trkpt lat="31.179565" lon="-7.8290936"></trkpt>
      <trkpt lat="31.1793642" lon="-7.828424"></trkpt>
      <trkpt lat="31.1789738" lon="-7.8278539"></trkpt>
      <trkpt lat="31.1795319" lon="-7.8278537"></trkpt>
      <trkpt lat="31.1793512" lon="-7.8273708"></trkpt>
      <trkpt lat="31.1793943" lon="-7.8271274"></trkpt>
      <trkpt lat="31.1802295" lon="-7.8276004"></trkpt>
      <trkpt lat="31.1804229" lon="-7.8275851"></trkpt>
      <trkpt lat="31.1804645" lon="-7.8276815"></trkpt>
      <trkpt lat="31.1805703" lon="-7.8276847"></trkpt>
      <trkpt lat="31.1806363" lon="-7.8279729"></trkpt>
      <trkpt lat="31.1807928" lon="-7.8278408"></trkpt>
      <trkpt lat="31.1808896" lon="-7.8275789"></trkpt>
      <trkpt lat="31.1807336" lon="-7.8281689"></trkpt>
      <trkpt lat="31.1809165" lon="-7.8292871"></trkpt>
      <trkpt lat="31.1810611" lon="-7.829629"></trkpt>
      <trkpt lat="31.1809091" lon="-7.8284563"></trkpt>
      <trkpt lat="31.1807591" lon="-7.8281734"></trkpt>
      <trkpt lat="31.1808987" lon="-7.8271564"></trkpt>
      <trkpt lat="31.1808731" lon="-7.8271021"></trkpt>
      <trkpt lat="31.1804854" lon="-7.8272767"></trkpt>
      <trkpt lat="31.1803522" lon="-7.8272177"></trkpt>
      <trkpt lat="31.180295" lon="-7.8270476"></trkpt>
      <trkpt lat="31.1804768" lon="-7.8254398"></trkpt>
      <trkpt lat="31.1806177" lon="-7.8253534"></trkpt>
      <trkpt lat="31.1805144" lon="-7.8251344"></trkpt>
      <trkpt lat="31.1804846" lon="-7.8247466"></trkpt>
      <trkpt lat="31.1805707" lon="-7.8238594"></trkpt>
      <trkpt lat="31.1804734" lon="-7.8231451"></trkpt>
      <trkpt lat="31.1804843" lon="-7.822251"></trkpt>
      <trkpt lat="31.1807395" lon="-7.8213743"></trkpt>
      <trkpt lat="31.1807255" lon="-7.8209905"></trkpt>
      <trkpt lat="31.1809766" lon="-7.8207805"></trkpt>
      <trkpt lat="31.1808293" lon="-7.8200459"></trkpt>
      <trkpt lat="31.1806828" lon="-7.8200053"></trkpt>
      <trkpt lat="31.1810695" lon="-7.8192619"></trkpt>
      <trkpt lat="31.1809692" lon="-7.8191074"></trkpt>
      <trkpt lat="31.1807529" lon="-7.8178067"></trkpt>
      <trkpt lat="31.1809458" lon="-7.8170007"></trkpt>
      <trkpt lat="31.1812208" lon="-7.8166276"></trkpt>
      <trkpt lat="31.1811866" lon="-7.8162854"></trkpt>
      <trkpt lat="31.1813185" lon="-7.8158965"></trkpt>
      <trkpt lat="31.1817072" lon="-7.81509"></trkpt>
      <trkpt lat="31.1821128" lon="-7.8145264"></trkpt>
      <trkpt lat="31.1822225" lon="-7.8141265"></trkpt>
      <trkpt lat="31.1821714" lon="-7.8133646"></trkpt>
      <trkpt lat="31.182345" lon="-7.8129721"></trkpt>
      <trkpt lat="31.1824314" lon="-7.8121989"></trkpt>
      <trkpt lat="31.1822537" lon="-7.8114064"></trkpt>
      <trkpt lat="31.1822506" lon="-7.8108861"></trkpt>
      <trkpt lat="31.1826701" lon="-7.8096605"></trkpt>
      <trkpt lat="31.1830677" lon="-7.8096084"></trkpt>
      <trkpt lat="31.1829712" lon="-7.8079353"></trkpt>
      <trkpt lat="31.1830273" lon="-7.8078442"></trkpt>
      <trkpt lat="31.1831518" lon="-7.80792"></trkpt>
      <trkpt lat="31.1836361" lon="-7.8076767"></trkpt>
      <trkpt lat="31.1841808" lon="-7.8076136"></trkpt>
      <trkpt lat="31.184287" lon="-7.8074794"></trkpt>
      <trkpt lat="31.184603" lon="-7.807495"></trkpt>
      <trkpt lat="31.1851642" lon="-7.8068479"></trkpt>
      <trkpt lat="31.1852002" lon="-7.8066286"></trkpt>
      <trkpt lat="31.1855077" lon="-7.8062644"></trkpt>
      <trkpt lat="31.1860639" lon="-7.8046024"></trkpt>
      <trkpt lat="31.1863095" lon="-7.8044143"></trkpt>
      <trkpt lat="31.1865932" lon="-7.8037511"></trkpt>
      <trkpt lat="31.1870674" lon="-7.8033451"></trkpt>
      <trkpt lat="31.1871719" lon="-7.8029815"></trkpt>
      <trkpt lat="31.1875246" lon="-7.8024689"></trkpt>
      <trkpt lat="31.1878766" lon="-7.8023537"></trkpt>
      <trkpt lat="31.1881799" lon="-7.802046"></trkpt>
      <trkpt lat="31.1886299" lon="-7.8009667"></trkpt>
      <trkpt lat="31.1888091" lon="-7.8008109"></trkpt>
      <trkpt lat="31.1892202" lon="-7.800677"></trkpt>
      <trkpt lat="31.1895178" lon="-7.8003676"></trkpt>
      <trkpt lat="31.189698" lon="-7.8003795"></trkpt>
      <trkpt lat="31.190019" lon="-7.799955"></trkpt>
      <trkpt lat="31.1905575" lon="-7.7991832"></trkpt>
      <trkpt lat="31.1907228" lon="-7.7983932"></trkpt>
      <trkpt lat="31.1908354" lon="-7.7982329"></trkpt>
      <trkpt lat="31.1910613" lon="-7.798176"></trkpt>
      <trkpt lat="31.1912875" lon="-7.7979724"></trkpt>
      <trkpt lat="31.1914883" lon="-7.7972248"></trkpt>
      <trkpt lat="31.1916579" lon="-7.797158"></trkpt>
      <trkpt lat="31.1918953" lon="-7.7963964"></trkpt>
      <trkpt lat="31.1927342" lon="-7.7952958"></trkpt>
      <trkpt lat="31.1928748" lon="-7.7948984"></trkpt>
      <trkpt lat="31.1936571" lon="-7.7940311"></trkpt>
      <trkpt lat="31.1938168" lon="-7.7931096"></trkpt>
      <trkpt lat="31.1937878" lon="-7.7916092"></trkpt>
      <trkpt lat="31.1938862" lon="-7.7911636"></trkpt>
      <trkpt lat="31.1942686" lon="-7.7902894"></trkpt>
      <trkpt lat="31.1939794" lon="-7.7901049"></trkpt>
      <trkpt lat="31.1944017" lon="-7.7897126"></trkpt>
      <trkpt lat="31.1944431" lon="-7.7891798"></trkpt>
      <trkpt lat="31.1956313" lon="-7.7868368"></trkpt>
      <trkpt lat="31.1956943" lon="-7.7863267"></trkpt>
      <trkpt lat="31.1954769" lon="-7.7851542"></trkpt>
      <trkpt lat="31.1956063" lon="-7.7844048"></trkpt>
      <trkpt lat="31.1955306" lon="-7.7840365"></trkpt>
      <trkpt lat="31.1959091" lon="-7.7834221"></trkpt>
      <trkpt lat="31.1957506" lon="-7.782183"></trkpt>
      <trkpt lat="31.195785" lon="-7.7820913"></trkpt>
      <trkpt lat="31.1959772" lon="-7.7824564"></trkpt>
      <trkpt lat="31.1961082" lon="-7.782477"></trkpt>
      <trkpt lat="31.1960553" lon="-7.7819951"></trkpt>
      <trkpt lat="31.1958895" lon="-7.7816999"></trkpt>
      <trkpt lat="31.1958712" lon="-7.7812987"></trkpt>
      <trkpt lat="31.1957315" lon="-7.7809968"></trkpt>
      <trkpt lat="31.1956502" lon="-7.779367"></trkpt>
      <trkpt lat="31.1957353" lon="-7.7789807"></trkpt>
      <trkpt lat="31.1960268" lon="-7.7784455"></trkpt>
      <trkpt lat="31.1961009" lon="-7.7778978"></trkpt>
      <trkpt lat="31.1960257" lon="-7.7761574"></trkpt>
      <trkpt lat="31.1959175" lon="-7.7758797"></trkpt>
      <trkpt lat="31.1955218" lon="-7.7753526"></trkpt>
      <trkpt lat="31.1948356" lon="-7.7749141"></trkpt>
      <trkpt lat="31.1944431" lon="-7.7745376"></trkpt>
      <trkpt lat="31.193674" lon="-7.7729317"></trkpt>
      <trkpt lat="31.1933913" lon="-7.7728566"></trkpt>
      <trkpt lat="31.1932157" lon="-7.772684"></trkpt>
      <trkpt lat="31.1928784" lon="-7.7718564"></trkpt>
      <trkpt lat="31.1931358" lon="-7.7721959"></trkpt>
      <trkpt lat="31.1935693" lon="-7.7724311"></trkpt>
      <trkpt lat="31.1936043" lon="-7.7722491"></trkpt>
      <trkpt lat="31.192293" lon="-7.7702759"></trkpt>
      <trkpt lat="31.1924511" lon="-7.7702779"></trkpt>
      <trkpt lat="31.1930646" lon="-7.7707976"></trkpt>
      <trkpt lat="31.1940536" lon="-7.7710175"></trkpt>
      <trkpt lat="31.1943006" lon="-7.7708319"></trkpt>
      <trkpt lat="31.1944074" lon="-7.7708502"></trkpt>
      <trkpt lat="31.1944098" lon="-7.7706248"></trkpt>
      <trkpt lat="31.1937446" lon="-7.7697161"></trkpt>
      <trkpt lat="31.1934949" lon="-7.7691299"></trkpt>
      <trkpt lat="31.1935582" lon="-7.768935"></trkpt>
      <trkpt lat="31.1937966" lon="-7.768804"></trkpt>
      <trkpt lat="31.1939503" lon="-7.7685442"></trkpt>
      <trkpt lat="31.1940871" lon="-7.7686104"></trkpt>
      <trkpt lat="31.1943132" lon="-7.7685338"></trkpt>
      <trkpt lat="31.1942908" lon="-7.7684273"></trkpt>
      <trkpt lat="31.1941175" lon="-7.7684163"></trkpt>
      <trkpt lat="31.1939241" lon="-7.7690771"></trkpt>
      <trkpt lat="31.1939781" lon="-7.7694551"></trkpt>
      <trkpt lat="31.1938836" lon="-7.7695676"></trkpt>
      <trkpt lat="31.1937729" lon="-7.7694964"></trkpt>
      <trkpt lat="31.1937191" lon="-7.7697504"></trkpt>
      <trkpt lat="31.1942914" lon="-7.7708686"></trkpt>
      <trkpt lat="31.1940488" lon="-7.7710015"></trkpt>
      <trkpt lat="31.1930286" lon="-7.7708137"></trkpt>
      <trkpt lat="31.192249" lon="-7.7701918"></trkpt>
      <trkpt lat="31.1922367" lon="-7.7702505"></trkpt>
      <trkpt lat="31.1935633" lon="-7.7723009"></trkpt>
      <trkpt lat="31.1935557" lon="-7.7724557"></trkpt>
      <trkpt lat="31.1934219" lon="-7.7724415"></trkpt>
      <trkpt lat="31.1929936" lon="-7.7721071"></trkpt>
      <trkpt lat="31.1923091" lon="-7.7713399"></trkpt>
      <trkpt lat="31.1919014" lon="-7.7711598"></trkpt>
      <trkpt lat="31.1915531" lon="-7.7707789"></trkpt>
      <trkpt lat="31.1911889" lon="-7.7706761"></trkpt>
      <trkpt lat="31.1906569" lon="-7.7713039"></trkpt>
      <trkpt lat="31.1901349" lon="-7.7714952"></trkpt>
      <trkpt lat="31.1897488" lon="-7.7715243"></trkpt>
      <trkpt lat="31.1895402" lon="-7.7716722"></trkpt>
      <trkpt lat="31.1892092" lon="-7.7716371"></trkpt>
      <trkpt lat="31.1890755" lon="-7.7717131"></trkpt>
      <trkpt lat="31.1889528" lon="-7.7719799"></trkpt>
      <trkpt lat="31.1891486" lon="-7.7721835"></trkpt>
      <trkpt lat="31.1892206" lon="-7.772597"></trkpt>
      <trkpt lat="31.1888774" lon="-7.772853"></trkpt>
      <trkpt lat="31.1883642" lon="-7.772961"></trkpt>
      <trkpt lat="31.1881506" lon="-7.7730925"></trkpt>
      <trkpt lat="31.1878475" lon="-7.7728511"></trkpt>
      <trkpt lat="31.1873559" lon="-7.7727884"></trkpt>
      <trkpt lat="31.1869241" lon="-7.7724251"></trkpt>
      <trkpt lat="31.1862143" lon="-7.7724976"></trkpt>
      <trkpt lat="31.1857065" lon="-7.7729913"></trkpt>
      <trkpt lat="31.1852634" lon="-7.7736282"></trkpt>
      <trkpt lat="31.1849268" lon="-7.7739169"></trkpt>
      <trkpt lat="31.1834926" lon="-7.7747181"></trkpt>
      <trkpt lat="31.1829864" lon="-7.7752013"></trkpt>
      <trkpt lat="31.1829603" lon="-7.7757449"></trkpt>
      <trkpt lat="31.1830315" lon="-7.7758606"></trkpt>
      <trkpt lat="31.1832132" lon="-7.7754331"></trkpt>
      <trkpt lat="31.1835859" lon="-7.7753063"></trkpt>
      <trkpt lat="31.1836837" lon="-7.7751964"></trkpt>
      <trkpt lat="31.1845908" lon="-7.775331"></trkpt>
      <trkpt lat="31.1838607" lon="-7.7755099"></trkpt>
      <trkpt lat="31.1840539" lon="-7.7756119"></trkpt>
      <trkpt lat="31.1844249" lon="-7.7756219"></trkpt>
      <trkpt lat="31.1841333" lon="-7.7757656"></trkpt>
      <trkpt lat="31.1838938" lon="-7.7757324"></trkpt>
      <trkpt lat="31.1836234" lon="-7.7761102"></trkpt>
      <trkpt lat="31.1837639" lon="-7.7773366"></trkpt>
      <trkpt lat="31.18354" lon="-7.7776949"></trkpt>
      <trkpt lat="31.1835428" lon="-7.7781846"></trkpt>
      <trkpt lat="31.1832354" lon="-7.778529"></trkpt>
      <trkpt lat="31.18302" lon="-7.7796743"></trkpt>
      <trkpt lat="31.1830174" lon="-7.7804059"></trkpt>
      <trkpt lat="31.1827149" lon="-7.7815478"></trkpt>
      <trkpt lat="31.1827648" lon="-7.7818685"></trkpt>
      <trkpt lat="31.1820956" lon="-7.7816064"></trkpt>
      <trkpt lat="31.1819462" lon="-7.7816176"></trkpt>
      <trkpt lat="31.1818292" lon="-7.7814382"></trkpt>
      <trkpt lat="31.1819927" lon="-7.7818452"></trkpt>
      <trkpt lat="31.1813609" lon="-7.7814828"></trkpt>
      <trkpt lat="31.1809487" lon="-7.7815702"></trkpt>
      <trkpt lat="31.1805736" lon="-7.7812953"></trkpt>
      <trkpt lat="31.1804312" lon="-7.7813058"></trkpt>
      <trkpt lat="31.1803695" lon="-7.7813979"></trkpt>
      <trkpt lat="31.1798029" lon="-7.7814185"></trkpt>
      <trkpt lat="31.1795525" lon="-7.7810689"></trkpt>
      <trkpt lat="31.1793553" lon="-7.7810556"></trkpt>
      <trkpt lat="31.1793751" lon="-7.7809718"></trkpt>
      <trkpt lat="31.1790298" lon="-7.7806124"></trkpt>
      <trkpt lat="31.1788435" lon="-7.7806742"></trkpt>
      <trkpt lat="31.1788346" lon="-7.7805913"></trkpt>
      <trkpt lat="31.1787086" lon="-7.7806173"></trkpt>
      <trkpt lat="31.1787038" lon="-7.7807419"></trkpt>
      <trkpt lat="31.1784185" lon="-7.7808508"></trkpt>
      <trkpt lat="31.1771989" lon="-7.7809774"></trkpt>
      <trkpt lat="31.1766369" lon="-7.7812806"></trkpt>
      <trkpt lat="31.1762256" lon="-7.7817329"></trkpt>
      <trkpt lat="31.1761087" lon="-7.7820225"></trkpt>
      <trkpt lat="31.1758585" lon="-7.7821418"></trkpt>
      <trkpt lat="31.1752385" lon="-7.7827666"></trkpt>
      <trkpt lat="31.1730584" lon="-7.7844827"></trkpt>
      <trkpt lat="31.1727553" lon="-7.7845371"></trkpt>
      <trkpt lat="31.172674" lon="-7.7847863"></trkpt>
      <trkpt lat="31.1725475" lon="-7.7847949"></trkpt>
      <trkpt lat="31.172458" lon="-7.7849765"></trkpt>
      <trkpt lat="31.1723851" lon="-7.7849349"></trkpt>
      <trkpt lat="31.1719291" lon="-7.7853683"></trkpt>
      <trkpt lat="31.1718133" lon="-7.7853317"></trkpt>
      <trkpt lat="31.1715222" lon="-7.785471"></trkpt>
      <trkpt lat="31.171459" lon="-7.7853948"></trkpt>
      <trkpt lat="31.1711228" lon="-7.7856336"></trkpt>
      <trkpt lat="31.1711585" lon="-7.78584"></trkpt>
      <trkpt lat="31.1707625" lon="-7.7857609"></trkpt>
      <trkpt lat="31.1706864" lon="-7.7859947"></trkpt>
      <trkpt lat="31.1705702" lon="-7.7857316"></trkpt>
      <trkpt lat="31.1703442" lon="-7.7860717"></trkpt>
      <trkpt lat="31.1702557" lon="-7.7864929"></trkpt>
      <trkpt lat="31.1700612" lon="-7.7868603"></trkpt>
      <trkpt lat="31.170314" lon="-7.7872504"></trkpt>
      <trkpt lat="31.1700652" lon="-7.7873567"></trkpt>
      <trkpt lat="31.170368" lon="-7.7877381"></trkpt>
      <trkpt lat="31.1703647" lon="-7.7879865"></trkpt>
      <trkpt lat="31.1702515" lon="-7.787917"></trkpt>
      <trkpt lat="31.1702072" lon="-7.7880573"></trkpt>
      <trkpt lat="31.1700803" lon="-7.788059"></trkpt>
      <trkpt lat="31.1700917" lon="-7.788163"></trkpt>
      <trkpt lat="31.1698349" lon="-7.7884827"></trkpt>
      <trkpt lat="31.1695314" lon="-7.7886881"></trkpt>
      <trkpt lat="31.1687922" lon="-7.7904102"></trkpt>
      <trkpt lat="31.1686617" lon="-7.7903847"></trkpt>
      <trkpt lat="31.1683065" lon="-7.7909143"></trkpt>
      <trkpt lat="31.1683362" lon="-7.7912595"></trkpt>
      <trkpt lat="31.1682293" lon="-7.7912416"></trkpt>
      <trkpt lat="31.1680765" lon="-7.7909779"></trkpt>
      <trkpt lat="31.1679827" lon="-7.7914207"></trkpt>
      <trkpt lat="31.1676643" lon="-7.7916005"></trkpt>
      <trkpt lat="31.1677307" lon="-7.7918112"></trkpt>
      <trkpt lat="31.1673642" lon="-7.7919743"></trkpt>
      <trkpt lat="31.1673861" lon="-7.7922715"></trkpt>
      <trkpt lat="31.166764" lon="-7.7925631"></trkpt>
      <trkpt lat="31.1671909" lon="-7.7933362"></trkpt>
      <trkpt lat="31.1672217" lon="-7.7938451"></trkpt>
      <trkpt lat="31.1670648" lon="-7.7936429"></trkpt>
      <trkpt lat="31.1669677" lon="-7.7944944"></trkpt>
      <trkpt lat="31.1668314" lon="-7.7944541"></trkpt>
      <trkpt lat="31.1666414" lon="-7.7946422"></trkpt>
      <trkpt lat="31.1666672" lon="-7.7947476"></trkpt>
      <trkpt lat="31.1664017" lon="-7.7948771"></trkpt>
      <trkpt lat="31.166637" lon="-7.795211"></trkpt>
      <trkpt lat="31.1662742" lon="-7.7962283"></trkpt>
      <trkpt lat="31.1662655" lon="-7.7970464"></trkpt>
      <trkpt lat="31.1661229" lon="-7.7973338"></trkpt>
      <trkpt lat="31.166197" lon="-7.7974667"></trkpt>
      <trkpt lat="31.1661222" lon="-7.7976605"></trkpt>
      <trkpt lat="31.1661911" lon="-7.7977271"></trkpt>
      <trkpt lat="31.1660962" lon="-7.7982551"></trkpt>
      <trkpt lat="31.1663022" lon="-7.7982668"></trkpt>
      <trkpt lat="31.1662195" lon="-7.7991319"></trkpt>
      <trkpt lat="31.1663497" lon="-7.7996452"></trkpt>
      <trkpt lat="31.1664716" lon="-7.7996075"></trkpt>
      <trkpt lat="31.166511" lon="-7.7999133"></trkpt>
      <trkpt lat="31.1666443" lon="-7.799871"></trkpt>
      <trkpt lat="31.1665313" lon="-7.8010536"></trkpt>
      <trkpt lat="31.1666446" lon="-7.8012111"></trkpt>
      <trkpt lat="31.1664853" lon="-7.8015629"></trkpt>
      <trkpt lat="31.1665961" lon="-7.8015973"></trkpt>
      <trkpt lat="31.1664719" lon="-7.8018736"></trkpt>
      <trkpt lat="31.1662386" lon="-7.8020596"></trkpt>
      <trkpt lat="31.1660216" lon="-7.8019997"></trkpt>
      <trkpt lat="31.1659394" lon="-7.8020749"></trkpt>
      <trkpt lat="31.1657982" lon="-7.8019296"></trkpt>
      <trkpt lat="31.1654715" lon="-7.8020961"></trkpt>
      <trkpt lat="31.1651943" lon="-7.8020098"></trkpt>
      <trkpt lat="31.1653191" lon="-7.8030217"></trkpt>
      <trkpt lat="31.1651357" lon="-7.8046505"></trkpt>
      <trkpt lat="31.1647975" lon="-7.8055494"></trkpt>
      <trkpt lat="31.1648275" lon="-7.8058548"></trkpt>
      <trkpt lat="31.164615" lon="-7.8061367"></trkpt>
      <trkpt lat="31.1646471" lon="-7.8063457"></trkpt>
      <trkpt lat="31.164483" lon="-7.8065263"></trkpt>
      <trkpt lat="31.1643973" lon="-7.8070124"></trkpt>
      <trkpt lat="31.1638788" lon="-7.8070938"></trkpt>
      <trkpt lat="31.1633232" lon="-7.80746"></trkpt>
      <trkpt lat="31.1630696" lon="-7.8075022"></trkpt>
      <trkpt lat="31.1631818" lon="-7.8070909"></trkpt>
      <trkpt lat="31.1629862" lon="-7.8065159"></trkpt>
      <trkpt lat="31.162678" lon="-7.8069089"></trkpt>
      <trkpt lat="31.1625379" lon="-7.8063373"></trkpt>
      <trkpt lat="31.1623344" lon="-7.8066902"></trkpt>
      <trkpt lat="31.1622068" lon="-7.8062208"></trkpt>
      <trkpt lat="31.1620612" lon="-7.8064823"></trkpt>
      <trkpt lat="31.1619508" lon="-7.8064101"></trkpt>
      <trkpt lat="31.1618601" lon="-7.8058033"></trkpt>
      <trkpt lat="31.1617429" lon="-7.8056766"></trkpt>
      <trkpt lat="31.1613103" lon="-7.8058918"></trkpt>
      <trkpt lat="31.1610051" lon="-7.8056454"></trkpt>
      <trkpt lat="31.1608763" lon="-7.8056516"></trkpt>
      <trkpt lat="31.1604572" lon="-7.8053345"></trkpt>
      <trkpt lat="31.1595806" lon="-7.8049074"></trkpt>
      <trkpt lat="31.158981" lon="-7.8043783"></trkpt>
      <trkpt lat="31.1589361" lon="-7.8056642"></trkpt>
      <trkpt lat="31.1588385" lon="-7.8057766"></trkpt>
      <trkpt lat="31.158605" lon="-7.805593"></trkpt>
      <trkpt lat="31.1583573" lon="-7.805609"></trkpt>
      <trkpt lat="31.1582826" lon="-7.805476"></trkpt>
      <trkpt lat="31.1581561" lon="-7.8056218"></trkpt>
      <trkpt lat="31.1578998" lon="-7.8053159"></trkpt>
      <trkpt lat="31.1577347" lon="-7.8056588"></trkpt>
      <trkpt lat="31.1576708" lon="-7.8054593"></trkpt>
      <trkpt lat="31.1574024" lon="-7.8051549"></trkpt>
      <trkpt lat="31.1573296" lon="-7.8055231"></trkpt>
      <trkpt lat="31.1572926" lon="-7.8055695"></trkpt>
      <trkpt lat="31.1572259" lon="-7.8054921"></trkpt>
      <trkpt lat="31.1571026" lon="-7.8056474"></trkpt>
      <trkpt lat="31.1570726" lon="-7.8054235"></trkpt>
      <trkpt lat="31.1567324" lon="-7.8056009"></trkpt>
      <trkpt lat="31.1566975" lon="-7.8054396"></trkpt>
      <trkpt lat="31.1562673" lon="-7.8056309"></trkpt>
      <trkpt lat="31.1561381" lon="-7.8055146"></trkpt>
      <trkpt lat="31.1559508" lon="-7.8056733"></trkpt>
      <trkpt lat="31.1554464" lon="-7.8055778"></trkpt>
      <trkpt lat="31.1553733" lon="-7.8057025"></trkpt>
      <trkpt lat="31.1552905" lon="-7.8055887"></trkpt>
      <trkpt lat="31.1551625" lon="-7.8056646"></trkpt>
      <trkpt lat="31.1547701" lon="-7.8055238"></trkpt>
      <trkpt lat="31.1546574" lon="-7.8056452"></trkpt>
      <trkpt lat="31.1545816" lon="-7.8055491"></trkpt>
      <trkpt lat="31.1544734" lon="-7.8055681"></trkpt>
      <trkpt lat="31.1541612" lon="-7.8057622"></trkpt>
      <trkpt lat="31.1541227" lon="-7.8056833"></trkpt>
      <trkpt lat="31.1538889" lon="-7.8057002"></trkpt>
      <trkpt lat="31.1535728" lon="-7.805564"></trkpt>
      <trkpt lat="31.1533939" lon="-7.8056399"></trkpt>
      <trkpt lat="31.1533804" lon="-7.8054797"></trkpt>
      <trkpt lat="31.1531947" lon="-7.8055674"></trkpt>
      <trkpt lat="31.1529694" lon="-7.8054844"></trkpt>
      <trkpt lat="31.1530261" lon="-7.8053206"></trkpt>
      <trkpt lat="31.1526819" lon="-7.8054088"></trkpt>
      <trkpt lat="31.1525915" lon="-7.8052688"></trkpt>
      <trkpt lat="31.1523373" lon="-7.8054326"></trkpt>
      <trkpt lat="31.1522817" lon="-7.8054046"></trkpt>
      <trkpt lat="31.1523713" lon="-7.8051925"></trkpt>
      <trkpt lat="31.1523029" lon="-7.805139"></trkpt>
      <trkpt lat="31.1521618" lon="-7.8052567"></trkpt>
      <trkpt lat="31.1518561" lon="-7.8051269"></trkpt>
      <trkpt lat="31.151723" lon="-7.8054046"></trkpt>
      <trkpt lat="31.151545" lon="-7.8055168"></trkpt>
      <trkpt lat="31.1514524" lon="-7.8061548"></trkpt>
      <trkpt lat="31.1511754" lon="-7.8067186"></trkpt>
      <trkpt lat="31.1510491" lon="-7.8068538"></trkpt>
      <trkpt lat="31.1507046" lon="-7.8069789"></trkpt>
      <trkpt lat="31.1505307" lon="-7.8068348"></trkpt>
      <trkpt lat="31.1501669" lon="-7.8060774"></trkpt>
      <trkpt lat="31.1499771" lon="-7.8058541"></trkpt>
      <trkpt lat="31.149941" lon="-7.8056456"></trkpt>
      <trkpt lat="31.1494347" lon="-7.8054819"></trkpt>
      <trkpt lat="31.1483261" lon="-7.8046976"></trkpt>
      <trkpt lat="31.1480965" lon="-7.8046215"></trkpt>
      <trkpt lat="31.1475017" lon="-7.804832"></trkpt>
      <trkpt lat="31.1471598" lon="-7.8048206"></trkpt>
      <trkpt lat="31.1466172" lon="-7.804605"></trkpt>
      <trkpt lat="31.1462382" lon="-7.8045992"></trkpt>
      <trkpt lat="31.1458375" lon="-7.8041728"></trkpt>
      <trkpt lat="31.1457686" lon="-7.8042196"></trkpt>
      <trkpt lat="31.1458198" lon="-7.8043307"></trkpt>
      <trkpt lat="31.1461676" lon="-7.8042972"></trkpt>
      <trkpt lat="31.146313" lon="-7.8041378"></trkpt>
      <trkpt lat="31.1463173" lon="-7.8038074"></trkpt>
      <trkpt lat="31.146241" lon="-7.8037172"></trkpt>
      <trkpt lat="31.1459722" lon="-7.8043221"></trkpt>
      <trkpt lat="31.1458288" lon="-7.8042688"></trkpt>
      <trkpt lat="31.144699" lon="-7.8058593"></trkpt>
      <trkpt lat="31.1441332" lon="-7.8062996"></trkpt>
      <trkpt lat="31.1432298" lon="-7.8076562"></trkpt>
      <trkpt lat="31.1428195" lon="-7.8083921"></trkpt>
      <trkpt lat="31.1428039" lon="-7.8087028"></trkpt>
      <trkpt lat="31.142994" lon="-7.8089166"></trkpt>
      <trkpt lat="31.1426463" lon="-7.8090732"></trkpt>
      <trkpt lat="31.1423668" lon="-7.8090404"></trkpt>
      <trkpt lat="31.1424195" lon="-7.8095354"></trkpt>
      <trkpt lat="31.1419588" lon="-7.8093236"></trkpt>
      <trkpt lat="31.1417054" lon="-7.8090205"></trkpt>
      <trkpt lat="31.141511" lon="-7.8098257"></trkpt>
      <trkpt lat="31.1410551" lon="-7.8089094"></trkpt>
      <trkpt lat="31.1408297" lon="-7.8091669"></trkpt>
      <trkpt lat="31.1407001" lon="-7.8095046"></trkpt>
      <trkpt lat="31.1402987" lon="-7.8087701"></trkpt>
      <trkpt lat="31.140061" lon="-7.8090841"></trkpt>
      <trkpt lat="31.1397935" lon="-7.8084774"></trkpt>
      <trkpt lat="31.1389401" lon="-7.8095801"></trkpt>
      <trkpt lat="31.1385644" lon="-7.809792"></trkpt>
      <trkpt lat="31.1378862" lon="-7.8105913"></trkpt>
      <trkpt lat="31.1378083" lon="-7.8105485"></trkpt>
      <trkpt lat="31.1374616" lon="-7.810981"></trkpt>
      <trkpt lat="31.1373824" lon="-7.811228"></trkpt>
      <trkpt lat="31.1371549" lon="-7.8113928"></trkpt>
      <trkpt lat="31.1371115" lon="-7.8113506"></trkpt>
      <trkpt lat="31.1373943" lon="-7.8113002"></trkpt>
      <trkpt lat="31.1374689" lon="-7.8111648"></trkpt>
      <trkpt lat="31.1376925" lon="-7.8112078"></trkpt>
      <trkpt lat="31.1377506" lon="-7.8113119"></trkpt>
      <trkpt lat="31.1380057" lon="-7.8112776"></trkpt>
      <trkpt lat="31.1380719" lon="-7.8113908"></trkpt>
      <trkpt lat="31.1385284" lon="-7.810976"></trkpt>
      <trkpt lat="31.1387165" lon="-7.811139"></trkpt>
      <trkpt lat="31.1389829" lon="-7.811021"></trkpt>
      <trkpt lat="31.1390813" lon="-7.8111812"></trkpt>
      <trkpt lat="31.1393099" lon="-7.811181"></trkpt>
      <trkpt lat="31.1394226" lon="-7.8113413"></trkpt>
      <trkpt lat="31.1403634" lon="-7.8115605"></trkpt>
      <trkpt lat="31.1402871" lon="-7.811716"></trkpt>
      <trkpt lat="31.1407791" lon="-7.8122207"></trkpt>
      <trkpt lat="31.1408003" lon="-7.8124255"></trkpt>
      <trkpt lat="31.1409149" lon="-7.8125302"></trkpt>
      <trkpt lat="31.1408686" lon="-7.8126687"></trkpt>
      <trkpt lat="31.1415542" lon="-7.8134332"></trkpt>
      <trkpt lat="31.1415873" lon="-7.8138465"></trkpt>
      <trkpt lat="31.1420024" lon="-7.8141713"></trkpt>
      <trkpt lat="31.1418399" lon="-7.8143269"></trkpt>
      <trkpt lat="31.1418398" lon="-7.8144463"></trkpt>
      <trkpt lat="31.141508" lon="-7.8145343"></trkpt>
      <trkpt lat="31.1414363" lon="-7.8147548"></trkpt>
      <trkpt lat="31.1412796" lon="-7.8147849"></trkpt>
      <trkpt lat="31.1412307" lon="-7.8151571"></trkpt>
      <trkpt lat="31.141343" lon="-7.8153743"></trkpt>
      <trkpt lat="31.1412129" lon="-7.8157442"></trkpt>
      <trkpt lat="31.1413678" lon="-7.8161198"></trkpt>
      <trkpt lat="31.1412552" lon="-7.8164288"></trkpt>
      <trkpt lat="31.1414396" lon="-7.8166617"></trkpt>
      <trkpt lat="31.1412745" lon="-7.8171658"></trkpt>
      <trkpt lat="31.1413033" lon="-7.8177364"></trkpt>
      <trkpt lat="31.1411803" lon="-7.8179872"></trkpt>
      <trkpt lat="31.1412287" lon="-7.8184725"></trkpt>
      <trkpt lat="31.1411456" lon="-7.8185913"></trkpt>
      <trkpt lat="31.1412992" lon="-7.8189251"></trkpt>
      <trkpt lat="31.1418173" lon="-7.8188648"></trkpt>
      <trkpt lat="31.1418157" lon="-7.8192578"></trkpt>
      <trkpt lat="31.1417123" lon="-7.8195445"></trkpt>
      <trkpt lat="31.1417983" lon="-7.8199859"></trkpt>
      <trkpt lat="31.1416908" lon="-7.8203112"></trkpt>
      <trkpt lat="31.141859" lon="-7.8204714"></trkpt>
      <trkpt lat="31.1419009" lon="-7.8210554"></trkpt>
      <trkpt lat="31.1422771" lon="-7.8222502"></trkpt>
      <trkpt lat="31.1424286" lon="-7.8222691"></trkpt>
      <trkpt lat="31.1424792" lon="-7.8226307"></trkpt>
      <trkpt lat="31.1426741" lon="-7.8227859"></trkpt>
      <trkpt lat="31.1426993" lon="-7.8229049"></trkpt>
      <trkpt lat="31.1429059" lon="-7.8227416"></trkpt>
      <trkpt lat="31.1430648" lon="-7.823055"></trkpt>
      <trkpt lat="31.1431248" lon="-7.8232361"></trkpt>
      <trkpt lat="31.1430717" lon="-7.8240333"></trkpt>
      <trkpt lat="31.1434163" lon="-7.8253423"></trkpt>
      <trkpt lat="31.1435061" lon="-7.8250944"></trkpt>
      <trkpt lat="31.1436784" lon="-7.8250608"></trkpt>
      <trkpt lat="31.14381" lon="-7.8249067"></trkpt>
      <trkpt lat="31.1441711" lon="-7.8249281"></trkpt>
      <trkpt lat="31.144256" lon="-7.8247439"></trkpt>
      <trkpt lat="31.1447524" lon="-7.824752"></trkpt>
      <trkpt lat="31.1450315" lon="-7.8248552"></trkpt>
      <trkpt lat="31.145489" lon="-7.8247335"></trkpt>
      <trkpt lat="31.1462451" lon="-7.8248881"></trkpt>
      <trkpt lat="31.1463778" lon="-7.8246264"></trkpt>
      <trkpt lat="31.1467868" lon="-7.8248713"></trkpt>
      <trkpt lat="31.1468063" lon="-7.8250568"></trkpt>
      <trkpt lat="31.1469968" lon="-7.8250472"></trkpt>
      <trkpt lat="31.1476618" lon="-7.8253546"></trkpt>
      <trkpt lat="31.1478801" lon="-7.8253572"></trkpt>
      <trkpt lat="31.1483501" lon="-7.8256656"></trkpt>
      <trkpt lat="31.1490194" lon="-7.8254116"></trkpt>
      <trkpt lat="31.148995" lon="-7.8256576"></trkpt>
      <trkpt lat="31.1494801" lon="-7.8258035"></trkpt>
      <trkpt lat="31.1500606" lon="-7.8262022"></trkpt>
      <trkpt lat="31.1501974" lon="-7.8262532"></trkpt>
      <trkpt lat="31.1502239" lon="-7.8261793"></trkpt>
      <trkpt lat="31.1505439" lon="-7.8261125"></trkpt>
      <trkpt lat="31.1505527" lon="-7.8262174"></trkpt>
      <trkpt lat="31.1508259" lon="-7.8262797"></trkpt>
      <trkpt lat="31.1514368" lon="-7.8270277"></trkpt>
      <trkpt lat="31.1514935" lon="-7.8273497"></trkpt>
      <trkpt lat="31.1514262" lon="-7.8278054"></trkpt>
      <trkpt lat="31.1516945" lon="-7.8286995"></trkpt>
      <trkpt lat="31.1520471" lon="-7.8293875"></trkpt>
      <trkpt lat="31.152162" lon="-7.8292793"></trkpt>
      <trkpt lat="31.1528883" lon="-7.8292197"></trkpt>
      <trkpt lat="31.1529496" lon="-7.8294603"></trkpt>
      <trkpt lat="31.1531193" lon="-7.8296354"></trkpt>
      <trkpt lat="31.1536846" lon="-7.8295169"></trkpt>
      <trkpt lat="31.1537088" lon="-7.8298635"></trkpt>
      <trkpt lat="31.1539888" lon="-7.8297683"></trkpt>
      <trkpt lat="31.1539797" lon="-7.8299905"></trkpt>
      <trkpt lat="31.1541524" lon="-7.8303397"></trkpt>
      <trkpt lat="31.1544681" lon="-7.8302684"></trkpt>
      <trkpt lat="31.1547682" lon="-7.830413"></trkpt>
      <trkpt lat="31.155072" lon="-7.8308559"></trkpt>
      <trkpt lat="31.1553097" lon="-7.8309691"></trkpt>
      <trkpt lat="31.1552819" lon="-7.8311299"></trkpt>
      <trkpt lat="31.1554689" lon="-7.8313705"></trkpt>
      <trkpt lat="31.1557349" lon="-7.8322538"></trkpt>
      <trkpt lat="31.15641" lon="-7.8330134"></trkpt>
      <trkpt lat="31.1567745" lon="-7.8336635"></trkpt>
      <trkpt lat="31.1570323" lon="-7.8339224"></trkpt>
      <trkpt lat="31.1571878" lon="-7.8346317"></trkpt>
      <trkpt lat="31.1569638" lon="-7.8363901"></trkpt>
      <trkpt lat="31.1567743" lon="-7.8367217"></trkpt>
      <trkpt lat="31.1569197" lon="-7.8367255"></trkpt>
      <trkpt lat="31.1570285" lon="-7.8368447"></trkpt>
      <trkpt lat="31.1569871" lon="-7.8371109"></trkpt>
      <trkpt lat="31.1567587" lon="-7.8375135"></trkpt>
      <trkpt lat="31.1561252" lon="-7.8381924"></trkpt>
      <trkpt lat="31.1559271" lon="-7.8387173"></trkpt>
      <trkpt lat="31.1555435" lon="-7.8390442"></trkpt>
      <trkpt lat="31.1553706" lon="-7.8398679"></trkpt>
      <trkpt lat="31.1550381" lon="-7.84032"></trkpt>
      <trkpt lat="31.1551103" lon="-7.8409893"></trkpt>
      <trkpt lat="31.1553468" lon="-7.841469"></trkpt>
      <trkpt lat="31.1554647" lon="-7.8414843"></trkpt>
      <trkpt lat="31.1560626" lon="-7.8411315"></trkpt>
      <trkpt lat="31.1567652" lon="-7.8412646"></trkpt>
      <trkpt lat="31.1570442" lon="-7.841407"></trkpt>
      <trkpt lat="31.157093" lon="-7.8415504"></trkpt>
      <trkpt lat="31.1565859" lon="-7.8426689"></trkpt>
      <trkpt lat="31.156528" lon="-7.8429395"></trkpt>
      <trkpt lat="31.1566452" lon="-7.8432322"></trkpt>
      <trkpt lat="31.1567399" lon="-7.8432096"></trkpt>
      <trkpt lat="31.1577915" lon="-7.8438039"></trkpt>
      <trkpt lat="31.158109" lon="-7.8440959"></trkpt>
      <trkpt lat="31.1587194" lon="-7.8444356"></trkpt>
      <trkpt lat="31.1588571" lon="-7.8446094"></trkpt>
      <trkpt lat="31.1584286" lon="-7.8450109"></trkpt>
      <trkpt lat="31.1578966" lon="-7.8458745"></trkpt>
      <trkpt lat="31.1579541" lon="-7.8464415"></trkpt>
      <trkpt lat="31.1578992" lon="-7.8467647"></trkpt>
      <trkpt lat="31.1577856" lon="-7.8467027"></trkpt>
      <trkpt lat="31.1577409" lon="-7.8460081"></trkpt>
      <trkpt lat="31.1576666" lon="-7.845919"></trkpt>
      <trkpt lat="31.1575657" lon="-7.846057"></trkpt>
      <trkpt lat="31.1575676" lon="-7.8465265"></trkpt>
      <trkpt lat="31.1571483" lon="-7.8465393"></trkpt>
      <trkpt lat="31.1575685" lon="-7.8465848"></trkpt>
      <trkpt lat="31.1574202" lon="-7.8465606"></trkpt>
      <trkpt lat="31.1575922" lon="-7.8464907"></trkpt>
      <trkpt lat="31.1576143" lon="-7.8470965"></trkpt>
      <trkpt lat="31.1573736" lon="-7.8477322"></trkpt>
      <trkpt lat="31.1578105" lon="-7.8480916"></trkpt>
      <trkpt lat="31.1577879" lon="-7.8482643"></trkpt>
      <trkpt lat="31.1574341" lon="-7.848845"></trkpt>
      <trkpt lat="31.1573558" lon="-7.8491882"></trkpt>
      <trkpt lat="31.1568689" lon="-7.8495158"></trkpt>
      <trkpt lat="31.1561655" lon="-7.8492253"></trkpt>
      <trkpt lat="31.1557652" lon="-7.8493317"></trkpt>
      <trkpt lat="31.1553855" lon="-7.8490988"></trkpt>
      <trkpt lat="31.1551616" lon="-7.8490889"></trkpt>
      <trkpt lat="31.1553265" lon="-7.8497902"></trkpt>
      <trkpt lat="31.1550976" lon="-7.8507471"></trkpt>
      <trkpt lat="31.1550016" lon="-7.850748"></trkpt>
      <trkpt lat="31.1549926" lon="-7.8503622"></trkpt>
      <trkpt lat="31.1548767" lon="-7.8502469"></trkpt>
      <trkpt lat="31.1548219" lon="-7.8511136"></trkpt>
      <trkpt lat="31.1541506" lon="-7.8520758"></trkpt>
      <trkpt lat="31.1536793" lon="-7.853198"></trkpt>
      <trkpt lat="31.1535611" lon="-7.8543925"></trkpt>
      <trkpt lat="31.1534277" lon="-7.854285"></trkpt>
      <trkpt lat="31.1535912" lon="-7.8543217"></trkpt>
      <trkpt lat="31.1536062" lon="-7.854896"></trkpt>
      <trkpt lat="31.153749" lon="-7.8550715"></trkpt>
      <trkpt lat="31.153477" lon="-7.8550943"></trkpt>
      <trkpt lat="31.1536413" lon="-7.8552915"></trkpt>
      <trkpt lat="31.1538301" lon="-7.855271"></trkpt>
      <trkpt lat="31.1538812" lon="-7.8555049"></trkpt>
      <trkpt lat="31.1534309" lon="-7.8554313"></trkpt>
      <trkpt lat="31.1534254" lon="-7.8554885"></trkpt>
      <trkpt lat="31.1537046" lon="-7.8554714"></trkpt>
      <trkpt lat="31.153704" lon="-7.8555521"></trkpt>
      <trkpt lat="31.1536841" lon="-7.8554586"></trkpt>
      <trkpt lat="31.153368" lon="-7.8554257"></trkpt>
      <trkpt lat="31.152925" lon="-7.8549835"></trkpt>
      <trkpt lat="31.1523478" lon="-7.8548835"></trkpt>
      <trkpt lat="31.1519751" lon="-7.8546214"></trkpt>
      <trkpt lat="31.1511061" lon="-7.854273"></trkpt>
      <trkpt lat="31.1506191" lon="-7.8543236"></trkpt>
      <trkpt lat="31.1502838" lon="-7.8541044"></trkpt>
      <trkpt lat="31.1502142" lon="-7.8541326"></trkpt>
      <trkpt lat="31.1502366" lon="-7.8540582"></trkpt>
      <trkpt lat="31.1500718" lon="-7.8539448"></trkpt>
      <trkpt lat="31.1494938" lon="-7.8540098"></trkpt>
      <trkpt lat="31.1489012" lon="-7.8544202"></trkpt>
      <trkpt lat="31.1483818" lon="-7.8543649"></trkpt>
      <trkpt lat="31.1479567" lon="-7.8544943"></trkpt>
      <trkpt lat="31.1478977" lon="-7.8544034"></trkpt>
      <trkpt lat="31.147672" lon="-7.8545649"></trkpt>
      <trkpt lat="31.1475934" lon="-7.8545006"></trkpt>
      <trkpt lat="31.1476398" lon="-7.8543537"></trkpt>
      <trkpt lat="31.1475504" lon="-7.8541951"></trkpt>
      <trkpt lat="31.1472118" lon="-7.8541063"></trkpt>
      <trkpt lat="31.1470274" lon="-7.8539542"></trkpt>
      <trkpt lat="31.146229" lon="-7.8539937"></trkpt>
      <trkpt lat="31.1462227" lon="-7.8538408"></trkpt>
      <trkpt lat="31.1458231" lon="-7.8538859"></trkpt>
      <trkpt lat="31.1457575" lon="-7.8536775"></trkpt>
      <trkpt lat="31.1456318" lon="-7.8536696"></trkpt>
      <trkpt lat="31.1457184" lon="-7.853486"></trkpt>
      <trkpt lat="31.1451636" lon="-7.8539218"></trkpt>
      <trkpt lat="31.1449214" lon="-7.8540164"></trkpt>
      <trkpt lat="31.1447785" lon="-7.8542397"></trkpt>
      <trkpt lat="31.1442554" lon="-7.8546149"></trkpt>
      <trkpt lat="31.1443353" lon="-7.8544214"></trkpt>
      <trkpt lat="31.1447106" lon="-7.8543324"></trkpt>
      <trkpt lat="31.1449566" lon="-7.8540235"></trkpt>
      <trkpt lat="31.1447163" lon="-7.854079"></trkpt>
      <trkpt lat="31.1443673" lon="-7.8540015"></trkpt>
      <trkpt lat="31.1441177" lon="-7.8537562"></trkpt>
      <trkpt lat="31.1442881" lon="-7.8535903"></trkpt>
      <trkpt lat="31.1437689" lon="-7.8530014"></trkpt>
      <trkpt lat="31.1435325" lon="-7.8531161"></trkpt>
      <trkpt lat="31.1434087" lon="-7.8530567"></trkpt>
      <trkpt lat="31.1433817" lon="-7.8528804"></trkpt>
      <trkpt lat="31.143108" lon="-7.8527618"></trkpt>
      <trkpt lat="31.1427716" lon="-7.8526685"></trkpt>
      <trkpt lat="31.1424661" lon="-7.8527535"></trkpt>
      <trkpt lat="31.1425267" lon="-7.8523836"></trkpt>
      <trkpt lat="31.1416088" lon="-7.8523815"></trkpt>
      <trkpt lat="31.1416284" lon="-7.8521689"></trkpt>
      <trkpt lat="31.1414863" lon="-7.8522229"></trkpt>
      <trkpt lat="31.141442" lon="-7.8520178"></trkpt>
      <trkpt lat="31.1411758" lon="-7.8519875"></trkpt>
      <trkpt lat="31.1411619" lon="-7.8515997"></trkpt>
      <trkpt lat="31.1407336" lon="-7.8515902"></trkpt>
      <trkpt lat="31.1407249" lon="-7.8510899"></trkpt>
      <trkpt lat="31.1411373" lon="-7.8517547"></trkpt>
      <trkpt lat="31.1414546" lon="-7.8516342"></trkpt>
      <trkpt lat="31.1418767" lon="-7.8521693"></trkpt>
      <trkpt lat="31.1425479" lon="-7.8523795"></trkpt>
      <trkpt lat="31.1426918" lon="-7.8526221"></trkpt>
      <trkpt lat="31.1430963" lon="-7.8528347"></trkpt>
      <trkpt lat="31.1432324" lon="-7.8530019"></trkpt>
      <trkpt lat="31.143329" lon="-7.8533493"></trkpt>
      <trkpt lat="31.1436719" lon="-7.85343"></trkpt>
      <trkpt lat="31.1438473" lon="-7.853272"></trkpt>
      <trkpt lat="31.1440728" lon="-7.8535914"></trkpt>
      <trkpt lat="31.1448387" lon="-7.8540684"></trkpt>
      <trkpt lat="31.1448202" lon="-7.8542835"></trkpt>
      <trkpt lat="31.1443311" lon="-7.8544593"></trkpt>
      <trkpt lat="31.1442544" lon="-7.8546557"></trkpt>
      <trkpt lat="31.1446622" lon="-7.8554144"></trkpt>
      <trkpt lat="31.1450948" lon="-7.8554196"></trkpt>
      <trkpt lat="31.1454435" lon="-7.8555271"></trkpt>
      <trkpt lat="31.1461899" lon="-7.855171"></trkpt>
      <trkpt lat="31.1467321" lon="-7.8553737"></trkpt>
      <trkpt lat="31.1470431" lon="-7.8557341"></trkpt>
      <trkpt lat="31.1471318" lon="-7.8561749"></trkpt>
      <trkpt lat="31.1476184" lon="-7.8564737"></trkpt>
      <trkpt lat="31.147738" lon="-7.8571163"></trkpt>
      <trkpt lat="31.1479664" lon="-7.857071"></trkpt>
      <trkpt lat="31.1481135" lon="-7.857136"></trkpt>
      <trkpt lat="31.1483092" lon="-7.8575865"></trkpt>
      <trkpt lat="31.1485792" lon="-7.8579016"></trkpt>
      <trkpt lat="31.1491265" lon="-7.8578686"></trkpt>
      <trkpt lat="31.149495" lon="-7.8581595"></trkpt>
      <trkpt lat="31.1494898" lon="-7.8582226"></trkpt>
      <trkpt lat="31.1493052" lon="-7.8579736"></trkpt>
      <trkpt lat="31.1491435" lon="-7.8579108"></trkpt>
      <trkpt lat="31.1489753" lon="-7.8578848"></trkpt>
      <trkpt lat="31.1488301" lon="-7.8579759"></trkpt>
      <trkpt lat="31.149146" lon="-7.8587635"></trkpt>
      <trkpt lat="31.1492905" lon="-7.8588793"></trkpt>
      <trkpt lat="31.1501714" lon="-7.8591504"></trkpt>
      <trkpt lat="31.1501589" lon="-7.8592428"></trkpt>
      <trkpt lat="31.1490922" lon="-7.8592079"></trkpt>
      <trkpt lat="31.1489943" lon="-7.8592753"></trkpt>
      <trkpt lat="31.1509877" lon="-7.8601675"></trkpt>
      <trkpt lat="31.150927" lon="-7.8602365"></trkpt>
      <trkpt lat="31.150728" lon="-7.8602156"></trkpt>
      <trkpt lat="31.1497641" lon="-7.8599533"></trkpt>
      <trkpt lat="31.1494147" lon="-7.8599915"></trkpt>
      <trkpt lat="31.1491673" lon="-7.8601867"></trkpt>
      <trkpt lat="31.149137" lon="-7.860555"></trkpt>
      <trkpt lat="31.14886" lon="-7.8608572"></trkpt>
      <trkpt lat="31.1489026" lon="-7.8611382"></trkpt>
      <trkpt lat="31.1493549" lon="-7.8614195"></trkpt>
      <trkpt lat="31.1494231" lon="-7.8617817"></trkpt>
      <trkpt lat="31.1492028" lon="-7.8621233"></trkpt>
      <trkpt lat="31.148676" lon="-7.862453"></trkpt>
      <trkpt lat="31.148668" lon="-7.8627924"></trkpt>
      <trkpt lat="31.1488411" lon="-7.8634285"></trkpt>
      <trkpt lat="31.1495207" lon="-7.8642446"></trkpt>
      <trkpt lat="31.1494574" lon="-7.8652196"></trkpt>
      <trkpt lat="31.1492014" lon="-7.8664968"></trkpt>
      <trkpt lat="31.1486903" lon="-7.8669982"></trkpt>
      <trkpt lat="31.1481076" lon="-7.8672582"></trkpt>
      <trkpt lat="31.1480257" lon="-7.8673682"></trkpt>
      <trkpt lat="31.1481621" lon="-7.8676331"></trkpt>
      <trkpt lat="31.1481925" lon="-7.8681098"></trkpt>
      <trkpt lat="31.1492354" lon="-7.8687096"></trkpt>
      <trkpt lat="31.1493584" lon="-7.8690148"></trkpt>
      <trkpt lat="31.1486622" lon="-7.8705617"></trkpt>
      <trkpt lat="31.1484096" lon="-7.8707521"></trkpt>
      <trkpt lat="31.1479209" lon="-7.8708395"></trkpt>
      <trkpt lat="31.1476113" lon="-7.8710457"></trkpt>
      <trkpt lat="31.1471494" lon="-7.8714469"></trkpt>
      <trkpt lat="31.147048" lon="-7.8718255"></trkpt>
      <trkpt lat="31.1484625" lon="-7.8733885"></trkpt>
      <trkpt lat="31.1487735" lon="-7.874193"></trkpt>
      <trkpt lat="31.148458" lon="-7.8745338"></trkpt>
      <trkpt lat="31.148263" lon="-7.875651"></trkpt>
      <trkpt lat="31.1475784" lon="-7.8767998"></trkpt>
      <trkpt lat="31.1474863" lon="-7.8772335"></trkpt>
      <trkpt lat="31.1466196" lon="-7.8777773"></trkpt>
      <trkpt lat="31.1463765" lon="-7.8781314"></trkpt>
      <trkpt lat="31.1466322" lon="-7.8785243"></trkpt>
      <trkpt lat="31.1468142" lon="-7.8792465"></trkpt>
      <trkpt lat="31.1469705" lon="-7.8794345"></trkpt>
      <trkpt lat="31.1472" lon="-7.8795379"></trkpt>
      <trkpt lat="31.1478776" lon="-7.8804363"></trkpt>
      <trkpt lat="31.1485025" lon="-7.8808846"></trkpt>
      <trkpt lat="31.1488355" lon="-7.8813326"></trkpt>
      <trkpt lat="31.1486695" lon="-7.8819589"></trkpt>
      <trkpt lat="31.1485198" lon="-7.8819349"></trkpt>
      <trkpt lat="31.1483421" lon="-7.882226"></trkpt>
      <trkpt lat="31.1473937" lon="-7.8827494"></trkpt>
      <trkpt lat="31.1472313" lon="-7.882931"></trkpt>
      <trkpt lat="31.1469432" lon="-7.883477"></trkpt>
      <trkpt lat="31.1467868" lon="-7.884033"></trkpt>
      <trkpt lat="31.1468789" lon="-7.8842548"></trkpt>
      <trkpt lat="31.1468938" lon="-7.8848617"></trkpt>
      <trkpt lat="31.1469777" lon="-7.8847334"></trkpt>
      <trkpt lat="31.1473918" lon="-7.8850808"></trkpt>
      <trkpt lat="31.1478639" lon="-7.8860802"></trkpt>
      <trkpt lat="31.1481562" lon="-7.8871257"></trkpt>
      <trkpt lat="31.1481398" lon="-7.8886047"></trkpt>
      <trkpt lat="31.1482741" lon="-7.8889763"></trkpt>
      <trkpt lat="31.1204902" lon="-7.9738027"></trkpt>
      <trkpt lat="31.1202587" lon="-7.9739695"></trkpt>
      <trkpt lat="31.1202167" lon="-7.9738776"></trkpt>
      <trkpt lat="31.1200161" lon="-7.9740425"></trkpt>
      <trkpt lat="31.1200357" lon="-7.9736877"></trkpt>
      <trkpt lat="31.1198944" lon="-7.9739994"></trkpt>
      <trkpt lat="31.1196684" lon="-7.9740413"></trkpt>
      <trkpt lat="31.1197205" lon="-7.9738846"></trkpt>
      <trkpt lat="31.1193909" lon="-7.9741189"></trkpt>
      <trkpt lat="31.1191172" lon="-7.9739824"></trkpt>
      <trkpt lat="31.1189073" lon="-7.9736956"></trkpt>
      <trkpt lat="31.11857" lon="-7.9737182"></trkpt>
      <trkpt lat="31.1183095" lon="-7.9736223"></trkpt>
      <trkpt lat="31.1184304" lon="-7.9734457"></trkpt>
      <trkpt lat="31.1182526" lon="-7.9735225"></trkpt>
      <trkpt lat="31.1180517" lon="-7.9733767"></trkpt>
      <trkpt lat="31.1175633" lon="-7.9732922"></trkpt>
      <trkpt lat="31.1164177" lon="-7.9719191"></trkpt>
      <trkpt lat="31.1160023" lon="-7.9711835"></trkpt>
      <trkpt lat="31.1157978" lon="-7.9713913"></trkpt>
      <trkpt lat="31.1157199" lon="-7.9713722"></trkpt>
      <trkpt lat="31.1157166" lon="-7.9711869"></trkpt>
      <trkpt lat="31.1155067" lon="-7.9712763"></trkpt>
      <trkpt lat="31.1155256" lon="-7.9710417"></trkpt>
      <trkpt lat="31.1147044" lon="-7.9708869"></trkpt>
      <trkpt lat="31.1146488" lon="-7.9707932"></trkpt>
      <trkpt lat="31.1145007" lon="-7.9709198"></trkpt>
      <trkpt lat="31.113962" lon="-7.9707127"></trkpt>
      <trkpt lat="31.1134582" lon="-7.9706834"></trkpt>
      <trkpt lat="31.1132618" lon="-7.970521"></trkpt>
      <trkpt lat="31.1130803" lon="-7.970499"></trkpt>
      <trkpt lat="31.1127878" lon="-7.9697849"></trkpt>
      <trkpt lat="31.1125828" lon="-7.969409"></trkpt>
      <trkpt lat="31.1123616" lon="-7.9692109"></trkpt>
      <trkpt lat="31.112363" lon="-7.969107"></trkpt>
      <trkpt lat="31.1121322" lon="-7.9698114"></trkpt>
      <trkpt lat="31.1118194" lon="-7.9702295"></trkpt>
      <trkpt lat="31.1108336" lon="-7.9697227"></trkpt>
      <trkpt lat="31.1096835" lon="-7.9693679"></trkpt>
      <trkpt lat="31.1092067" lon="-7.9694152"></trkpt>
      <trkpt lat="31.1091117" lon="-7.9693537"></trkpt>
      <trkpt lat="31.1076139" lon="-7.9693249"></trkpt>
      <trkpt lat="31.1067147" lon="-7.9687928"></trkpt>
      <trkpt lat="31.1065311" lon="-7.9688083"></trkpt>
      <trkpt lat="31.1062166" lon="-7.9683414"></trkpt>
      <trkpt lat="31.106041" lon="-7.968319"></trkpt>
      <trkpt lat="31.1056531" lon="-7.968862"></trkpt>
      <trkpt lat="31.1042581" lon="-7.9694727"></trkpt>
      <trkpt lat="31.1035755" lon="-7.9700517"></trkpt>
      <trkpt lat="31.1032595" lon="-7.9701465"></trkpt>
      <trkpt lat="31.1026838" lon="-7.9694234"></trkpt>
      <trkpt lat="31.1019704" lon="-7.96896"></trkpt>
      <trkpt lat="31.1008496" lon="-7.9685267"></trkpt>
      <trkpt lat="31.1006886" lon="-7.9685615"></trkpt>
      <trkpt lat="31.1000213" lon="-7.9680832"></trkpt>
      <trkpt lat="31.0999054" lon="-7.9677576"></trkpt>
      <trkpt lat="31.0990588" lon="-7.9675057"></trkpt>
      <trkpt lat="31.0984805" lon="-7.9666068"></trkpt>
      <trkpt lat="31.0983985" lon="-7.9662717"></trkpt>
      <trkpt lat="31.0982599" lon="-7.9662906"></trkpt>
      <trkpt lat="31.098223" lon="-7.9661867"></trkpt>
      <trkpt lat="31.0977635" lon="-7.9664752"></trkpt>
      <trkpt lat="31.0975722" lon="-7.9668469"></trkpt>
      <trkpt lat="31.0974892" lon="-7.9666984"></trkpt>
      <trkpt lat="31.0972589" lon="-7.9673838"></trkpt>
      <trkpt lat="31.0967943" lon="-7.9672596"></trkpt>
      <trkpt lat="31.0966197" lon="-7.9674991"></trkpt>
      <trkpt lat="31.0963828" lon="-7.9675212"></trkpt>
      <trkpt lat="31.0961769" lon="-7.9674115"></trkpt>
      <trkpt lat="31.0958083" lon="-7.9677319"></trkpt>
      <trkpt lat="31.0952733" lon="-7.967801"></trkpt>
      <trkpt lat="31.0945791" lon="-7.9676747"></trkpt>
      <trkpt lat="31.0942443" lon="-7.9673793"></trkpt>
      <trkpt lat="31.093719" lon="-7.9672317"></trkpt>
      <trkpt lat="31.0932049" lon="-7.9671666"></trkpt>
      <trkpt lat="31.0925198" lon="-7.9673047"></trkpt>
      <trkpt lat="31.0924719" lon="-7.9671689"></trkpt>
      <trkpt lat="31.0920203" lon="-7.9671382"></trkpt>
      <trkpt lat="31.0914241" lon="-7.96767"></trkpt>
      <trkpt lat="31.0909645" lon="-7.9678533"></trkpt>
      <trkpt lat="31.0906651" lon="-7.9682292"></trkpt>
      <trkpt lat="31.0902531" lon="-7.9683876"></trkpt>
      <trkpt lat="31.0893064" lon="-7.9684845"></trkpt>
      <trkpt lat="31.0888101" lon="-7.9682763"></trkpt>
      <trkpt lat="31.0886924" lon="-7.9680454"></trkpt>
      <trkpt lat="31.0885344" lon="-7.967994"></trkpt>
      <trkpt lat="31.0882285" lon="-7.9676567"></trkpt>
      <trkpt lat="31.08803" lon="-7.9676635"></trkpt>
      <trkpt lat="31.0878534" lon="-7.9673597"></trkpt>
      <trkpt lat="31.0877467" lon="-7.9674119"></trkpt>
      <trkpt lat="31.0876923" lon="-7.9672705"></trkpt>
      <trkpt lat="31.0874158" lon="-7.9670669"></trkpt>
      <trkpt lat="31.0873864" lon="-7.9669696"></trkpt>
      <trkpt lat="31.0876252" lon="-7.9669077"></trkpt>
      <trkpt lat="31.0875431" lon="-7.9667598"></trkpt>
      <trkpt lat="31.0877439" lon="-7.9667443"></trkpt>
      <trkpt lat="31.0875996" lon="-7.9664377"></trkpt>
      <trkpt lat="31.0873691" lon="-7.9664413"></trkpt>
      <trkpt lat="31.0874987" lon="-7.9663123"></trkpt>
      <trkpt lat="31.087275" lon="-7.9662739"></trkpt>
      <trkpt lat="31.0871884" lon="-7.9664245"></trkpt>
      <trkpt lat="31.0868641" lon="-7.9661882"></trkpt>
      <trkpt lat="31.0866402" lon="-7.9662181"></trkpt>
      <trkpt lat="31.0865554" lon="-7.966151"></trkpt>
      <trkpt lat="31.0863657" lon="-7.9661953"></trkpt>
      <trkpt lat="31.0862928" lon="-7.9663755"></trkpt>
      <trkpt lat="31.0862609" lon="-7.9660365"></trkpt>
      <trkpt lat="31.086122" lon="-7.966109"></trkpt>
      <trkpt lat="31.0861338" lon="-7.9659457"></trkpt>
      <trkpt lat="31.0860406" lon="-7.9659633"></trkpt>
      <trkpt lat="31.0860397" lon="-7.9658168"></trkpt>
      <trkpt lat="31.0859188" lon="-7.9658817"></trkpt>
      <trkpt lat="31.0859059" lon="-7.965781"></trkpt>
      <trkpt lat="31.0858093" lon="-7.9657936"></trkpt>
      <trkpt lat="31.0857756" lon="-7.9655559"></trkpt>
      <trkpt lat="31.0856435" lon="-7.9655933"></trkpt>
      <trkpt lat="31.0855863" lon="-7.965422"></trkpt>
      <trkpt lat="31.0856845" lon="-7.9653329"></trkpt>
      <trkpt lat="31.0854657" lon="-7.9652718"></trkpt>
      <trkpt lat="31.085239" lon="-7.9653636"></trkpt>
      <trkpt lat="31.0851905" lon="-7.9658089"></trkpt>
      <trkpt lat="31.0850569" lon="-7.9655029"></trkpt>
      <trkpt lat="31.0849341" lon="-7.9655623"></trkpt>
      <trkpt lat="31.0845365" lon="-7.964799"></trkpt>
      <trkpt lat="31.0844259" lon="-7.9648713"></trkpt>
      <trkpt lat="31.0843748" lon="-7.9651938"></trkpt>
      <trkpt lat="31.084204" lon="-7.9652136"></trkpt>
      <trkpt lat="31.0828817" lon="-7.9650206"></trkpt>
      <trkpt lat="31.0820471" lon="-7.9647967"></trkpt>
      <trkpt lat="31.0815437" lon="-7.9648503"></trkpt>
      <trkpt lat="31.0807638" lon="-7.9647447"></trkpt>
      <trkpt lat="31.0800657" lon="-7.9647941"></trkpt>
      <trkpt lat="31.0800327" lon="-7.9647203"></trkpt>
      <trkpt lat="31.0799624" lon="-7.9647829"></trkpt>
      <trkpt lat="31.0798342" lon="-7.9646347"></trkpt>
      <trkpt lat="31.0797156" lon="-7.9646678"></trkpt>
      <trkpt lat="31.079718" lon="-7.9645661"></trkpt>
      <trkpt lat="31.0795338" lon="-7.9645798"></trkpt>
      <trkpt lat="31.0795175" lon="-7.9644778"></trkpt>
      <trkpt lat="31.0794122" lon="-7.9645586"></trkpt>
      <trkpt lat="31.0793775" lon="-7.9644035"></trkpt>
      <trkpt lat="31.078346" lon="-7.9636531"></trkpt>
      <trkpt lat="31.0781759" lon="-7.9637391"></trkpt>
      <trkpt lat="31.0781477" lon="-7.9635304"></trkpt>
      <trkpt lat="31.0777002" lon="-7.9635165"></trkpt>
      <trkpt lat="31.0775146" lon="-7.9633406"></trkpt>
      <trkpt lat="31.0775184" lon="-7.9632403"></trkpt>
      <trkpt lat="31.0773112" lon="-7.9632978"></trkpt>
      <trkpt lat="31.077076" lon="-7.9631334"></trkpt>
      <trkpt lat="31.0766355" lon="-7.9632018"></trkpt>
      <trkpt lat="31.0763675" lon="-7.9634541"></trkpt>
      <trkpt lat="31.0762153" lon="-7.9633104"></trkpt>
      <trkpt lat="31.0761037" lon="-7.9634695"></trkpt>
      <trkpt lat="31.0758669" lon="-7.9633022"></trkpt>
      <trkpt lat="31.0758039" lon="-7.9635358"></trkpt>
      <trkpt lat="31.0755211" lon="-7.9632638"></trkpt>
      <trkpt lat="31.0753862" lon="-7.9634601"></trkpt>
      <trkpt lat="31.0752812" lon="-7.9633508"></trkpt>
      <trkpt lat="31.0752127" lon="-7.9634384"></trkpt>
      <trkpt lat="31.075093" lon="-7.9633679"></trkpt>
      <trkpt lat="31.0750273" lon="-7.9634291"></trkpt>
      <trkpt lat="31.0750567" lon="-7.963615"></trkpt>
      <trkpt lat="31.0748848" lon="-7.9635283"></trkpt>
      <trkpt lat="31.0748025" lon="-7.9636913"></trkpt>
      <trkpt lat="31.0746193" lon="-7.9633401"></trkpt>
      <trkpt lat="31.0745217" lon="-7.9628762"></trkpt>
      <trkpt lat="31.0740465" lon="-7.9622343"></trkpt>
      <trkpt lat="31.0739198" lon="-7.9615538"></trkpt>
      <trkpt lat="31.0735336" lon="-7.961112"></trkpt>
      <trkpt lat="31.073359" lon="-7.9612074"></trkpt>
      <trkpt lat="31.0731202" lon="-7.9609396"></trkpt>
      <trkpt lat="31.0729031" lon="-7.9606025"></trkpt>
      <trkpt lat="31.0728075" lon="-7.9602584"></trkpt>
      <trkpt lat="31.0726422" lon="-7.9603786"></trkpt>
      <trkpt lat="31.0728658" lon="-7.9604619"></trkpt>
      <trkpt lat="31.0725916" lon="-7.9603085"></trkpt>
      <trkpt lat="31.0725153" lon="-7.9601296"></trkpt>
      <trkpt lat="31.0707918" lon="-7.9600446"></trkpt>
      <trkpt lat="31.070331" lon="-7.9596105"></trkpt>
      <trkpt lat="31.0698299" lon="-7.9600371"></trkpt>
      <trkpt lat="31.0697322" lon="-7.9602334"></trkpt>
      <trkpt lat="31.0696016" lon="-7.9611954"></trkpt>
      <trkpt lat="31.069386" lon="-7.9610936"></trkpt>
      <trkpt lat="31.069357" lon="-7.9611427"></trkpt>
      <trkpt lat="31.0693945" lon="-7.9616327"></trkpt>
      <trkpt lat="31.069225" lon="-7.9626325"></trkpt>
      <trkpt lat="31.0681863" lon="-7.9616964"></trkpt>
      <trkpt lat="31.0676666" lon="-7.9614619"></trkpt>
      <trkpt lat="31.0673352" lon="-7.9608271"></trkpt>
      <trkpt lat="31.0673888" lon="-7.9604339"></trkpt>
      <trkpt lat="31.0672241" lon="-7.9600514"></trkpt>
      <trkpt lat="31.0668734" lon="-7.9597971"></trkpt>
      <trkpt lat="31.0667509" lon="-7.9595691"></trkpt>
      <trkpt lat="31.066802" lon="-7.9586756"></trkpt>
      <trkpt lat="31.0669748" lon="-7.9581798"></trkpt>
      <trkpt lat="31.0668032" lon="-7.9582687"></trkpt>
      <trkpt lat="31.0666592" lon="-7.9582234"></trkpt>
      <trkpt lat="31.0670086" lon="-7.9576376"></trkpt>
      <trkpt lat="31.0668658" lon="-7.9577595"></trkpt>
      <trkpt lat="31.0668474" lon="-7.9574821"></trkpt>
      <trkpt lat="31.0666218" lon="-7.9573355"></trkpt>
      <trkpt lat="31.0666929" lon="-7.9572679"></trkpt>
      <trkpt lat="31.0665995" lon="-7.9571594"></trkpt>
      <trkpt lat="31.0663511" lon="-7.9571495"></trkpt>
      <trkpt lat="31.066351" lon="-7.9569547"></trkpt>
      <trkpt lat="31.066115" lon="-7.9570064"></trkpt>
      <trkpt lat="31.0659173" lon="-7.956845"></trkpt>
      <trkpt lat="31.0658056" lon="-7.9568832"></trkpt>
      <trkpt lat="31.0657919" lon="-7.9567028"></trkpt>
      <trkpt lat="31.0655439" lon="-7.9566911"></trkpt>
      <trkpt lat="31.0652636" lon="-7.9563701"></trkpt>
      <trkpt lat="31.0646116" lon="-7.9559069"></trkpt>
      <trkpt lat="31.0645359" lon="-7.9559278"></trkpt>
      <trkpt lat="31.0643342" lon="-7.9555131"></trkpt>
      <trkpt lat="31.0642037" lon="-7.9555188"></trkpt>
      <trkpt lat="31.0641219" lon="-7.955274"></trkpt>
      <trkpt lat="31.0636754" lon="-7.9547532"></trkpt>
      <trkpt lat="31.0622756" lon="-7.9541141"></trkpt>
      <trkpt lat="31.0615997" lon="-7.9546463"></trkpt>
      <trkpt lat="31.0609449" lon="-7.9549417"></trkpt>
      <trkpt lat="31.06031" lon="-7.9554061"></trkpt>
      <trkpt lat="31.060146" lon="-7.9554174"></trkpt>
      <trkpt lat="31.0599838" lon="-7.9550988"></trkpt>
      <trkpt lat="31.0597693" lon="-7.9551826"></trkpt>
      <trkpt lat="31.0595149" lon="-7.9551265"></trkpt>
      <trkpt lat="31.0588532" lon="-7.9547894"></trkpt>
      <trkpt lat="31.0583154" lon="-7.954955"></trkpt>
      <trkpt lat="31.0580503" lon="-7.9554395"></trkpt>
      <trkpt lat="31.0578454" lon="-7.9553443"></trkpt>
      <trkpt lat="31.0576476" lon="-7.9548105"></trkpt>
      <trkpt lat="31.0575709" lon="-7.9552678"></trkpt>
      <trkpt lat="31.0573657" lon="-7.9552283"></trkpt>
      <trkpt lat="31.0573294" lon="-7.9557355"></trkpt>
      <trkpt lat="31.0571111" lon="-7.9559468"></trkpt>
      <trkpt lat="31.0570718" lon="-7.9564228"></trkpt>
      <trkpt lat="31.0570275" lon="-7.9562543"></trkpt>
      <trkpt lat="31.0569751" lon="-7.9562742"></trkpt>
      <trkpt lat="31.0568751" lon="-7.9566171"></trkpt>
      <trkpt lat="31.0569967" lon="-7.9567057"></trkpt>
      <trkpt lat="31.0570693" lon="-7.9575021"></trkpt>
      <trkpt lat="31.0573306" lon="-7.957885"></trkpt>
      <trkpt lat="31.0573427" lon="-7.9581918"></trkpt>
      <trkpt lat="31.057462" lon="-7.9583283"></trkpt>
      <trkpt lat="31.0574874" lon="-7.9588698"></trkpt>
      <trkpt lat="31.0578803" lon="-7.9594585"></trkpt>
      <trkpt lat="31.0578039" lon="-7.9595593"></trkpt>
      <trkpt lat="31.0578734" lon="-7.9601266"></trkpt>
      <trkpt lat="31.0574854" lon="-7.9621246"></trkpt>
      <trkpt lat="31.0579689" lon="-7.96228"></trkpt>
      <trkpt lat="31.0581836" lon="-7.9625795"></trkpt>
      <trkpt lat="31.0581085" lon="-7.962995"></trkpt>
      <trkpt lat="31.0581308" lon="-7.963268"></trkpt>
      <trkpt lat="31.0582481" lon="-7.9634655"></trkpt>
      <trkpt lat="31.0581512" lon="-7.9636427"></trkpt>
      <trkpt lat="31.0582308" lon="-7.9638396"></trkpt>
      <trkpt lat="31.0591713" lon="-7.9648745"></trkpt>
      <trkpt lat="31.0591532" lon="-7.9651537"></trkpt>
      <trkpt lat="31.0592651" lon="-7.9654807"></trkpt>
      <trkpt lat="31.0595744" lon="-7.9659805"></trkpt>
      <trkpt lat="31.0599472" lon="-7.966325"></trkpt>
      <trkpt lat="31.0603145" lon="-7.9670382"></trkpt>
      <trkpt lat="31.0603444" lon="-7.9675111"></trkpt>
      <trkpt lat="31.0601001" lon="-7.9679704"></trkpt>
      <trkpt lat="31.0603546" lon="-7.969056"></trkpt>
      <trkpt lat="31.0600876" lon="-7.9701129"></trkpt>
      <trkpt lat="31.0603754" lon="-7.9707041"></trkpt>
      <trkpt lat="31.0605076" lon="-7.9712147"></trkpt>
      <trkpt lat="31.0611322" lon="-7.9713899"></trkpt>
      <trkpt lat="31.0619246" lon="-7.9719116"></trkpt>
      <trkpt lat="31.0622677" lon="-7.9730949"></trkpt>
      <trkpt lat="31.0622101" lon="-7.9733919"></trkpt>
      <trkpt lat="31.0623786" lon="-7.9741812"></trkpt>
      <trkpt lat="31.0622985" lon="-7.9750986"></trkpt>
      <trkpt lat="31.0621801" lon="-7.9754197"></trkpt>
      <trkpt lat="31.0615347" lon="-7.9766147"></trkpt>
      <trkpt lat="31.0614104" lon="-7.977012"></trkpt>
      <trkpt lat="31.0607009" lon="-7.977951"></trkpt>
      <trkpt lat="31.0605047" lon="-7.9784338"></trkpt>
      <trkpt lat="31.0604871" lon="-7.9790396"></trkpt>
      <trkpt lat="31.0603935" lon="-7.9792712"></trkpt>
      <trkpt lat="31.0605649" lon="-7.9794254"></trkpt>
      <trkpt lat="31.0605796" lon="-7.9797732"></trkpt>
      <trkpt lat="31.0606821" lon="-7.9798338"></trkpt>
      <trkpt lat="31.0606443" lon="-7.9802429"></trkpt>
      <trkpt lat="31.0604057" lon="-7.9805806"></trkpt>
      <trkpt lat="31.0603656" lon="-7.9808681"></trkpt>
      <trkpt lat="31.0605422" lon="-7.9810508"></trkpt>
      <trkpt lat="31.0601088" lon="-7.9817916"></trkpt>
      <trkpt lat="31.06005" lon="-7.9821089"></trkpt>
      <trkpt lat="31.0604598" lon="-7.9824431"></trkpt>
      <trkpt lat="31.0602742" lon="-7.9827151"></trkpt>
      <trkpt lat="31.0607911" lon="-7.9830903"></trkpt>
      <trkpt lat="31.0606565" lon="-7.9836659"></trkpt>
      <trkpt lat="31.0606825" lon="-7.9838707"></trkpt>
      <trkpt lat="31.0605312" lon="-7.9842667"></trkpt>
      <trkpt lat="31.0605608" lon="-7.984711"></trkpt>
      <trkpt lat="31.0604709" lon="-7.9847571"></trkpt>
      <trkpt lat="31.0605209" lon="-7.9851817"></trkpt>
      <trkpt lat="31.0604271" lon="-7.9858521"></trkpt>
      <trkpt lat="31.0605201" lon="-7.9860951"></trkpt>
      <trkpt lat="31.0603462" lon="-7.9864983"></trkpt>
      <trkpt lat="31.0603964" lon="-7.9867301"></trkpt>
      <trkpt lat="31.0602172" lon="-7.9875264"></trkpt>
      <trkpt lat="31.060297" lon="-7.9878246"></trkpt>
      <trkpt lat="31.0603232" lon="-7.9887664"></trkpt>
      <trkpt lat="31.060581" lon="-7.989144"></trkpt>
      <trkpt lat="31.06124" lon="-7.9896784"></trkpt>
      <trkpt lat="31.061321" lon="-7.9898461"></trkpt>
      <trkpt lat="31.0616974" lon="-7.9900828"></trkpt>
      <trkpt lat="31.0621537" lon="-7.990606"></trkpt>
      <trkpt lat="31.0621337" lon="-7.9907695"></trkpt>
      <trkpt lat="31.0622205" lon="-7.9908028"></trkpt>
      <trkpt lat="31.0620788" lon="-7.9908519"></trkpt>
      <trkpt lat="31.0619402" lon="-7.9910944"></trkpt>
      <trkpt lat="31.0620469" lon="-7.9912036"></trkpt>
      <trkpt lat="31.0620709" lon="-7.9914302"></trkpt>
      <trkpt lat="31.0618829" lon="-7.9915618"></trkpt>
      <trkpt lat="31.0619674" lon="-7.9917234"></trkpt>
      <trkpt lat="31.0618543" lon="-7.9918291"></trkpt>
      <trkpt lat="31.0618675" lon="-7.9919291"></trkpt>
      <trkpt lat="31.0619756" lon="-7.9920093"></trkpt>
      <trkpt lat="31.0625076" lon="-7.9921759"></trkpt>
      <trkpt lat="31.0633083" lon="-7.9918263"></trkpt>
      <trkpt lat="31.0639895" lon="-7.991695"></trkpt>
      <trkpt lat="31.0645862" lon="-7.9911045"></trkpt>
      <trkpt lat="31.0650985" lon="-7.9918077"></trkpt>
      <trkpt lat="31.0651821" lon="-7.9923338"></trkpt>
      <trkpt lat="31.0653464" lon="-7.9922811"></trkpt>
      <trkpt lat="31.0653969" lon="-7.9924228"></trkpt>
      <trkpt lat="31.0657213" lon="-7.9925046"></trkpt>
      <trkpt lat="31.0657297" lon="-7.9928905"></trkpt>
      <trkpt lat="31.065929" lon="-7.9930552"></trkpt>
      <trkpt lat="31.0660268" lon="-7.993322"></trkpt>
      <trkpt lat="31.0660353" lon="-7.9937879"></trkpt>
      <trkpt lat="31.0661754" lon="-7.9940962"></trkpt>
      <trkpt lat="31.066405" lon="-7.9957654"></trkpt>
      <trkpt lat="31.0665997" lon="-7.9962342"></trkpt>
      <trkpt lat="31.0665063" lon="-7.9964363"></trkpt>
      <trkpt lat="31.0666519" lon="-7.9966828"></trkpt>
      <trkpt lat="31.0671515" lon="-7.998708"></trkpt>
      <trkpt lat="31.0667131" lon="-7.9994519"></trkpt>
      <trkpt lat="31.0664712" lon="-7.9996673"></trkpt>
      <trkpt lat="31.0663751" lon="-8.0000291"></trkpt>
      <trkpt lat="31.0661931" lon="-8.0001869"></trkpt>
      <trkpt lat="31.0661232" lon="-8.0004621"></trkpt>
      <trkpt lat="31.0663127" lon="-8.0012549"></trkpt>
      <trkpt lat="31.0664519" lon="-8.0015054"></trkpt>
      <trkpt lat="31.0664592" lon="-8.0018148"></trkpt>
      <trkpt lat="31.0666361" lon="-8.0020258"></trkpt>
      <trkpt lat="31.0666516" lon="-8.002372"></trkpt>
      <trkpt lat="31.0669702" lon="-8.0026513"></trkpt>
      <trkpt lat="31.068036" lon="-8.0031106"></trkpt>
      <trkpt lat="31.0682918" lon="-8.0033272"></trkpt>
      <trkpt lat="31.0683083" lon="-8.003517"></trkpt>
      <trkpt lat="31.0684369" lon="-8.0034385"></trkpt>
      <trkpt lat="31.0688748" lon="-8.0035234"></trkpt>
      <trkpt lat="31.0698201" lon="-8.0042302"></trkpt>
      <trkpt lat="31.0700911" lon="-8.0042867"></trkpt>
      <trkpt lat="31.0703954" lon="-8.0041976"></trkpt>
      <trkpt lat="31.0710919" lon="-8.0045099"></trkpt>
      <trkpt lat="31.0712409" lon="-8.0048857"></trkpt>
      <trkpt lat="31.0712709" lon="-8.0056247"></trkpt>
      <trkpt lat="31.0715767" lon="-8.0061927"></trkpt>
      <trkpt lat="31.0718202" lon="-8.0072334"></trkpt>
      <trkpt lat="31.072025" lon="-8.0075986"></trkpt>
      <trkpt lat="31.0723931" lon="-8.0079999"></trkpt>
      <trkpt lat="31.0723492" lon="-8.008214"></trkpt>
      <trkpt lat="31.0725124" lon="-8.0085316"></trkpt>
      <trkpt lat="31.0726416" lon="-8.0095668"></trkpt>
      <trkpt lat="31.0730042" lon="-8.0104071"></trkpt>
      <trkpt lat="31.073087" lon="-8.0113671"></trkpt>
      <trkpt lat="31.0730608" lon="-8.0126638"></trkpt>
      <trkpt lat="31.0727361" lon="-8.0135627"></trkpt>
      <trkpt lat="31.0733472" lon="-8.0139382"></trkpt>
      <trkpt lat="31.0736104" lon="-8.0139737"></trkpt>
      <trkpt lat="31.0733801" lon="-8.0150851"></trkpt>
      <trkpt lat="31.072914" lon="-8.016055"></trkpt>
      <trkpt lat="31.0731243" lon="-8.0166702"></trkpt>
      <trkpt lat="31.0733842" lon="-8.0167992"></trkpt>
      <trkpt lat="31.0735854" lon="-8.0170544"></trkpt>
      <trkpt lat="31.0737519" lon="-8.0170592"></trkpt>
      <trkpt lat="31.0739763" lon="-8.0172185"></trkpt>
      <trkpt lat="31.0740499" lon="-8.0177185"></trkpt>
      <trkpt lat="31.0741644" lon="-8.0178987"></trkpt>
      <trkpt lat="31.0740153" lon="-8.0180356"></trkpt>
      <trkpt lat="31.0741855" lon="-8.0183826"></trkpt>
      <trkpt lat="31.0742201" lon="-8.0191685"></trkpt>
      <trkpt lat="31.0743198" lon="-8.0192752"></trkpt>
      <trkpt lat="31.0744939" lon="-8.0192656"></trkpt>
      <trkpt lat="31.0745191" lon="-8.0194328"></trkpt>
      <trkpt lat="31.0742622" lon="-8.0202003"></trkpt>
      <trkpt lat="31.0741352" lon="-8.0211665"></trkpt>
      <trkpt lat="31.0739991" lon="-8.021525"></trkpt>
      <trkpt lat="31.0737701" lon="-8.0232405"></trkpt>
      <trkpt lat="31.0734002" lon="-8.0240013"></trkpt>
      <trkpt lat="31.0731606" lon="-8.0249169"></trkpt>
      <trkpt lat="31.0730211" lon="-8.0260854"></trkpt>
      <trkpt lat="31.0731071" lon="-8.0268963"></trkpt>
      <trkpt lat="31.0730026" lon="-8.0269984"></trkpt>
      <trkpt lat="31.0728905" lon="-8.0268485"></trkpt>
      <trkpt lat="31.072742" lon="-8.0269532"></trkpt>
      <trkpt lat="31.0725126" lon="-8.0267053"></trkpt>
      <trkpt lat="31.0724194" lon="-8.0267479"></trkpt>
      <trkpt lat="31.0712905" lon="-8.0287368"></trkpt>
      <trkpt lat="31.0712041" lon="-8.0290686"></trkpt>
      <trkpt lat="31.0710743" lon="-8.0291148"></trkpt>
      <trkpt lat="31.0709659" lon="-8.0288698"></trkpt>
      <trkpt lat="31.0707624" lon="-8.0289989"></trkpt>
      <trkpt lat="31.0707199" lon="-8.029168"></trkpt>
      <trkpt lat="31.0708445" lon="-8.0294536"></trkpt>
      <trkpt lat="31.0707757" lon="-8.0295284"></trkpt>
      <trkpt lat="31.0708187" lon="-8.029644"></trkpt>
      <trkpt lat="31.071175" lon="-8.0299133"></trkpt>
      <trkpt lat="31.0703183" lon="-8.0298769"></trkpt>
      <trkpt lat="31.0703924" lon="-8.029955"></trkpt>
      <trkpt lat="31.0702963" lon="-8.030021"></trkpt>
      <trkpt lat="31.0704418" lon="-8.0303171"></trkpt>
      <trkpt lat="31.0707539" lon="-8.030584"></trkpt>
      <trkpt lat="31.0712334" lon="-8.0306331"></trkpt>
      <trkpt lat="31.0717208" lon="-8.0308577"></trkpt>
      <trkpt lat="31.071846" lon="-8.030786"></trkpt>
      <trkpt lat="31.0721842" lon="-8.0308552"></trkpt>
      <trkpt lat="31.0724272" lon="-8.0307103"></trkpt>
      <trkpt lat="31.0727713" lon="-8.0311996"></trkpt>
      <trkpt lat="31.0732895" lon="-8.0315107"></trkpt>
      <trkpt lat="31.0733904" lon="-8.0317945"></trkpt>
      <trkpt lat="31.0735929" lon="-8.0319063"></trkpt>
      <trkpt lat="31.0739929" lon="-8.0324085"></trkpt>
      <trkpt lat="31.0741815" lon="-8.0325779"></trkpt>
      <trkpt lat="31.0743905" lon="-8.032606"></trkpt>
      <trkpt lat="31.074688" lon="-8.0331122"></trkpt>
      <trkpt lat="31.0747233" lon="-8.0334864"></trkpt>
      <trkpt lat="31.0749194" lon="-8.0336076"></trkpt>
      <trkpt lat="31.0749485" lon="-8.0337138"></trkpt>
      <trkpt lat="31.0748538" lon="-8.0341241"></trkpt>
      <trkpt lat="31.0745264" lon="-8.0345357"></trkpt>
      <trkpt lat="31.074828" lon="-8.0355291"></trkpt>
      <trkpt lat="31.07438" lon="-8.0359784"></trkpt>
      <trkpt lat="31.074098" lon="-8.0360544"></trkpt>
      <trkpt lat="31.0738417" lon="-8.0363605"></trkpt>
      <trkpt lat="31.0733624" lon="-8.0366768"></trkpt>
      <trkpt lat="31.0733937" lon="-8.0368332"></trkpt>
      <trkpt lat="31.0732638" lon="-8.0371229"></trkpt>
      <trkpt lat="31.0734304" lon="-8.0372985"></trkpt>
      <trkpt lat="31.0731914" lon="-8.0374023"></trkpt>
      <trkpt lat="31.0728733" lon="-8.0373575"></trkpt>
      <trkpt lat="31.0728589" lon="-8.0374585"></trkpt>
      <trkpt lat="31.0725608" lon="-8.0377117"></trkpt>
      <trkpt lat="31.0724285" lon="-8.0381654"></trkpt>
      <trkpt lat="31.0721368" lon="-8.0385396"></trkpt>
      <trkpt lat="31.0719811" lon="-8.038942"></trkpt>
      <trkpt lat="31.0719141" lon="-8.0389887"></trkpt>
      <trkpt lat="31.0718721" lon="-8.0388388"></trkpt>
      <trkpt lat="31.0720158" lon="-8.0390348"></trkpt>
      <trkpt lat="31.0718863" lon="-8.0388461"></trkpt>
      <trkpt lat="31.0719169" lon="-8.039042"></trkpt>
      <trkpt lat="31.0718888" lon="-8.0388495"></trkpt>
    </trkseg>
  </trk>
</gpx>