<?xml version="1.0" encoding="UTF-8"?>
<gpx version="1.1" creator="lgrs-site-migration" xmlns="http://www.topografix.com/GPX/1/1">
  <trk><name>traversee-prokletije-ski-montenegro</name>
    <trkseg>
      <trkpt lat="42.528973" lon="19.726449"></trkpt>
      <trkpt lat="42.527534" lon="19.727684"></trkpt>
      <trkpt lat="42.52831" lon="19.731436"></trkpt>
      <trkpt lat="42.527953" lon="19.733294"></trkpt>
      <trkpt lat="42.526861" lon="19.733635"></trkpt>
      <trkpt lat="42.526755" lon="19.744259"></trkpt>
      <trkpt lat="42.524581" lon="19.748285"></trkpt>
      <trkpt lat="42.522004" lon="19.748675"></trkpt>
      <trkpt lat="42.519234" lon="19.756101"></trkpt>
      <trkpt lat="42.517388" lon="19.757496"></trkpt>
      <trkpt lat="42.517851" lon="19.759555"></trkpt>
      <trkpt lat="42.514402" lon="19.760431"></trkpt>
      <trkpt lat="42.510231" lon="19.757722"></trkpt>
      <trkpt lat="42.508375" lon="19.760181"></trkpt>
      <trkpt lat="42.507938" lon="19.765132"></trkpt>
      <trkpt lat="42.507184" lon="19.765731"></trkpt>
      <trkpt lat="42.506472" lon="19.764086"></trkpt>
      <trkpt lat="42.505133" lon="19.765667"></trkpt>
      <trkpt lat="42.506952" lon="19.764652"></trkpt>
      <trkpt lat="42.508285" lon="19.765971"></trkpt>
      <trkpt lat="42.506624" lon="19.768347"></trkpt>
      <trkpt lat="42.507702" lon="19.768161"></trkpt>
      <trkpt lat="42.506985" lon="19.76911"></trkpt>
      <trkpt lat="42.509657" lon="19.776825"></trkpt>
      <trkpt lat="42.517747" lon="19.785126"></trkpt>
      <trkpt lat="42.523909" lon="19.787481"></trkpt>
      <trkpt lat="42.519934" lon="19.786317"></trkpt>
      <trkpt lat="42.515969" lon="19.791565"></trkpt>
      <trkpt lat="42.513058" lon="19.792877"></trkpt>
      <trkpt lat="42.512181" lon="19.791744"></trkpt>
      <trkpt lat="42.511904" lon="19.792933"></trkpt>
      <trkpt lat="42.510722" lon="19.792422"></trkpt>
      <trkpt lat="42.511015" lon="19.794188"></trkpt>
      <trkpt lat="42.508879" lon="19.795958"></trkpt>
      <trkpt lat="42.510728" lon="19.800448"></trkpt>
      <trkpt lat="42.50978" lon="19.803464"></trkpt>
      <trkpt lat="42.508064" lon="19.80257"></trkpt>
      <trkpt lat="42.506332" lon="19.804113"></trkpt>
      <trkpt lat="42.505463" lon="19.802427"></trkpt>
      <trkpt lat="42.506111" lon="19.803869"></trkpt>
      <trkpt lat="42.50834" lon="19.802602"></trkpt>
      <trkpt lat="42.510379" lon="19.805806"></trkpt>
      <trkpt lat="42.509701" lon="19.810346"></trkpt>
      <trkpt lat="42.51157" lon="19.813876"></trkpt>
      <trkpt lat="42.510382" lon="19.815468"></trkpt>
      <trkpt lat="42.514416" lon="19.833119"></trkpt>
      <trkpt lat="42.517705" lon="19.835749"></trkpt>
      <trkpt lat="42.522777" lon="19.843214"></trkpt>
      <trkpt lat="42.525796" lon="19.844877"></trkpt>
      <trkpt lat="42.525817" lon="19.846037"></trkpt>
      <trkpt lat="42.523573" lon="19.847331"></trkpt>
      <trkpt lat="42.525017" lon="19.849589"></trkpt>
      <trkpt lat="42.522509" lon="19.852674"></trkpt>
      <trkpt lat="42.52272" lon="19.856263"></trkpt>
      <trkpt lat="42.518779" lon="19.867121"></trkpt>
      <trkpt lat="42.51719" lon="19.866469"></trkpt>
      <trkpt lat="42.515125" lon="19.868955"></trkpt>
      <trkpt lat="42.514975" lon="19.866512"></trkpt>
      <trkpt lat="42.513503" lon="19.865194"></trkpt>
      <trkpt lat="42.509427" lon="19.865917"></trkpt>
      <trkpt lat="42.508028" lon="19.864928"></trkpt>
      <trkpt lat="42.507654" lon="19.861635"></trkpt>
      <trkpt lat="42.503727" lon="19.862006"></trkpt>
      <trkpt lat="42.50458" lon="19.859259"></trkpt>
      <trkpt lat="42.503651" lon="19.858574"></trkpt>
      <trkpt lat="42.504275" lon="19.856215"></trkpt>
      <trkpt lat="42.503127" lon="19.852213"></trkpt>
      <trkpt lat="42.499648" lon="19.849393"></trkpt>
      <trkpt lat="42.500008" lon="19.847734"></trkpt>
      <trkpt lat="42.497893" lon="19.843092"></trkpt>
      <trkpt lat="42.492493" lon="19.845572"></trkpt>
      <trkpt lat="42.48131" lon="19.842011"></trkpt>
      <trkpt lat="42.480755" lon="19.841036"></trkpt>
      <trkpt lat="42.48048" lon="19.843357"></trkpt>
      <trkpt lat="42.479481" lon="19.842587"></trkpt>
      <trkpt lat="42.478273" lon="19.84436"></trkpt>
      <trkpt lat="42.478715" lon="19.847705"></trkpt>
      <trkpt lat="42.479735" lon="19.847625"></trkpt>
      <trkpt lat="42.479453" lon="19.850552"></trkpt>
      <trkpt lat="42.479763" lon="19.846249"></trkpt>
      <trkpt lat="42.478366" lon="19.845017"></trkpt>
      <trkpt lat="42.478315" lon="19.842064"></trkpt>
      <trkpt lat="42.474019" lon="19.841683"></trkpt>
      <trkpt lat="42.472111" lon="19.843263"></trkpt>
      <trkpt lat="42.471463" lon="19.842755"></trkpt>
      <trkpt lat="42.470948" lon="19.846553"></trkpt>
      <trkpt lat="42.46825" lon="19.850933"></trkpt>
      <trkpt lat="42.466425" lon="19.851003"></trkpt>
      <trkpt lat="42.460085" lon="19.855728"></trkpt>
      <trkpt lat="42.453696" lon="19.874109"></trkpt>
      <trkpt lat="42.454214" lon="19.872343"></trkpt>
      <trkpt lat="42.455293" lon="19.873815"></trkpt>
      <trkpt lat="42.458588" lon="19.873206"></trkpt>
      <trkpt lat="42.458397" lon="19.875656"></trkpt>
      <trkpt lat="42.462049" lon="19.881765"></trkpt>
      <trkpt lat="42.464351" lon="19.882375"></trkpt>
      <trkpt lat="42.466862" lon="19.889991"></trkpt>
      <trkpt lat="42.473512" lon="19.883681"></trkpt>
      <trkpt lat="42.473898" lon="19.884594"></trkpt>
      <trkpt lat="42.476403" lon="19.883426"></trkpt>
      <trkpt lat="42.477361" lon="19.884637"></trkpt>
      <trkpt lat="42.483558" lon="19.885558"></trkpt>
      <trkpt lat="42.490197" lon="19.888339"></trkpt>
      <trkpt lat="42.491977" lon="19.884571"></trkpt>
      <trkpt lat="42.492151" lon="19.885495"></trkpt>
      <trkpt lat="42.494267" lon="19.885241"></trkpt>
      <trkpt lat="42.491833" lon="19.886191"></trkpt>
      <trkpt lat="42.490316" lon="19.888351"></trkpt>
      <trkpt lat="42.495265" lon="19.889758"></trkpt>
      <trkpt lat="42.497623" lon="19.893305"></trkpt>
      <trkpt lat="42.499657" lon="19.892882"></trkpt>
      <trkpt lat="42.503333" lon="19.895972"></trkpt>
      <trkpt lat="42.507754" lon="19.891134"></trkpt>
      <trkpt lat="42.512081" lon="19.890869"></trkpt>
      <trkpt lat="42.513122" lon="19.886485"></trkpt>
      <trkpt lat="42.512403" lon="19.890835"></trkpt>
      <trkpt lat="42.507806" lon="19.897528"></trkpt>
      <trkpt lat="42.508676" lon="19.898055"></trkpt>
      <trkpt lat="42.508362" lon="19.900826"></trkpt>
      <trkpt lat="42.510603" lon="19.903208"></trkpt>
      <trkpt lat="42.507354" lon="19.90609"></trkpt>
      <trkpt lat="42.50512" lon="19.904658"></trkpt>
      <trkpt lat="42.50214" lon="19.90501"></trkpt>
      <trkpt lat="42.501479" lon="19.903939"></trkpt>
      <trkpt lat="42.498139" lon="19.926128"></trkpt>
      <trkpt lat="42.498346" lon="19.923506"></trkpt>
      <trkpt lat="42.497603" lon="19.925028"></trkpt>
      <trkpt lat="42.498015" lon="19.928657"></trkpt>
      <trkpt lat="42.497263" lon="19.931639"></trkpt>
      <trkpt lat="42.49599" lon="19.931075"></trkpt>
      <trkpt lat="42.497031" lon="19.934572"></trkpt>
      <trkpt lat="42.495629" lon="19.940436"></trkpt>
      <trkpt lat="42.496319" lon="19.943336"></trkpt>
      <trkpt lat="42.49437" lon="19.949822"></trkpt>
      <trkpt lat="42.495846" lon="19.948715"></trkpt>
      <trkpt lat="42.498173" lon="19.95667"></trkpt>
      <trkpt lat="42.500255" lon="19.949155"></trkpt>
      <trkpt lat="42.501562" lon="19.947874"></trkpt>
      <trkpt lat="42.50126" lon="19.955546"></trkpt>
      <trkpt lat="42.502695" lon="19.959162"></trkpt>
      <trkpt lat="42.5042" lon="19.960048"></trkpt>
      <trkpt lat="42.503619" lon="19.963079"></trkpt>
      <trkpt lat="42.504526" lon="19.963755"></trkpt>
      <trkpt lat="42.504964" lon="19.970279"></trkpt>
      <trkpt lat="42.510377" lon="19.980181"></trkpt>
      <trkpt lat="42.509874" lon="19.989075"></trkpt>
      <trkpt lat="42.511329" lon="19.989772"></trkpt>
      <trkpt lat="42.51228" lon="19.994814"></trkpt>
      <trkpt lat="42.510877" lon="19.995948"></trkpt>
      <trkpt lat="42.50905" lon="20.002716"></trkpt>
      <trkpt lat="42.505768" lon="20.006315"></trkpt>
      <trkpt lat="42.506683" lon="20.007618"></trkpt>
      <trkpt lat="42.510555" lon="20.009329"></trkpt>
      <trkpt lat="42.515926" lon="20.008748"></trkpt>
      <trkpt lat="42.520651" lon="20.011337"></trkpt>
      <trkpt lat="42.521797" lon="20.013222"></trkpt>
      <trkpt lat="42.524525" lon="20.01389"></trkpt>
      <trkpt lat="42.525728" lon="20.016895"></trkpt>
      <trkpt lat="42.529407" lon="20.015414"></trkpt>
      <trkpt lat="42.530163" lon="20.01884"></trkpt>
      <trkpt lat="42.532224" lon="20.01587"></trkpt>
      <trkpt lat="42.536056" lon="20.013489"></trkpt>
      <trkpt lat="42.540149" lon="20.014249"></trkpt>
      <trkpt lat="42.543863" lon="20.017057"></trkpt>
      <trkpt lat="42.543478" lon="20.027303"></trkpt>
      <trkpt lat="42.548695" lon="20.042084"></trkpt>
      <trkpt lat="42.547778" lon="20.044233"></trkpt>
      <trkpt lat="42.547622" lon="20.053656"></trkpt>
      <trkpt lat="42.549778" lon="20.056244"></trkpt>
      <trkpt lat="42.550328" lon="20.059896"></trkpt>
      <trkpt lat="42.551341" lon="20.059888"></trkpt>
      <trkpt lat="42.550661" lon="20.060931"></trkpt>
      <trkpt lat="42.551563" lon="20.063858"></trkpt>
      <trkpt lat="42.550806" lon="20.067223"></trkpt>
      <trkpt lat="42.546505" lon="20.069882"></trkpt>
      <trkpt lat="42.547691" lon="20.080488"></trkpt>
      <trkpt lat="42.546662" lon="20.082547"></trkpt>
      <trkpt lat="42.548281" lon="20.082811"></trkpt>
      <trkpt lat="42.548816" lon="20.08586"></trkpt>
      <trkpt lat="42.546298" lon="20.089819"></trkpt>
      <trkpt lat="42.545009" lon="20.08975"></trkpt>
      <trkpt lat="42.546935" lon="20.0974"></trkpt>
      <trkpt lat="42.550213" lon="20.10032"></trkpt>
      <trkpt lat="42.556987" lon="20.103799"></trkpt>
      <trkpt lat="42.557912" lon="20.107163"></trkpt>
      <trkpt lat="42.558763" lon="20.104454"></trkpt>
      <trkpt lat="42.561119" lon="20.104281"></trkpt>
      <trkpt lat="42.560586" lon="20.10042"></trkpt>
      <trkpt lat="42.564149" lon="20.093734"></trkpt>
      <trkpt lat="42.565589" lon="20.093605"></trkpt>
      <trkpt lat="42.566546" lon="20.092077"></trkpt>
      <trkpt lat="42.56795" lon="20.092917"></trkpt>
      <trkpt lat="42.569831" lon="20.092226"></trkpt>
      <trkpt lat="42.571484" lon="20.090016"></trkpt>
      <trkpt lat="42.573458" lon="20.090799"></trkpt>
      <trkpt lat="42.57431" lon="20.0892"></trkpt>
      <trkpt lat="42.575021" lon="20.091175"></trkpt>
      <trkpt lat="42.575367" lon="20.09052"></trkpt>
      <trkpt lat="42.576102" lon="20.096613"></trkpt>
      <trkpt lat="42.574113" lon="20.108495"></trkpt>
      <trkpt lat="42.576223" lon="20.109464"></trkpt>
      <trkpt lat="42.579988" lon="20.114417"></trkpt>
      <trkpt lat="42.583723" lon="20.113658"></trkpt>
      <trkpt lat="42.586175" lon="20.11466"></trkpt>
      <trkpt lat="42.58731" lon="20.120128"></trkpt>
      <trkpt lat="42.591828" lon="20.119635"></trkpt>
      <trkpt lat="42.594908" lon="20.110827"></trkpt>
      <trkpt lat="42.594543" lon="20.10685"></trkpt>
      <trkpt lat="42.592826" lon="20.105702"></trkpt>
      <trkpt lat="42.591522" lon="20.102204"></trkpt>
      <trkpt lat="42.592613" lon="20.095465"></trkpt>
      <trkpt lat="42.593898" lon="20.093699"></trkpt>
      <trkpt lat="42.592024" lon="20.092153"></trkpt>
      <trkpt lat="42.59204" lon="20.088165"></trkpt>
      <trkpt lat="42.593866" lon="20.087468"></trkpt>
      <trkpt lat="42.593293" lon="20.08643"></trkpt>
      <trkpt lat="42.594904" lon="20.083107"></trkpt>
      <trkpt lat="42.597729" lon="20.082403"></trkpt>
      <trkpt lat="42.598263" lon="20.077745"></trkpt>
      <trkpt lat="42.597745" lon="20.079316"></trkpt>
      <trkpt lat="42.596121" lon="20.079736"></trkpt>
      <trkpt lat="42.592468" lon="20.073698"></trkpt>
      <trkpt lat="42.589901" lon="20.072197"></trkpt>
      <trkpt lat="42.589634" lon="20.068001"></trkpt>
      <trkpt lat="42.591342" lon="20.062836"></trkpt>
      <trkpt lat="42.595435" lon="20.058845"></trkpt>
      <trkpt lat="42.603019" lon="20.055478"></trkpt>
      <trkpt lat="42.609662" lon="20.049865"></trkpt>
      <trkpt lat="42.612946" lon="20.041355"></trkpt>
      <trkpt lat="42.613038" lon="20.042495"></trkpt>
      <trkpt lat="42.612941" lon="20.034284"></trkpt>
      <trkpt lat="42.613923" lon="20.032492"></trkpt>
      <trkpt lat="42.618665" lon="20.032602"></trkpt>
      <trkpt lat="42.619546" lon="20.027048"></trkpt>
      <trkpt lat="42.623614" lon="20.025548"></trkpt>
      <trkpt lat="42.627272" lon="20.02938"></trkpt>
      <trkpt lat="42.628547" lon="20.033142"></trkpt>
      <trkpt lat="42.630874" lon="20.035686"></trkpt>
      <trkpt lat="42.630181" lon="20.036671"></trkpt>
      <trkpt lat="42.631667" lon="20.037618"></trkpt>
      <trkpt lat="42.630982" lon="20.04027"></trkpt>
      <trkpt lat="42.628998" lon="20.04477"></trkpt>
      <trkpt lat="42.627463" lon="20.045718"></trkpt>
      <trkpt lat="42.629191" lon="20.047429"></trkpt>
      <trkpt lat="42.635824" lon="20.038175"></trkpt>
      <trkpt lat="42.639715" lon="20.03724"></trkpt>
      <trkpt lat="42.641196" lon="20.035034"></trkpt>
      <trkpt lat="42.642852" lon="20.035387"></trkpt>
      <trkpt lat="42.644807" lon="20.031666"></trkpt>
      <trkpt lat="42.650028" lon="20.028136"></trkpt>
      <trkpt lat="42.65053" lon="20.026383"></trkpt>
      <trkpt lat="42.649248" lon="20.026984"></trkpt>
      <trkpt lat="42.650449" lon="20.020912"></trkpt>
      <trkpt lat="42.652937" lon="20.016019"></trkpt>
      <trkpt lat="42.654184" lon="20.016747"></trkpt>
      <trkpt lat="42.654842" lon="20.012908"></trkpt>
      <trkpt lat="42.652749" lon="20.004288"></trkpt>
      <trkpt lat="42.649842" lon="19.999016"></trkpt>
      <trkpt lat="42.657983" lon="19.998656"></trkpt>
      <trkpt lat="42.657523" lon="19.995158"></trkpt>
      <trkpt lat="42.658583" lon="19.991523"></trkpt>
      <trkpt lat="42.660226" lon="19.990993"></trkpt>
      <trkpt lat="42.662942" lon="19.992286"></trkpt>
      <trkpt lat="42.669517" lon="19.999138"></trkpt>
      <trkpt lat="42.673974" lon="19.998908"></trkpt>
    </trkseg>
  </trk>
</gpx>