<?xml version="1.0" encoding="UTF-8"?>
<gpx version="1.1" creator="lgrs-site" xmlns="http://www.topografix.com/GPX/1/1">
  <metadata>
    <desc>undefined</desc>
  </metadata>
  <trk>
    <name>Verwall - tour a ski</name>
    <trkseg>
      <trkpt lat="47.1045971" lon="10.2680569"><ele>2030.4</ele><time>2024-03-29T09:36:41Z</time></trkpt>
      <trkpt lat="47.1040949" lon="10.2691144"><ele>2029.3</ele><time>2024-03-29T09:39:46Z</time></trkpt>
      <trkpt lat="47.1036362" lon="10.2692532"><ele>2023.7</ele><time>2024-03-29T09:40:01Z</time></trkpt>
      <trkpt lat="47.1032279" lon="10.26914"><ele>2016.7</ele><time>2024-03-29T09:40:06Z</time></trkpt>
      <trkpt lat="47.1018336" lon="10.2680104"><ele>2002.2</ele><time>2024-03-29T09:40:37Z</time></trkpt>
      <trkpt lat="47.0984243" lon="10.2663124"><ele>1901.2</ele><time>2024-03-29T09:41:43Z</time></trkpt>
      <trkpt lat="47.0972419" lon="10.2652982"><ele>1876.1</ele><time>2024-03-29T09:41:58Z</time></trkpt>
      <trkpt lat="47.0972194" lon="10.2650434"><ele>1871.6</ele><time>2024-03-29T09:42:03Z</time></trkpt>
      <trkpt lat="47.0970253" lon="10.2650738"><ele>1858.6</ele><time>2024-03-29T09:42:29Z</time></trkpt>
      <trkpt lat="47.096711" lon="10.2654368"><ele>1851.1</ele><time>2024-03-29T09:46:26Z</time></trkpt>
      <trkpt lat="47.0962138" lon="10.2652655"><ele>1836.2</ele><time>2024-03-29T09:48:23Z</time></trkpt>
      <trkpt lat="47.0960302" lon="10.2650829"><ele>1828.0</ele><time>2024-03-29T09:48:50Z</time></trkpt>
      <trkpt lat="47.0959927" lon="10.2645575"><ele>1808.3</ele><time>2024-03-29T09:49:01Z</time></trkpt>
      <trkpt lat="47.0955367" lon="10.2640067"><ele>1775.3</ele><time>2024-03-29T09:51:50Z</time></trkpt>
      <trkpt lat="47.0954207" lon="10.2632157"><ele>1752.9</ele><time>2024-03-29T09:52:15Z</time></trkpt>
      <trkpt lat="47.0943049" lon="10.2627524"><ele>1716.4</ele><time>2024-03-29T09:53:55Z</time></trkpt>
      <trkpt lat="47.0933041" lon="10.2626308"><ele>1699.3</ele><time>2024-03-29T09:55:40Z</time></trkpt>
      <trkpt lat="47.0930039" lon="10.2623569"><ele>1696.3</ele><time>2024-03-29T10:06:05Z</time></trkpt>
      <trkpt lat="47.0925333" lon="10.2622673"><ele>1700.0</ele><time>2024-03-29T10:07:05Z</time></trkpt>
      <trkpt lat="47.0917279" lon="10.2624026"><ele>1707.7</ele><time>2024-03-29T10:08:35Z</time></trkpt>
      <trkpt lat="47.0911907" lon="10.2627155"><ele>1710.8</ele><time>2024-03-29T10:09:40Z</time></trkpt>
      <trkpt lat="47.0908376" lon="10.2630064"><ele>1718.4</ele><time>2024-03-29T10:10:40Z</time></trkpt>
      <trkpt lat="47.0897747" lon="10.2644711"><ele>1743.0</ele><time>2024-03-29T10:13:50Z</time></trkpt>
      <trkpt lat="47.0889369" lon="10.2642154"><ele>1757.6</ele><time>2024-03-29T10:15:45Z</time></trkpt>
      <trkpt lat="47.0880799" lon="10.264211"><ele>1774.5</ele><time>2024-03-29T10:17:50Z</time></trkpt>
      <trkpt lat="47.0866991" lon="10.2652766"><ele>1799.8</ele><time>2024-03-29T10:22:35Z</time></trkpt>
      <trkpt lat="47.0857508" lon="10.2651235"><ele>1808.5</ele><time>2024-03-29T10:26:45Z</time></trkpt>
      <trkpt lat="47.0850641" lon="10.2643165"><ele>1825.8</ele><time>2024-03-29T10:28:50Z</time></trkpt>
      <trkpt lat="47.0842812" lon="10.2649022"><ele>1836.4</ele><time>2024-03-29T10:30:50Z</time></trkpt>
      <trkpt lat="47.0833244" lon="10.2651599"><ele>1851.6</ele><time>2024-03-29T10:33:10Z</time></trkpt>
      <trkpt lat="47.0827911" lon="10.2656968"><ele>1858.4</ele><time>2024-03-29T10:34:20Z</time></trkpt>
      <trkpt lat="47.0824473" lon="10.2662979"><ele>1854.7</ele><time>2024-03-29T10:35:15Z</time></trkpt>
      <trkpt lat="47.0822737" lon="10.2683175"><ele>1854.7</ele><time>2024-03-29T10:43:15Z</time></trkpt>
      <trkpt lat="47.0817157" lon="10.2684111"><ele>1854.1</ele><time>2024-03-29T10:44:05Z</time></trkpt>
      <trkpt lat="47.0804398" lon="10.267918"><ele>1855.1</ele><time>2024-03-29T10:46:10Z</time></trkpt>
      <trkpt lat="47.0795253" lon="10.2670381"><ele>1869.0</ele><time>2024-03-29T10:48:20Z</time></trkpt>
      <trkpt lat="47.0785521" lon="10.2672991"><ele>1881.8</ele><time>2024-03-29T10:50:55Z</time></trkpt>
      <trkpt lat="47.078172" lon="10.2672505"><ele>1887.2</ele><time>2024-03-29T10:51:35Z</time></trkpt>
      <trkpt lat="47.0775526" lon="10.2667837"><ele>1885.5</ele><time>2024-03-29T10:52:50Z</time></trkpt>
      <trkpt lat="47.0772482" lon="10.2662557"><ele>1894.3</ele><time>2024-03-29T10:53:45Z</time></trkpt>
      <trkpt lat="47.076841" lon="10.2661076"><ele>1894.5</ele><time>2024-03-29T10:54:30Z</time></trkpt>
      <trkpt lat="47.0763137" lon="10.2655786"><ele>1904.3</ele><time>2024-03-29T10:55:35Z</time></trkpt>
      <trkpt lat="47.0754451" lon="10.2650313"><ele>1915.6</ele><time>2024-03-29T10:57:25Z</time></trkpt>
      <trkpt lat="47.0747071" lon="10.2648022"><ele>1919.2</ele><time>2024-03-29T10:59:15Z</time></trkpt>
      <trkpt lat="47.0733186" lon="10.2653699"><ele>1929.2</ele><time>2024-03-29T11:02:30Z</time></trkpt>
      <trkpt lat="47.0725509" lon="10.2651207"><ele>1936.7</ele><time>2024-03-29T11:04:15Z</time></trkpt>
      <trkpt lat="47.0717934" lon="10.2645051"><ele>1946.0</ele><time>2024-03-29T11:06:05Z</time></trkpt>
      <trkpt lat="47.0712864" lon="10.2634923"><ele>1963.9</ele><time>2024-03-29T11:14:20Z</time></trkpt>
      <trkpt lat="47.0710153" lon="10.2632277"><ele>1969.6</ele><time>2024-03-29T11:15:20Z</time></trkpt>
      <trkpt lat="47.0708761" lon="10.262471"><ele>1976.6</ele><time>2024-03-29T11:16:55Z</time></trkpt>
      <trkpt lat="47.0705447" lon="10.2635827"><ele>2007.7</ele><time>2024-03-29T11:19:45Z</time></trkpt>
      <trkpt lat="47.0704259" lon="10.2633428"><ele>2013.1</ele><time>2024-03-29T11:20:30Z</time></trkpt>
      <trkpt lat="47.0701995" lon="10.2645172"><ele>2027.5</ele><time>2024-03-29T11:25:05Z</time></trkpt>
      <trkpt lat="47.0698691" lon="10.2647443"><ele>2019.0</ele><time>2024-03-29T11:25:55Z</time></trkpt>
      <trkpt lat="47.0696497" lon="10.2644785"><ele>2014.7</ele><time>2024-03-29T11:26:15Z</time></trkpt>
      <trkpt lat="47.0692673" lon="10.2646435"><ele>2005.3</ele><time>2024-03-29T11:26:35Z</time></trkpt>
      <trkpt lat="47.0670083" lon="10.2632935"><ele>1997.6</ele><time>2024-03-29T11:33:40Z</time></trkpt>
      <trkpt lat="47.066255" lon="10.2630017"><ele>1993.5</ele><time>2024-03-29T11:34:55Z</time></trkpt>
      <trkpt lat="47.064403" lon="10.2624849"><ele>1996.6</ele><time>2024-03-29T11:38:00Z</time></trkpt>
      <trkpt lat="47.0634207" lon="10.2623271"><ele>2002.9</ele><time>2024-03-29T11:40:00Z</time></trkpt>
      <trkpt lat="47.0632447" lon="10.2624284"><ele>2004.8</ele><time>2024-03-29T11:40:25Z</time></trkpt>
      <trkpt lat="47.0622109" lon="10.2619834"><ele>2016.8</ele><time>2024-03-29T11:42:45Z</time></trkpt>
      <trkpt lat="47.0618186" lon="10.2616109"><ele>2022.3</ele><time>2024-03-29T11:43:40Z</time></trkpt>
      <trkpt lat="47.0608399" lon="10.2615396"><ele>2040.0</ele><time>2024-03-29T11:46:05Z</time></trkpt>
      <trkpt lat="47.0601161" lon="10.2612467"><ele>2053.9</ele><time>2024-03-29T11:48:00Z</time></trkpt>
      <trkpt lat="47.0597112" lon="10.2609771"><ele>2057.7</ele><time>2024-03-29T11:49:00Z</time></trkpt>
      <trkpt lat="47.0590936" lon="10.2601533"><ele>2071.4</ele><time>2024-03-29T11:50:55Z</time></trkpt>
      <trkpt lat="47.0583795" lon="10.2598623"><ele>2076.1</ele><time>2024-03-29T11:52:55Z</time></trkpt>
      <trkpt lat="47.0579053" lon="10.2592954"><ele>2084.0</ele><time>2024-03-29T11:54:25Z</time></trkpt>
      <trkpt lat="47.0574399" lon="10.2586376"><ele>2099.8</ele><time>2024-03-29T11:57:50Z</time></trkpt>
      <trkpt lat="47.0574935" lon="10.2582586"><ele>2107.0</ele><time>2024-03-29T11:58:40Z</time></trkpt>
      <trkpt lat="47.0572135" lon="10.2581249"><ele>2114.5</ele><time>2024-03-29T11:59:40Z</time></trkpt>
      <trkpt lat="47.0563383" lon="10.2570324"><ele>2143.9</ele><time>2024-03-29T12:03:25Z</time></trkpt>
      <trkpt lat="47.0562062" lon="10.2561836"><ele>2154.4</ele><time>2024-03-29T12:05:05Z</time></trkpt>
      <trkpt lat="47.0553886" lon="10.2546099"><ele>2170.3</ele><time>2024-03-29T12:08:20Z</time></trkpt>
      <trkpt lat="47.0551087" lon="10.2536099"><ele>2184.6</ele><time>2024-03-29T12:10:30Z</time></trkpt>
      <trkpt lat="47.0549901" lon="10.2536347"><ele>2187.4</ele><time>2024-03-29T12:11:00Z</time></trkpt>
      <trkpt lat="47.0550244" lon="10.2530301"><ele>2197.6</ele><time>2024-03-29T12:12:25Z</time></trkpt>
      <trkpt lat="47.0543764" lon="10.2523744"><ele>2213.8</ele><time>2024-03-29T12:14:50Z</time></trkpt>
      <trkpt lat="47.0537432" lon="10.2524578"><ele>2223.5</ele><time>2024-03-29T12:16:35Z</time></trkpt>
      <trkpt lat="47.0536784" lon="10.2514893"><ele>2237.8</ele><time>2024-03-29T12:18:25Z</time></trkpt>
      <trkpt lat="47.0528408" lon="10.2509161"><ele>2260.6</ele><time>2024-03-29T12:21:10Z</time></trkpt>
      <trkpt lat="47.0524981" lon="10.2491963"><ele>2286.3</ele><time>2024-03-29T12:25:40Z</time></trkpt>
      <trkpt lat="47.0524279" lon="10.2474544"><ele>2318.9</ele><time>2024-03-29T12:30:15Z</time></trkpt>
      <trkpt lat="47.0518827" lon="10.2466276"><ele>2307.9</ele><time>2024-03-29T12:32:20Z</time></trkpt>
      <trkpt lat="47.0517708" lon="10.2448767"><ele>2323.1</ele><time>2024-03-29T12:36:00Z</time></trkpt>
      <trkpt lat="47.0515318" lon="10.2438068"><ele>2334.3</ele><time>2024-03-29T12:38:25Z</time></trkpt>
      <trkpt lat="47.0519561" lon="10.2438415"><ele>2347.5</ele><time>2024-03-29T12:39:40Z</time></trkpt>
      <trkpt lat="47.051931" lon="10.2435459"><ele>2350.3</ele><time>2024-03-29T12:40:15Z</time></trkpt>
      <trkpt lat="47.0520643" lon="10.2435519"><ele>2356.4</ele><time>2024-03-29T12:40:55Z</time></trkpt>
      <trkpt lat="47.0520925" lon="10.2433099"><ele>2359.6</ele><time>2024-03-29T12:41:30Z</time></trkpt>
      <trkpt lat="47.0526909" lon="10.2435309"><ele>2374.9</ele><time>2024-03-29T12:44:20Z</time></trkpt>
      <trkpt lat="47.0532247" lon="10.2455709"><ele>2397.8</ele><time>2024-03-29T12:48:00Z</time></trkpt>
      <trkpt lat="47.0533171" lon="10.2463338"><ele>2387.9</ele><time>2024-03-29T12:48:25Z</time></trkpt>
      <trkpt lat="47.0531781" lon="10.2466853"><ele>2382.8</ele><time>2024-03-29T12:50:20Z</time></trkpt>
      <trkpt lat="47.0532647" lon="10.2468318"><ele>2385.4</ele><time>2024-03-29T12:50:40Z</time></trkpt>
      <trkpt lat="47.0533654" lon="10.2467503"><ele>2386.4</ele><time>2024-03-29T12:50:55Z</time></trkpt>
      <trkpt lat="47.053213" lon="10.2467643"><ele>2385.8</ele><time>2024-03-29T12:53:00Z</time></trkpt>
      <trkpt lat="47.0532251" lon="10.2464447"><ele>2386.6</ele><time>2024-03-29T12:53:45Z</time></trkpt>
      <trkpt lat="47.0533238" lon="10.2466713"><ele>2387.4</ele><time>2024-03-29T12:54:10Z</time></trkpt>
      <trkpt lat="47.0526297" lon="10.2458792"><ele>2358.0</ele><time>2024-03-29T13:09:45Z</time></trkpt>
      <trkpt lat="47.0525673" lon="10.2487099"><ele>2299.0</ele><time>2024-03-29T13:11:35Z</time></trkpt>
      <trkpt lat="47.0521041" lon="10.2485992"><ele>2279.7</ele><time>2024-03-29T13:11:50Z</time></trkpt>
      <trkpt lat="47.0517924" lon="10.2478003"><ele>2289.7</ele><time>2024-03-29T13:18:30Z</time></trkpt>
      <trkpt lat="47.0517018" lon="10.2467272"><ele>2303.8</ele><time>2024-03-29T13:20:40Z</time></trkpt>
      <trkpt lat="47.0515674" lon="10.246946"><ele>2299.5</ele><time>2024-03-29T13:20:55Z</time></trkpt>
      <trkpt lat="47.0516717" lon="10.2468987"><ele>2306.7</ele><time>2024-03-29T13:21:10Z</time></trkpt>
      <trkpt lat="47.0517595" lon="10.2462777"><ele>2307.3</ele><time>2024-03-29T13:22:35Z</time></trkpt>
      <trkpt lat="47.0516732" lon="10.2452807"><ele>2315.6</ele><time>2024-03-29T13:24:30Z</time></trkpt>
      <trkpt lat="47.0517862" lon="10.2448867"><ele>2321.8</ele><time>2024-03-29T13:25:30Z</time></trkpt>
      <trkpt lat="47.0515578" lon="10.2437617"><ele>2338.7</ele><time>2024-03-29T13:30:25Z</time></trkpt>
      <trkpt lat="47.0519462" lon="10.2438523"><ele>2348.8</ele><time>2024-03-29T13:31:25Z</time></trkpt>
      <trkpt lat="47.0519429" lon="10.2435413"><ele>2351.0</ele><time>2024-03-29T13:32:00Z</time></trkpt>
      <trkpt lat="47.0520551" lon="10.2435437"><ele>2354.6</ele><time>2024-03-29T13:32:20Z</time></trkpt>
      <trkpt lat="47.0521036" lon="10.2432992"><ele>2360.2</ele><time>2024-03-29T13:32:55Z</time></trkpt>
      <trkpt lat="47.0525535" lon="10.2435175"><ele>2374.2</ele><time>2024-03-29T13:34:15Z</time></trkpt>
      <trkpt lat="47.0526145" lon="10.2423775"><ele>2384.3</ele><time>2024-03-29T13:36:10Z</time></trkpt>
      <trkpt lat="47.0524781" lon="10.2420689"><ele>2388.7</ele><time>2024-03-29T13:36:45Z</time></trkpt>
      <trkpt lat="47.052486" lon="10.2416921"><ele>2400.7</ele><time>2024-03-29T13:37:30Z</time></trkpt>
      <trkpt lat="47.0526233" lon="10.2405483"><ele>2407.7</ele><time>2024-03-29T13:39:50Z</time></trkpt>
      <trkpt lat="47.0530319" lon="10.2392159"><ele>2437.8</ele><time>2024-03-29T13:42:45Z</time></trkpt>
      <trkpt lat="47.052979" lon="10.2390769"><ele>2440.1</ele><time>2024-03-29T13:43:10Z</time></trkpt>
      <trkpt lat="47.0532345" lon="10.238731"><ele>2450.2</ele><time>2024-03-29T13:44:15Z</time></trkpt>
      <trkpt lat="47.0528324" lon="10.2380348"><ele>2465.5</ele><time>2024-03-29T13:46:15Z</time></trkpt>
      <trkpt lat="47.0528431" lon="10.2367328"><ele>2487.0</ele><time>2024-03-29T13:48:35Z</time></trkpt>
      <trkpt lat="47.0532445" lon="10.234657"><ele>2504.1</ele><time>2024-03-29T13:51:30Z</time></trkpt>
      <trkpt lat="47.0531164" lon="10.2328391"><ele>2519.4</ele><time>2024-03-29T13:53:55Z</time></trkpt>
      <trkpt lat="47.0536837" lon="10.2312127"><ele>2527.2</ele><time>2024-03-29T13:56:00Z</time></trkpt>
      <trkpt lat="47.0540961" lon="10.2306929"><ele>2538.2</ele><time>2024-03-29T13:57:10Z</time></trkpt>
      <trkpt lat="47.0544122" lon="10.2294156"><ele>2550.9</ele><time>2024-03-29T14:00:05Z</time></trkpt>
      <trkpt lat="47.0540817" lon="10.2276963"><ele>2598.6</ele><time>2024-03-29T14:04:30Z</time></trkpt>
      <trkpt lat="47.0541929" lon="10.227465"><ele>2602.3</ele><time>2024-03-29T14:05:35Z</time></trkpt>
      <trkpt lat="47.0541152" lon="10.2261668"><ele>2626.4</ele><time>2024-03-29T14:10:10Z</time></trkpt>
      <trkpt lat="47.0544042" lon="10.2259394"><ele>2638.7</ele><time>2024-03-29T14:13:20Z</time></trkpt>
      <trkpt lat="47.0541794" lon="10.2256011"><ele>2647.8</ele><time>2024-03-29T14:14:35Z</time></trkpt>
      <trkpt lat="47.0538087" lon="10.2254599"><ele>2657.0</ele><time>2024-03-29T14:16:40Z</time></trkpt>
      <trkpt lat="47.0542868" lon="10.2250997"><ele>2667.8</ele><time>2024-03-29T14:22:00Z</time></trkpt>
      <trkpt lat="47.0539135" lon="10.22493"><ele>2674.9</ele><time>2024-03-29T14:23:40Z</time></trkpt>
      <trkpt lat="47.0543302" lon="10.224773"><ele>2690.7</ele><time>2024-03-29T14:26:15Z</time></trkpt>
      <trkpt lat="47.0539835" lon="10.2245361"><ele>2696.6</ele><time>2024-03-29T14:27:55Z</time></trkpt>
      <trkpt lat="47.0543435" lon="10.2243971"><ele>2706.9</ele><time>2024-03-29T14:30:10Z</time></trkpt>
      <trkpt lat="47.0541707" lon="10.2242727"><ele>2713.4</ele><time>2024-03-29T14:31:15Z</time></trkpt>
      <trkpt lat="47.0543133" lon="10.2242301"><ele>2712.3</ele><time>2024-03-29T14:31:55Z</time></trkpt>
      <trkpt lat="47.0541389" lon="10.2230826"><ele>2735.4</ele><time>2024-03-29T14:36:15Z</time></trkpt>
      <trkpt lat="47.054345" lon="10.2218043"><ele>2718.9</ele><time>2024-03-29T14:48:10Z</time></trkpt>
      <trkpt lat="47.0542176" lon="10.2213045"><ele>2704.1</ele><time>2024-03-29T14:51:00Z</time></trkpt>
      <trkpt lat="47.0540814" lon="10.2213267"><ele>2698.6</ele><time>2024-03-29T14:51:15Z</time></trkpt>
      <trkpt lat="47.0540511" lon="10.2211214"><ele>2692.3</ele><time>2024-03-29T14:51:35Z</time></trkpt>
      <trkpt lat="47.053403" lon="10.2214109"><ele>2678.2</ele><time>2024-03-29T14:52:05Z</time></trkpt>
      <trkpt lat="47.0528305" lon="10.2188092"><ele>2598.1</ele><time>2024-03-29T14:52:30Z</time></trkpt>
      <trkpt lat="47.0527162" lon="10.2187311"><ele>2592.8</ele><time>2024-03-29T14:56:20Z</time></trkpt>
      <trkpt lat="47.0522939" lon="10.2175365"><ele>2559.3</ele><time>2024-03-29T14:56:35Z</time></trkpt>
      <trkpt lat="47.0522147" lon="10.2169658"><ele>2546.7</ele><time>2024-03-29T14:56:40Z</time></trkpt>
      <trkpt lat="47.0519184" lon="10.2163819"><ele>2530.6</ele><time>2024-03-29T14:56:50Z</time></trkpt>
      <trkpt lat="47.0520112" lon="10.2159162"><ele>2525.8</ele><time>2024-03-29T14:58:30Z</time></trkpt>
      <trkpt lat="47.0526516" lon="10.215188"><ele>2503.6</ele><time>2024-03-29T14:58:45Z</time></trkpt>
      <trkpt lat="47.0529404" lon="10.2138176"><ele>2449.1</ele><time>2024-03-29T14:59:50Z</time></trkpt>
      <trkpt lat="47.0526011" lon="10.2135802"><ele>2433.3</ele><time>2024-03-29T15:03:35Z</time></trkpt>
      <trkpt lat="47.0526628" lon="10.2132236"><ele>2413.7</ele><time>2024-03-29T15:03:40Z</time></trkpt>
      <trkpt lat="47.0523102" lon="10.2128248"><ele>2405.7</ele><time>2024-03-29T15:05:35Z</time></trkpt>
      <trkpt lat="47.0524828" lon="10.2119044"><ele>2368.1</ele><time>2024-03-29T15:05:45Z</time></trkpt>
      <trkpt lat="47.0528009" lon="10.2110776"><ele>2345.0</ele><time>2024-03-29T15:08:40Z</time></trkpt>
      <trkpt lat="47.0527741" lon="10.2098615"><ele>2298.9</ele><time>2024-03-29T15:08:55Z</time></trkpt>
      <trkpt lat="47.0525694" lon="10.2096019"><ele>2283.2</ele><time>2024-03-29T15:09:00Z</time></trkpt>
      <trkpt lat="47.0522096" lon="10.2096689"><ele>2274.7</ele><time>2024-03-29T15:09:05Z</time></trkpt>
      <trkpt lat="47.0521729" lon="10.2094158"><ele>2260.2</ele><time>2024-03-29T15:09:10Z</time></trkpt>
      <trkpt lat="47.0519314" lon="10.2092052"><ele>2251.0</ele><time>2024-03-29T15:12:30Z</time></trkpt>
      <trkpt lat="47.0517484" lon="10.2084025"><ele>2216.5</ele><time>2024-03-29T15:12:45Z</time></trkpt>
      <trkpt lat="47.0514845" lon="10.205264"><ele>2065.9</ele><time>2024-03-29T15:16:05Z</time></trkpt>
      <trkpt lat="47.0517089" lon="10.204911"><ele>2048.5</ele><time>2024-03-29T15:16:15Z</time></trkpt>
      <trkpt lat="47.0513202" lon="10.2039369"><ele>1993.8</ele><time>2024-03-29T15:16:45Z</time></trkpt>
      <trkpt lat="47.0513435" lon="10.2035866"><ele>1973.5</ele><time>2024-03-29T15:16:50Z</time></trkpt>
      <trkpt lat="47.0516997" lon="10.2030358"><ele>1959.9</ele><time>2024-03-29T15:17:05Z</time></trkpt>
      <trkpt lat="47.0515428" lon="10.2023094"><ele>1920.5</ele><time>2024-03-29T15:20:10Z</time></trkpt>
      <trkpt lat="47.050068" lon="10.2006268"><ele>1853.7</ele><time>2024-03-29T15:21:00Z</time></trkpt>
      <trkpt lat="47.04916" lon="10.2007644"><ele>1870.3</ele><time>2024-03-29T15:35:15Z</time></trkpt>
      <trkpt lat="47.0481248" lon="10.2015904"><ele>1887.7</ele><time>2024-03-29T15:38:25Z</time></trkpt>
      <trkpt lat="47.0474316" lon="10.2018106"><ele>1882.6</ele><time>2024-03-29T15:39:50Z</time></trkpt>
      <trkpt lat="47.0460754" lon="10.2017153"><ele>1901.0</ele><time>2024-03-29T15:43:15Z</time></trkpt>
      <trkpt lat="47.0459854" lon="10.2015611"><ele>1902.3</ele><time>2024-03-29T15:43:40Z</time></trkpt>
      <trkpt lat="47.0460467" lon="10.2013234"><ele>1908.1</ele><time>2024-03-29T15:44:15Z</time></trkpt>
      <trkpt lat="47.0457327" lon="10.2016739"><ele>1917.5</ele><time>2024-03-29T15:45:35Z</time></trkpt>
      <trkpt lat="47.0452165" lon="10.2018742"><ele>1928.0</ele><time>2024-03-29T15:47:10Z</time></trkpt>
      <trkpt lat="47.0450528" lon="10.2013874"><ele>1934.9</ele><time>2024-03-29T15:48:25Z</time></trkpt>
      <trkpt lat="47.044677" lon="10.2019077"><ele>1946.9</ele><time>2024-03-29T15:50:10Z</time></trkpt>
      <trkpt lat="47.0441111" lon="10.2022255"><ele>1959.0</ele><time>2024-03-29T15:52:15Z</time></trkpt>
      <trkpt lat="47.0428675" lon="10.2039264"><ele>1983.4</ele><time>2024-03-29T15:57:55Z</time></trkpt>
      <trkpt lat="47.0427903" lon="10.203754"><ele>1986.7</ele><time>2024-03-29T15:58:25Z</time></trkpt>
      <trkpt lat="47.0423333" lon="10.2040939"><ele>1996.0</ele><time>2024-03-29T16:00:10Z</time></trkpt>
      <trkpt lat="47.0407295" lon="10.2041743"><ele>1999.7</ele><time>2024-03-29T16:04:40Z</time></trkpt>
      <trkpt lat="47.038334" lon="10.2047284"><ele>2012.0</ele><time>2024-03-29T16:10:15Z</time></trkpt>
      <trkpt lat="47.0374434" lon="10.2051754"><ele>2020.2</ele><time>2024-03-29T16:12:30Z</time></trkpt>
      <trkpt lat="47.0363804" lon="10.205348"><ele>2022.2</ele><time>2024-03-29T16:14:50Z</time></trkpt>
      <trkpt lat="47.0350234" lon="10.206099"><ele>2029.1</ele><time>2024-03-29T16:18:05Z</time></trkpt>
      <trkpt lat="47.033037" lon="10.206349"><ele>2047.0</ele><time>2024-03-29T16:23:30Z</time></trkpt>
      <trkpt lat="47.0326045" lon="10.2065859"><ele>2052.7</ele><time>2024-03-29T16:24:50Z</time></trkpt>
      <trkpt lat="47.031526" lon="10.2066905"><ele>2067.1</ele><time>2024-03-29T16:28:05Z</time></trkpt>
      <trkpt lat="47.0312673" lon="10.2068556"><ele>2069.8</ele><time>2024-03-29T16:29:00Z</time></trkpt>
      <trkpt lat="47.0309436" lon="10.2065964"><ele>2077.7</ele><time>2024-03-29T16:37:55Z</time></trkpt>
      <trkpt lat="47.0309103" lon="10.2073569"><ele>2089.9</ele><time>2024-03-29T16:39:50Z</time></trkpt>
      <trkpt lat="47.0306777" lon="10.2072928"><ele>2095.0</ele><time>2024-03-29T16:40:40Z</time></trkpt>
      <trkpt lat="47.0307989" lon="10.207742"><ele>2104.8</ele><time>2024-03-29T16:41:50Z</time></trkpt>
      <trkpt lat="47.0305312" lon="10.2076543"><ele>2113.6</ele><time>2024-03-29T16:42:50Z</time></trkpt>
      <trkpt lat="47.0299192" lon="10.2078434"><ele>2128.5</ele><time>2024-03-29T16:45:00Z</time></trkpt>
      <trkpt lat="47.029786" lon="10.2079303"><ele>2132.7</ele><time>2024-03-29T16:45:30Z</time></trkpt>
      <trkpt lat="47.0299087" lon="10.2080615"><ele>2138.8</ele><time>2024-03-29T16:46:05Z</time></trkpt>
      <trkpt lat="47.0296177" lon="10.2082097"><ele>2143.4</ele><time>2024-03-29T16:47:05Z</time></trkpt>
      <trkpt lat="47.0291852" lon="10.2079914"><ele>2153.8</ele><time>2024-03-29T16:48:40Z</time></trkpt>
      <trkpt lat="47.0284536" lon="10.2080065"><ele>2165.9</ele><time>2024-03-29T16:51:25Z</time></trkpt>
      <trkpt lat="47.0268359" lon="10.2084892"><ele>2186.4</ele><time>2024-03-29T16:55:30Z</time></trkpt>
      <trkpt lat="47.0252882" lon="10.2084402"><ele>2180.5</ele><time>2024-03-29T16:58:30Z</time></trkpt>
      <trkpt lat="47.0240712" lon="10.2086099"><ele>2196.0</ele><time>2024-03-29T17:01:55Z</time></trkpt>
      <trkpt lat="47.0225815" lon="10.2074443"><ele>2222.6</ele><time>2024-03-29T17:07:45Z</time></trkpt>
      <trkpt lat="47.0223935" lon="10.2074155"><ele>2226.9</ele><time>2024-03-29T17:08:25Z</time></trkpt>
      <trkpt lat="47.0224372" lon="10.2079413"><ele>2233.9</ele><time>2024-03-29T17:09:40Z</time></trkpt>
      <trkpt lat="47.0218659" lon="10.2077243"><ele>2243.2</ele><time>2024-03-29T17:11:45Z</time></trkpt>
      <trkpt lat="47.0206848" lon="10.2070224"><ele>2262.3</ele><time>2024-03-29T17:16:20Z</time></trkpt>
      <trkpt lat="47.0197012" lon="10.2062149"><ele>2261.6</ele><time>2024-03-29T17:19:30Z</time></trkpt>
      <trkpt lat="47.0182757" lon="10.2053321"><ele>2280.4</ele><time>2024-03-29T17:24:30Z</time></trkpt>
      <trkpt lat="47.0180211" lon="10.2053092"><ele>2284.2</ele><time>2024-03-29T17:25:20Z</time></trkpt>
      <trkpt lat="47.0171394" lon="10.2041592"><ele>2303.0</ele><time>2024-03-29T17:30:00Z</time></trkpt>
      <trkpt lat="47.0154239" lon="10.2028855"><ele>2341.9</ele><time>2024-03-29T17:37:00Z</time></trkpt>
      <trkpt lat="47.0140376" lon="10.2023999"><ele>2373.0</ele><time>2024-03-29T17:43:15Z</time></trkpt>
      <trkpt lat="47.0106537" lon="10.2019516"><ele>2427.8</ele><time>2024-03-29T17:55:35Z</time></trkpt>
      <trkpt lat="47.0100112" lon="10.2010981"><ele>2452.9</ele><time>2024-03-29T18:00:25Z</time></trkpt>
      <trkpt lat="47.009892" lon="10.2019563"><ele>2467.1</ele><time>2024-03-29T18:03:25Z</time></trkpt>
      <trkpt lat="47.0094428" lon="10.2029297"><ele>2484.0</ele><time>2024-03-29T18:06:40Z</time></trkpt>
      <trkpt lat="47.0093399" lon="10.2035009"><ele>2493.5</ele><time>2024-03-29T18:08:20Z</time></trkpt>
      <trkpt lat="47.0093565" lon="10.2038909"><ele>2499.4</ele><time>2024-03-29T18:09:20Z</time></trkpt>
      <trkpt lat="47.009657" lon="10.2045901"><ele>2514.8</ele><time>2024-03-29T18:11:35Z</time></trkpt>
      <trkpt lat="47.0079622" lon="10.2041976"><ele>2549.8</ele><time>2024-03-29T18:19:15Z</time></trkpt>
      <trkpt lat="47.00812" lon="10.204879"><ele>2562.2</ele><time>2024-03-29T18:21:15Z</time></trkpt>
      <trkpt lat="47.0074816" lon="10.2049154"><ele>2576.5</ele><time>2024-03-29T18:25:25Z</time></trkpt>
      <trkpt lat="47.0073729" lon="10.2050624"><ele>2582.5</ele><time>2024-03-29T18:26:10Z</time></trkpt>
      <trkpt lat="47.0070374" lon="10.20636"><ele>2618.1</ele><time>2024-03-29T18:30:20Z</time></trkpt>
      <trkpt lat="47.0069234" lon="10.2083103"><ele>2644.5</ele><time>2024-03-29T18:35:10Z</time></trkpt>
      <trkpt lat="47.0068211" lon="10.2083704"><ele>2642.1</ele><time>2024-03-29T18:52:10Z</time></trkpt>
      <trkpt lat="47.0066403" lon="10.2093222"><ele>2633.2</ele><time>2024-03-29T18:52:35Z</time></trkpt>
      <trkpt lat="47.0067316" lon="10.2100699"><ele>2625.7</ele><time>2024-03-29T18:53:10Z</time></trkpt>
      <trkpt lat="47.0066321" lon="10.2106958"><ele>2597.3</ele><time>2024-03-29T18:54:55Z</time></trkpt>
      <trkpt lat="47.0060885" lon="10.2108828"><ele>2580.0</ele><time>2024-03-29T18:55:20Z</time></trkpt>
      <trkpt lat="47.0057414" lon="10.2113174"><ele>2550.4</ele><time>2024-03-29T18:56:00Z</time></trkpt>
      <trkpt lat="47.0055829" lon="10.2111841"><ele>2541.5</ele><time>2024-03-29T18:56:20Z</time></trkpt>
      <trkpt lat="47.0053842" lon="10.2113552"><ele>2527.4</ele><time>2024-03-29T18:56:30Z</time></trkpt>
      <trkpt lat="47.0050241" lon="10.2109566"><ele>2522.3</ele><time>2024-03-29T18:56:45Z</time></trkpt>
      <trkpt lat="47.0048131" lon="10.211112"><ele>2503.5</ele><time>2024-03-29T18:57:05Z</time></trkpt>
      <trkpt lat="47.004377" lon="10.2110244"><ele>2476.4</ele><time>2024-03-29T18:57:20Z</time></trkpt>
      <trkpt lat="47.0035825" lon="10.2105414"><ele>2458.9</ele><time>2024-03-29T18:58:10Z</time></trkpt>
      <trkpt lat="47.0034176" lon="10.2106258"><ele>2448.7</ele><time>2024-03-29T18:58:15Z</time></trkpt>
      <trkpt lat="47.0033447" lon="10.2108262"><ele>2437.2</ele><time>2024-03-29T18:58:20Z</time></trkpt>
      <trkpt lat="47.0029181" lon="10.2111114"><ele>2414.1</ele><time>2024-03-29T18:58:35Z</time></trkpt>
      <trkpt lat="47.0030747" lon="10.2113144"><ele>2405.6</ele><time>2024-03-29T18:59:00Z</time></trkpt>
      <trkpt lat="47.0028131" lon="10.2127438"><ele>2332.3</ele><time>2024-03-29T18:59:30Z</time></trkpt>
      <trkpt lat="47.0024022" lon="10.2133746"><ele>2298.0</ele><time>2024-03-29T19:02:00Z</time></trkpt>
      <trkpt lat="47.0008538" lon="10.2132474"><ele>2270.8</ele><time>2024-03-29T19:02:20Z</time></trkpt>
      <trkpt lat="47.000578" lon="10.2130845"><ele>2264.8</ele><time>2024-03-29T19:02:25Z</time></trkpt>
      <trkpt lat="47.0000339" lon="10.2132419"><ele>2236.5</ele><time>2024-03-29T19:05:30Z</time></trkpt>
      <trkpt lat="46.9997866" lon="10.2130592"><ele>2231.5</ele><time>2024-03-29T19:05:40Z</time></trkpt>
      <trkpt lat="46.9984072" lon="10.2128686"><ele>2214.5</ele><time>2024-03-29T19:06:20Z</time></trkpt>
      <trkpt lat="46.998166" lon="10.2123502"><ele>2209.1</ele><time>2024-03-29T19:06:30Z</time></trkpt>
      <trkpt lat="46.9978384" lon="10.2120828"><ele>2203.2</ele><time>2024-03-29T19:06:35Z</time></trkpt>
      <trkpt lat="46.9968273" lon="10.212719"><ele>2196.6</ele><time>2024-03-29T19:08:05Z</time></trkpt>
      <trkpt lat="46.9962426" lon="10.2126324"><ele>2194.2</ele><time>2024-03-29T19:08:15Z</time></trkpt>
      <trkpt lat="46.9957612" lon="10.2122247"><ele>2188.2</ele><time>2024-03-29T19:08:30Z</time></trkpt>
      <trkpt lat="46.9957021" lon="10.2129137"><ele>2179.8</ele><time>2024-03-29T19:08:45Z</time></trkpt>
      <trkpt lat="46.9949827" lon="10.2140696"><ele>2160.6</ele><time>2024-03-29T19:09:10Z</time></trkpt>
      <trkpt lat="46.9949234" lon="10.215124"><ele>2148.6</ele><time>2024-03-29T19:09:20Z</time></trkpt>
      <trkpt lat="46.9948066" lon="10.2152928"><ele>2144.9</ele><time>2024-03-29T19:10:30Z</time></trkpt>
      <trkpt lat="46.9948718" lon="10.2155141"><ele>2144.7</ele><time>2024-03-29T19:10:40Z</time></trkpt>
      <trkpt lat="46.9946876" lon="10.2155701"><ele>2140.0</ele><time>2024-03-29T19:12:35Z</time></trkpt>
      <trkpt lat="46.9946932" lon="10.2154941"><ele>2144.0</ele><time>2024-03-30T07:56:21Z</time></trkpt>
      <trkpt lat="46.9947696" lon="10.2136583"><ele>2166.7</ele><time>2024-03-30T08:01:39Z</time></trkpt>
      <trkpt lat="46.9947376" lon="10.2133805"><ele>2171.1</ele><time>2024-03-30T08:02:19Z</time></trkpt>
      <trkpt lat="46.9945298" lon="10.2132744"><ele>2178.0</ele><time>2024-03-30T08:03:04Z</time></trkpt>
      <trkpt lat="46.9945938" lon="10.2128143"><ele>2186.1</ele><time>2024-03-30T08:03:54Z</time></trkpt>
      <trkpt lat="46.9944588" lon="10.2107475"><ele>2210.4</ele><time>2024-03-30T08:07:44Z</time></trkpt>
      <trkpt lat="46.9945641" lon="10.2098111"><ele>2218.1</ele><time>2024-03-30T08:09:19Z</time></trkpt>
      <trkpt lat="46.9943145" lon="10.2081086"><ele>2228.1</ele><time>2024-03-30T08:12:44Z</time></trkpt>
      <trkpt lat="46.9942361" lon="10.2047416"><ele>2235.4</ele><time>2024-03-30T08:21:59Z</time></trkpt>
      <trkpt lat="46.993551" lon="10.2015158"><ele>2206.4</ele><time>2024-03-30T08:25:06Z</time></trkpt>
      <trkpt lat="46.9935834" lon="10.1980142"><ele>2243.6</ele><time>2024-03-30T08:31:01Z</time></trkpt>
      <trkpt lat="46.9934261" lon="10.1976279"><ele>2249.6</ele><time>2024-03-30T08:31:51Z</time></trkpt>
      <trkpt lat="46.9930743" lon="10.1975195"><ele>2259.2</ele><time>2024-03-30T08:32:56Z</time></trkpt>
      <trkpt lat="46.9929378" lon="10.1972508"><ele>2266.5</ele><time>2024-03-30T08:33:41Z</time></trkpt>
      <trkpt lat="46.9934314" lon="10.1966259"><ele>2277.3</ele><time>2024-03-30T08:36:36Z</time></trkpt>
      <trkpt lat="46.9930951" lon="10.1953385"><ele>2300.2</ele><time>2024-03-30T08:39:21Z</time></trkpt>
      <trkpt lat="46.9931718" lon="10.1944038"><ele>2310.6</ele><time>2024-03-30T08:41:16Z</time></trkpt>
      <trkpt lat="46.9933498" lon="10.1938318"><ele>2320.7</ele><time>2024-03-30T08:45:31Z</time></trkpt>
      <trkpt lat="46.9932506" lon="10.1932256"><ele>2339.2</ele><time>2024-03-30T08:47:26Z</time></trkpt>
      <trkpt lat="46.9935808" lon="10.1921061"><ele>2351.9</ele><time>2024-03-30T08:49:46Z</time></trkpt>
      <trkpt lat="46.9938055" lon="10.191812"><ele>2356.7</ele><time>2024-03-30T08:50:41Z</time></trkpt>
      <trkpt lat="46.9935776" lon="10.1916226"><ele>2365.3</ele><time>2024-03-30T08:51:31Z</time></trkpt>
      <trkpt lat="46.9939308" lon="10.1909708"><ele>2382.2</ele><time>2024-03-30T08:53:06Z</time></trkpt>
      <trkpt lat="46.9936286" lon="10.1905207"><ele>2391.2</ele><time>2024-03-30T08:54:11Z</time></trkpt>
      <trkpt lat="46.9939779" lon="10.1894315"><ele>2400.0</ele><time>2024-03-30T08:55:56Z</time></trkpt>
      <trkpt lat="46.9939718" lon="10.1887769"><ele>2410.0</ele><time>2024-03-30T08:57:11Z</time></trkpt>
      <trkpt lat="46.9937129" lon="10.188059"><ele>2420.8</ele><time>2024-03-30T08:59:01Z</time></trkpt>
      <trkpt lat="46.9941387" lon="10.1876051"><ele>2436.7</ele><time>2024-03-30T09:00:46Z</time></trkpt>
      <trkpt lat="46.993943" lon="10.1873105"><ele>2445.6</ele><time>2024-03-30T09:01:36Z</time></trkpt>
      <trkpt lat="46.9942797" lon="10.1870942"><ele>2453.3</ele><time>2024-03-30T09:02:46Z</time></trkpt>
      <trkpt lat="46.9940891" lon="10.1867522"><ele>2465.8</ele><time>2024-03-30T09:03:46Z</time></trkpt>
      <trkpt lat="46.9943273" lon="10.1864604"><ele>2469.7</ele><time>2024-03-30T09:04:51Z</time></trkpt>
      <trkpt lat="46.9941312" lon="10.1862465"><ele>2478.0</ele><time>2024-03-30T09:05:36Z</time></trkpt>
      <trkpt lat="46.9943166" lon="10.1859547"><ele>2486.5</ele><time>2024-03-30T09:06:27Z</time></trkpt>
      <trkpt lat="46.9941964" lon="10.1852816"><ele>2500.9</ele><time>2024-03-30T09:09:22Z</time></trkpt>
      <trkpt lat="46.993999" lon="10.1851351"><ele>2507.5</ele><time>2024-03-30T09:10:02Z</time></trkpt>
      <trkpt lat="46.9941332" lon="10.1845983"><ele>2516.9</ele><time>2024-03-30T09:11:12Z</time></trkpt>
      <trkpt lat="46.9939995" lon="10.1842626"><ele>2528.1</ele><time>2024-03-30T09:12:27Z</time></trkpt>
      <trkpt lat="46.9939505" lon="10.1831884"><ele>2545.7</ele><time>2024-03-30T09:14:32Z</time></trkpt>
      <trkpt lat="46.9937144" lon="10.1827958"><ele>2556.3</ele><time>2024-03-30T09:15:32Z</time></trkpt>
      <trkpt lat="46.9937612" lon="10.1819445"><ele>2562.7</ele><time>2024-03-30T09:17:12Z</time></trkpt>
      <trkpt lat="46.9934712" lon="10.1807045"><ele>2583.5</ele><time>2024-03-30T09:19:37Z</time></trkpt>
      <trkpt lat="46.9929513" lon="10.1798856"><ele>2608.4</ele><time>2024-03-30T09:22:02Z</time></trkpt>
      <trkpt lat="46.9928183" lon="10.1800747"><ele>2615.8</ele><time>2024-03-30T09:22:37Z</time></trkpt>
      <trkpt lat="46.9926033" lon="10.1792354"><ele>2627.8</ele><time>2024-03-30T09:36:27Z</time></trkpt>
      <trkpt lat="46.9929159" lon="10.178557"><ele>2620.3</ele><time>2024-03-30T09:36:37Z</time></trkpt>
      <trkpt lat="46.9927412" lon="10.1782744"><ele>2597.1</ele><time>2024-03-30T09:36:42Z</time></trkpt>
      <trkpt lat="46.9932577" lon="10.1764316"><ele>2572.9</ele><time>2024-03-30T09:36:57Z</time></trkpt>
      <trkpt lat="46.9933447" lon="10.1762825"><ele>2572.5</ele><time>2024-03-30T09:37:02Z</time></trkpt>
      <trkpt lat="46.9937165" lon="10.1765493"><ele>2564.7</ele><time>2024-03-30T09:38:57Z</time></trkpt>
      <trkpt lat="46.9939836" lon="10.176439"><ele>2561.9</ele><time>2024-03-30T09:39:02Z</time></trkpt>
      <trkpt lat="46.9942421" lon="10.1761836"><ele>2558.5</ele><time>2024-03-30T09:39:07Z</time></trkpt>
      <trkpt lat="46.9944048" lon="10.1756445"><ele>2538.9</ele><time>2024-03-30T09:39:37Z</time></trkpt>
      <trkpt lat="46.9950056" lon="10.1750499"><ele>2522.1</ele><time>2024-03-30T09:39:52Z</time></trkpt>
      <trkpt lat="46.9953587" lon="10.1734962"><ele>2470.7</ele><time>2024-03-30T09:40:12Z</time></trkpt>
      <trkpt lat="46.9954256" lon="10.1721432"><ele>2435.6</ele><time>2024-03-30T09:42:22Z</time></trkpt>
      <trkpt lat="46.9943004" lon="10.1690919"><ele>2382.2</ele><time>2024-03-30T09:42:42Z</time></trkpt>
      <trkpt lat="46.994057" lon="10.1686423"><ele>2378.5</ele><time>2024-03-30T09:42:52Z</time></trkpt>
      <trkpt lat="46.9938204" lon="10.168518"><ele>2379.9</ele><time>2024-03-30T09:55:03Z</time></trkpt>
      <trkpt lat="46.9935827" lon="10.1678978"><ele>2391.5</ele><time>2024-03-30T09:56:33Z</time></trkpt>
      <trkpt lat="46.9939569" lon="10.1673649"><ele>2405.0</ele><time>2024-03-30T09:58:58Z</time></trkpt>
      <trkpt lat="46.9933528" lon="10.1668958"><ele>2426.4</ele><time>2024-03-30T10:01:33Z</time></trkpt>
      <trkpt lat="46.9938027" lon="10.1665154"><ele>2436.4</ele><time>2024-03-30T10:03:33Z</time></trkpt>
      <trkpt lat="46.9929459" lon="10.1656062"><ele>2460.0</ele><time>2024-03-30T10:07:38Z</time></trkpt>
      <trkpt lat="46.9931647" lon="10.1654272"><ele>2465.4</ele><time>2024-03-30T10:08:38Z</time></trkpt>
      <trkpt lat="46.9931962" lon="10.1650683"><ele>2472.2</ele><time>2024-03-30T10:09:28Z</time></trkpt>
      <trkpt lat="46.9934916" lon="10.1644131"><ele>2481.2</ele><time>2024-03-30T10:11:33Z</time></trkpt>
      <trkpt lat="46.9942864" lon="10.1643131"><ele>2502.6</ele><time>2024-03-30T10:16:18Z</time></trkpt>
      <trkpt lat="46.994644" lon="10.1644915"><ele>2519.7</ele><time>2024-03-30T10:18:38Z</time></trkpt>
      <trkpt lat="46.9943675" lon="10.1638985"><ele>2529.1</ele><time>2024-03-30T10:21:18Z</time></trkpt>
      <trkpt lat="46.9947373" lon="10.1639814"><ele>2536.7</ele><time>2024-03-30T10:22:43Z</time></trkpt>
      <trkpt lat="46.9945165" lon="10.1627722"><ele>2558.6</ele><time>2024-03-30T10:25:59Z</time></trkpt>
      <trkpt lat="46.9940987" lon="10.1626343"><ele>2568.1</ele><time>2024-03-30T10:27:44Z</time></trkpt>
      <trkpt lat="46.9939605" lon="10.1624253"><ele>2574.6</ele><time>2024-03-30T10:28:24Z</time></trkpt>
      <trkpt lat="46.9937782" lon="10.1617255"><ele>2582.1</ele><time>2024-03-30T10:30:14Z</time></trkpt>
      <trkpt lat="46.9939912" lon="10.1615153"><ele>2584.7</ele><time>2024-03-30T10:31:09Z</time></trkpt>
      <trkpt lat="46.9937565" lon="10.1611799"><ele>2593.0</ele><time>2024-03-30T10:32:04Z</time></trkpt>
      <trkpt lat="46.9934633" lon="10.1612706"><ele>2599.9</ele><time>2024-03-30T10:33:09Z</time></trkpt>
      <trkpt lat="46.9935032" lon="10.1598748"><ele>2618.6</ele><time>2024-03-30T10:36:04Z</time></trkpt>
      <trkpt lat="46.9933327" lon="10.1593773"><ele>2622.8</ele><time>2024-03-30T10:40:59Z</time></trkpt>
      <trkpt lat="46.9929781" lon="10.1589565"><ele>2627.9</ele><time>2024-03-30T10:42:19Z</time></trkpt>
      <trkpt lat="46.9932293" lon="10.1585306"><ele>2637.1</ele><time>2024-03-30T10:43:39Z</time></trkpt>
      <trkpt lat="46.9930858" lon="10.158346"><ele>2637.9</ele><time>2024-03-30T10:44:14Z</time></trkpt>
      <trkpt lat="46.9926684" lon="10.1584267"><ele>2651.5</ele><time>2024-03-30T10:45:34Z</time></trkpt>
      <trkpt lat="46.9923872" lon="10.158254"><ele>2661.4</ele><time>2024-03-30T10:46:34Z</time></trkpt>
      <trkpt lat="46.9921988" lon="10.1575274"><ele>2673.0</ele><time>2024-03-30T10:48:24Z</time></trkpt>
      <trkpt lat="46.9922849" lon="10.156838"><ele>2679.5</ele><time>2024-03-30T10:50:04Z</time></trkpt>
      <trkpt lat="46.9918288" lon="10.1567762"><ele>2689.3</ele><time>2024-03-30T10:51:39Z</time></trkpt>
      <trkpt lat="46.9919586" lon="10.1562563"><ele>2698.3</ele><time>2024-03-30T10:53:04Z</time></trkpt>
      <trkpt lat="46.9919097" lon="10.1561079"><ele>2706.3</ele><time>2024-03-30T10:54:24Z</time></trkpt>
      <trkpt lat="46.9917583" lon="10.1561416"><ele>2710.1</ele><time>2024-03-30T10:54:59Z</time></trkpt>
      <trkpt lat="46.9917875" lon="10.1559999"><ele>2709.5</ele><time>2024-03-30T10:55:19Z</time></trkpt>
      <trkpt lat="46.9921525" lon="10.1554842"><ele>2726.4</ele><time>2024-03-30T10:57:19Z</time></trkpt>
      <trkpt lat="46.9917018" lon="10.1553583"><ele>2739.4</ele><time>2024-03-30T10:59:04Z</time></trkpt>
      <trkpt lat="46.9920108" lon="10.1550188"><ele>2742.5</ele><time>2024-03-30T11:00:39Z</time></trkpt>
      <trkpt lat="46.9924982" lon="10.1549909"><ele>2756.7</ele><time>2024-03-30T11:02:29Z</time></trkpt>
      <trkpt lat="46.992011" lon="10.1543948"><ele>2774.9</ele><time>2024-03-30T11:04:29Z</time></trkpt>
      <trkpt lat="46.9924227" lon="10.151438"><ele>2739.2</ele><time>2024-03-30T11:16:34Z</time></trkpt>
      <trkpt lat="46.9922793" lon="10.1512859"><ele>2732.1</ele><time>2024-03-30T11:16:39Z</time></trkpt>
      <trkpt lat="46.9923365" lon="10.1507904"><ele>2724.6</ele><time>2024-03-30T11:16:44Z</time></trkpt>
      <trkpt lat="46.9929029" lon="10.1506736"><ele>2704.8</ele><time>2024-03-30T11:17:45Z</time></trkpt>
      <trkpt lat="46.993244" lon="10.1507796"><ele>2698.0</ele><time>2024-03-30T11:17:56Z</time></trkpt>
      <trkpt lat="46.9938492" lon="10.1512096"><ele>2683.6</ele><time>2024-03-30T11:18:06Z</time></trkpt>
      <trkpt lat="46.9942631" lon="10.1511836"><ele>2652.1</ele><time>2024-03-30T11:20:03Z</time></trkpt>
      <trkpt lat="46.9946781" lon="10.1516118"><ele>2640.9</ele><time>2024-03-30T11:20:13Z</time></trkpt>
      <trkpt lat="46.9958251" lon="10.1521648"><ele>2618.6</ele><time>2024-03-30T11:20:33Z</time></trkpt>
      <trkpt lat="46.9959555" lon="10.1518204"><ele>2603.5</ele><time>2024-03-30T11:21:08Z</time></trkpt>
      <trkpt lat="46.9964036" lon="10.1515345"><ele>2593.6</ele><time>2024-03-30T11:21:13Z</time></trkpt>
      <trkpt lat="46.9975065" lon="10.1513917"><ele>2583.8</ele><time>2024-03-30T11:21:28Z</time></trkpt>
      <trkpt lat="46.9992581" lon="10.152352"><ele>2558.3</ele><time>2024-03-30T11:21:58Z</time></trkpt>
      <trkpt lat="46.9994337" lon="10.1521848"><ele>2549.3</ele><time>2024-03-30T11:22:08Z</time></trkpt>
      <trkpt lat="46.9997612" lon="10.1522469"><ele>2539.2</ele><time>2024-03-30T11:23:58Z</time></trkpt>
      <trkpt lat="46.9998373" lon="10.152442"><ele>2534.1</ele><time>2024-03-30T11:24:03Z</time></trkpt>
      <trkpt lat="47.00016" lon="10.1524367"><ele>2522.2</ele><time>2024-03-30T11:24:08Z</time></trkpt>
      <trkpt lat="47.0004095" lon="10.1521895"><ele>2511.0</ele><time>2024-03-30T11:24:13Z</time></trkpt>
      <trkpt lat="47.000469" lon="10.1514895"><ele>2503.9</ele><time>2024-03-30T11:24:23Z</time></trkpt>
      <trkpt lat="47.000732" lon="10.1514286"><ele>2497.1</ele><time>2024-03-30T11:25:28Z</time></trkpt>
      <trkpt lat="47.0008639" lon="10.151064"><ele>2489.7</ele><time>2024-03-30T11:25:33Z</time></trkpt>
      <trkpt lat="47.0011479" lon="10.1509013"><ele>2473.8</ele><time>2024-03-30T11:25:38Z</time></trkpt>
      <trkpt lat="47.0013928" lon="10.1504816"><ele>2468.0</ele><time>2024-03-30T11:25:43Z</time></trkpt>
      <trkpt lat="47.0020808" lon="10.148434"><ele>2429.9</ele><time>2024-03-30T11:26:03Z</time></trkpt>
      <trkpt lat="47.0023965" lon="10.1478537"><ele>2424.7</ele><time>2024-03-30T11:26:08Z</time></trkpt>
      <trkpt lat="47.0032839" lon="10.1469772"><ele>2413.2</ele><time>2024-03-30T11:26:28Z</time></trkpt>
      <trkpt lat="47.0037509" lon="10.1442242"><ele>2395.6</ele><time>2024-03-30T11:29:03Z</time></trkpt>
      <trkpt lat="47.0040045" lon="10.1434714"><ele>2394.0</ele><time>2024-03-30T11:29:18Z</time></trkpt>
      <trkpt lat="47.0044671" lon="10.1426505"><ele>2384.4</ele><time>2024-03-30T11:29:58Z</time></trkpt>
      <trkpt lat="47.0049912" lon="10.1423901"><ele>2377.0</ele><time>2024-03-30T11:30:08Z</time></trkpt>
      <trkpt lat="47.0058233" lon="10.1434132"><ele>2365.9</ele><time>2024-03-30T11:34:08Z</time></trkpt>
      <trkpt lat="47.0061293" lon="10.1436307"><ele>2362.1</ele><time>2024-03-30T11:34:13Z</time></trkpt>
      <trkpt lat="47.0063641" lon="10.1436044"><ele>2360.2</ele><time>2024-03-30T11:34:18Z</time></trkpt>
      <trkpt lat="47.0066611" lon="10.1419207"><ele>2345.9</ele><time>2024-03-30T11:34:33Z</time></trkpt>
      <trkpt lat="47.0070267" lon="10.1407064"><ele>2333.7</ele><time>2024-03-30T11:34:43Z</time></trkpt>
      <trkpt lat="47.0071864" lon="10.139266"><ele>2316.9</ele><time>2024-03-30T11:35:03Z</time></trkpt>
      <trkpt lat="47.0072473" lon="10.139412"><ele>2311.6</ele><time>2024-03-30T11:36:53Z</time></trkpt>
      <trkpt lat="47.0071871" lon="10.1391809"><ele>2316.3</ele><time>2024-03-31T05:56:15Z</time></trkpt>
      <trkpt lat="47.0072742" lon="10.1391294"><ele>2312.4</ele><time>2024-03-31T05:58:07Z</time></trkpt>
      <trkpt lat="47.0077933" lon="10.1402058"><ele>2299.8</ele><time>2024-03-31T05:58:42Z</time></trkpt>
      <trkpt lat="47.0081966" lon="10.1405212"><ele>2293.8</ele><time>2024-03-31T05:59:08Z</time></trkpt>
      <trkpt lat="47.0083778" lon="10.1404484"><ele>2291.0</ele><time>2024-03-31T05:59:13Z</time></trkpt>
      <trkpt lat="47.0083792" lon="10.1402283"><ele>2289.1</ele><time>2024-03-31T05:59:18Z</time></trkpt>
      <trkpt lat="47.0085087" lon="10.140141"><ele>2289.5</ele><time>2024-03-31T05:59:39Z</time></trkpt>
      <trkpt lat="47.0113798" lon="10.1406139"><ele>2274.8</ele><time>2024-03-31T06:02:44Z</time></trkpt>
      <trkpt lat="47.0118652" lon="10.1405656"><ele>2274.5</ele><time>2024-03-31T06:03:30Z</time></trkpt>
      <trkpt lat="47.0130532" lon="10.1409612"><ele>2266.3</ele><time>2024-03-31T06:04:40Z</time></trkpt>
      <trkpt lat="47.0134083" lon="10.1412443"><ele>2267.2</ele><time>2024-03-31T06:05:15Z</time></trkpt>
      <trkpt lat="47.0141784" lon="10.1412228"><ele>2273.9</ele><time>2024-03-31T06:14:00Z</time></trkpt>
      <trkpt lat="47.0144561" lon="10.1413851"><ele>2271.7</ele><time>2024-03-31T06:14:25Z</time></trkpt>
      <trkpt lat="47.0148692" lon="10.1413027"><ele>2272.5</ele><time>2024-03-31T06:15:50Z</time></trkpt>
      <trkpt lat="47.0151472" lon="10.1409002"><ele>2277.1</ele><time>2024-03-31T06:16:46Z</time></trkpt>
      <trkpt lat="47.0155671" lon="10.1410655"><ele>2277.9</ele><time>2024-03-31T06:17:31Z</time></trkpt>
      <trkpt lat="47.0162858" lon="10.1407385"><ele>2288.2</ele><time>2024-03-31T06:19:16Z</time></trkpt>
      <trkpt lat="47.0173372" lon="10.139403"><ele>2289.8</ele><time>2024-03-31T06:21:56Z</time></trkpt>
      <trkpt lat="47.0200951" lon="10.1369845"><ele>2279.2</ele><time>2024-03-31T06:26:46Z</time></trkpt>
      <trkpt lat="47.0201768" lon="10.1364132"><ele>2281.2</ele><time>2024-03-31T06:27:21Z</time></trkpt>
      <trkpt lat="47.0204577" lon="10.1362049"><ele>2285.6</ele><time>2024-03-31T06:28:11Z</time></trkpt>
      <trkpt lat="47.0208392" lon="10.1349809"><ele>2296.2</ele><time>2024-03-31T06:30:06Z</time></trkpt>
      <trkpt lat="47.0217846" lon="10.1313405"><ele>2337.5</ele><time>2024-03-31T06:37:09Z</time></trkpt>
      <trkpt lat="47.02189" lon="10.1303972"><ele>2349.9</ele><time>2024-03-31T06:38:54Z</time></trkpt>
      <trkpt lat="47.0220657" lon="10.1300175"><ele>2353.7</ele><time>2024-03-31T06:39:39Z</time></trkpt>
      <trkpt lat="47.0224804" lon="10.1300317"><ele>2358.3</ele><time>2024-03-31T06:40:59Z</time></trkpt>
      <trkpt lat="47.022653" lon="10.1296752"><ele>2367.5</ele><time>2024-03-31T06:41:54Z</time></trkpt>
      <trkpt lat="47.0228742" lon="10.12988"><ele>2372.1</ele><time>2024-03-31T06:42:44Z</time></trkpt>
      <trkpt lat="47.02321" lon="10.1290879"><ele>2390.0</ele><time>2024-03-31T06:44:44Z</time></trkpt>
      <trkpt lat="47.0231865" lon="10.1284659"><ele>2399.0</ele><time>2024-03-31T06:45:44Z</time></trkpt>
      <trkpt lat="47.023305" lon="10.1280947"><ele>2404.0</ele><time>2024-03-31T06:46:29Z</time></trkpt>
      <trkpt lat="47.0234526" lon="10.1282519"><ele>2406.1</ele><time>2024-03-31T06:47:14Z</time></trkpt>
      <trkpt lat="47.0235488" lon="10.1280117"><ele>2415.1</ele><time>2024-03-31T06:47:44Z</time></trkpt>
      <trkpt lat="47.0239346" lon="10.1277848"><ele>2418.5</ele><time>2024-03-31T06:48:54Z</time></trkpt>
      <trkpt lat="47.0242059" lon="10.1278395"><ele>2419.3</ele><time>2024-03-31T06:56:39Z</time></trkpt>
      <trkpt lat="47.0250718" lon="10.1273919"><ele>2394.4</ele><time>2024-03-31T06:57:24Z</time></trkpt>
      <trkpt lat="47.0249706" lon="10.1273026"><ele>2391.5</ele><time>2024-03-31T06:57:44Z</time></trkpt>
      <trkpt lat="47.025041" lon="10.1267145"><ele>2374.7</ele><time>2024-03-31T06:57:54Z</time></trkpt>
      <trkpt lat="47.0255762" lon="10.1263883"><ele>2344.5</ele><time>2024-03-31T06:58:09Z</time></trkpt>
      <trkpt lat="47.0256189" lon="10.1260993"><ele>2335.7</ele><time>2024-03-31T06:58:14Z</time></trkpt>
      <trkpt lat="47.0258556" lon="10.1259528"><ele>2327.7</ele><time>2024-03-31T06:58:19Z</time></trkpt>
      <trkpt lat="47.0260968" lon="10.1254752"><ele>2320.7</ele><time>2024-03-31T06:58:29Z</time></trkpt>
      <trkpt lat="47.027619" lon="10.1247978"><ele>2292.4</ele><time>2024-03-31T06:59:09Z</time></trkpt>
      <trkpt lat="47.0279805" lon="10.1247718"><ele>2286.5</ele><time>2024-03-31T06:59:19Z</time></trkpt>
      <trkpt lat="47.028139" lon="10.1244528"><ele>2283.6</ele><time>2024-03-31T06:59:29Z</time></trkpt>
      <trkpt lat="47.0280826" lon="10.1240336"><ele>2278.1</ele><time>2024-03-31T07:07:34Z</time></trkpt>
      <trkpt lat="47.0283169" lon="10.123522"><ele>2284.0</ele><time>2024-03-31T07:08:54Z</time></trkpt>
      <trkpt lat="47.0285785" lon="10.1233402"><ele>2289.1</ele><time>2024-03-31T07:09:54Z</time></trkpt>
      <trkpt lat="47.0295743" lon="10.1212919"><ele>2315.3</ele><time>2024-03-31T07:13:59Z</time></trkpt>
      <trkpt lat="47.0300041" lon="10.1211461"><ele>2314.4</ele><time>2024-03-31T07:14:44Z</time></trkpt>
      <trkpt lat="47.0300786" lon="10.1208345"><ele>2318.9</ele><time>2024-03-31T07:15:29Z</time></trkpt>
      <trkpt lat="47.0305116" lon="10.1205673"><ele>2321.0</ele><time>2024-03-31T07:16:29Z</time></trkpt>
      <trkpt lat="47.0305207" lon="10.1199278"><ele>2327.7</ele><time>2024-03-31T07:17:34Z</time></trkpt>
      <trkpt lat="47.0307054" lon="10.1195382"><ele>2330.4</ele><time>2024-03-31T07:18:24Z</time></trkpt>
      <trkpt lat="47.0310401" lon="10.1179343"><ele>2349.2</ele><time>2024-03-31T07:21:44Z</time></trkpt>
      <trkpt lat="47.0317033" lon="10.1175996"><ele>2366.7</ele><time>2024-03-31T07:32:09Z</time></trkpt>
      <trkpt lat="47.0320856" lon="10.1171053"><ele>2379.9</ele><time>2024-03-31T07:33:59Z</time></trkpt>
      <trkpt lat="47.0321876" lon="10.1159761"><ele>2399.1</ele><time>2024-03-31T07:36:34Z</time></trkpt>
      <trkpt lat="47.0325311" lon="10.1150366"><ele>2418.0</ele><time>2024-03-31T07:39:19Z</time></trkpt>
      <trkpt lat="47.0323927" lon="10.1141488"><ele>2427.8</ele><time>2024-03-31T07:41:29Z</time></trkpt>
      <trkpt lat="47.0321488" lon="10.1140175"><ele>2438.0</ele><time>2024-03-31T07:42:54Z</time></trkpt>
      <trkpt lat="47.0322634" lon="10.1134169"><ele>2452.0</ele><time>2024-03-31T07:44:49Z</time></trkpt>
      <trkpt lat="47.0320877" lon="10.112667"><ele>2467.7</ele><time>2024-03-31T07:46:49Z</time></trkpt>
      <trkpt lat="47.0325435" lon="10.1126695"><ele>2480.1</ele><time>2024-03-31T07:48:39Z</time></trkpt>
      <trkpt lat="47.0323615" lon="10.1120979"><ele>2496.5</ele><time>2024-03-31T07:50:19Z</time></trkpt>
      <trkpt lat="47.0328982" lon="10.1121207"><ele>2512.4</ele><time>2024-03-31T07:52:59Z</time></trkpt>
      <trkpt lat="47.0327622" lon="10.1118072"><ele>2520.9</ele><time>2024-03-31T07:53:54Z</time></trkpt>
      <trkpt lat="47.0332252" lon="10.1106682"><ele>2536.2</ele><time>2024-03-31T08:05:06Z</time></trkpt>
      <trkpt lat="47.0333653" lon="10.1107897"><ele>2524.6</ele><time>2024-03-31T08:06:52Z</time></trkpt>
      <trkpt lat="47.0333708" lon="10.1110769"><ele>2510.6</ele><time>2024-03-31T08:06:57Z</time></trkpt>
      <trkpt lat="47.0337697" lon="10.1112642"><ele>2475.0</ele><time>2024-03-31T08:10:49Z</time></trkpt>
      <trkpt lat="47.0339269" lon="10.111993"><ele>2426.9</ele><time>2024-03-31T08:11:04Z</time></trkpt>
      <trkpt lat="47.0341824" lon="10.1121296"><ele>2400.9</ele><time>2024-03-31T08:11:09Z</time></trkpt>
      <trkpt lat="47.0347292" lon="10.1130888"><ele>2356.3</ele><time>2024-03-31T08:11:24Z</time></trkpt>
      <trkpt lat="47.0349632" lon="10.1129656"><ele>2344.3</ele><time>2024-03-31T08:13:59Z</time></trkpt>
      <trkpt lat="47.0352674" lon="10.1131842"><ele>2322.2</ele><time>2024-03-31T08:14:04Z</time></trkpt>
      <trkpt lat="47.0360709" lon="10.1139284"><ele>2283.3</ele><time>2024-03-31T08:14:14Z</time></trkpt>
      <trkpt lat="47.0366092" lon="10.1147247"><ele>2272.5</ele><time>2024-03-31T08:14:29Z</time></trkpt>
      <trkpt lat="47.037762" lon="10.1145298"><ele>2197.3</ele><time>2024-03-31T08:19:14Z</time></trkpt>
      <trkpt lat="47.038404" lon="10.1146577"><ele>2164.3</ele><time>2024-03-31T08:19:24Z</time></trkpt>
      <trkpt lat="47.0386699" lon="10.1142296"><ele>2152.4</ele><time>2024-03-31T08:19:39Z</time></trkpt>
      <trkpt lat="47.0390121" lon="10.114173"><ele>2135.8</ele><time>2024-03-31T08:20:34Z</time></trkpt>
      <trkpt lat="47.0395075" lon="10.1144826"><ele>2094.0</ele><time>2024-03-31T08:20:44Z</time></trkpt>
      <trkpt lat="47.0400294" lon="10.1144592"><ele>2059.2</ele><time>2024-03-31T08:20:54Z</time></trkpt>
      <trkpt lat="47.0409265" lon="10.1142261"><ele>2003.5</ele><time>2024-03-31T08:21:08Z</time></trkpt>
      <trkpt lat="47.0422595" lon="10.1135228"><ele>1922.4</ele><time>2024-03-31T08:24:39Z</time></trkpt>
      <trkpt lat="47.0426976" lon="10.1138895"><ele>1889.7</ele><time>2024-03-31T08:25:59Z</time></trkpt>
      <trkpt lat="47.0432381" lon="10.1139719"><ele>1857.5</ele><time>2024-03-31T08:26:04Z</time></trkpt>
      <trkpt lat="47.0437439" lon="10.1137502"><ele>1824.4</ele><time>2024-03-31T08:26:09Z</time></trkpt>
      <trkpt lat="47.0442288" lon="10.1135223"><ele>1798.3</ele><time>2024-03-31T08:26:14Z</time></trkpt>
      <trkpt lat="47.0446179" lon="10.1130363"><ele>1777.0</ele><time>2024-03-31T08:26:19Z</time></trkpt>
      <trkpt lat="47.0447423" lon="10.1121954"><ele>1761.5</ele><time>2024-03-31T08:26:34Z</time></trkpt>
      <trkpt lat="47.0463266" lon="10.1109834"><ele>1711.7</ele><time>2024-03-31T08:26:54Z</time></trkpt>
      <trkpt lat="47.0464874" lon="10.1110312"><ele>1708.0</ele><time>2024-03-31T08:26:59Z</time></trkpt>
      <trkpt lat="47.0462034" lon="10.1103096"><ele>1704.5</ele><time>2024-03-31T08:28:04Z</time></trkpt>
      <trkpt lat="47.0465124" lon="10.1108506"><ele>1709.0</ele><time>2024-03-31T08:29:09Z</time></trkpt>
      <trkpt lat="47.0466269" lon="10.1115295"><ele>1710.8</ele><time>2024-03-31T08:34:44Z</time></trkpt>
      <trkpt lat="47.0470545" lon="10.1125906"><ele>1708.4</ele><time>2024-03-31T08:41:58Z</time></trkpt>
      <trkpt lat="47.0474349" lon="10.1130977"><ele>1700.9</ele><time>2024-03-31T08:43:09Z</time></trkpt>
      <trkpt lat="47.0477277" lon="10.1143766"><ele>1711.2</ele><time>2024-03-31T08:46:14Z</time></trkpt>
      <trkpt lat="47.0482549" lon="10.1151252"><ele>1714.9</ele><time>2024-03-31T08:48:29Z</time></trkpt>
      <trkpt lat="47.0482748" lon="10.1148371"><ele>1716.5</ele><time>2024-03-31T08:48:49Z</time></trkpt>
      <trkpt lat="47.0483989" lon="10.1148041"><ele>1717.0</ele><time>2024-03-31T08:49:39Z</time></trkpt>
      <trkpt lat="47.0485222" lon="10.1144616"><ele>1723.3</ele><time>2024-03-31T08:50:29Z</time></trkpt>
      <trkpt lat="47.0491333" lon="10.1142322"><ele>1729.9</ele><time>2024-03-31T08:53:09Z</time></trkpt>
      <trkpt lat="47.0494565" lon="10.1136986"><ele>1738.1</ele><time>2024-03-31T08:55:04Z</time></trkpt>
      <trkpt lat="47.0495347" lon="10.1137988"><ele>1728.2</ele><time>2024-03-31T08:55:44Z</time></trkpt>
      <trkpt lat="47.0498981" lon="10.1133507"><ele>1750.8</ele><time>2024-03-31T08:57:34Z</time></trkpt>
      <trkpt lat="47.0500013" lon="10.1137036"><ele>1761.1</ele><time>2024-03-31T08:58:44Z</time></trkpt>
      <trkpt lat="47.0501636" lon="10.1133976"><ele>1771.8</ele><time>2024-03-31T08:59:29Z</time></trkpt>
      <trkpt lat="47.0498784" lon="10.1120345"><ele>1783.1</ele><time>2024-03-31T09:03:40Z</time></trkpt>
      <trkpt lat="47.0499386" lon="10.1109685"><ele>1810.2</ele><time>2024-03-31T09:08:40Z</time></trkpt>
      <trkpt lat="47.0503437" lon="10.1115125"><ele>1825.7</ele><time>2024-03-31T09:12:55Z</time></trkpt>
      <trkpt lat="47.0504399" lon="10.1115782"><ele>1830.1</ele><time>2024-03-31T09:13:30Z</time></trkpt>
      <trkpt lat="47.0504105" lon="10.1112838"><ele>1839.7</ele><time>2024-03-31T09:14:45Z</time></trkpt>
      <trkpt lat="47.050811" lon="10.1117194"><ele>1851.7</ele><time>2024-03-31T09:19:15Z</time></trkpt>
      <trkpt lat="47.0507188" lon="10.1107817"><ele>1872.5</ele><time>2024-03-31T09:25:10Z</time></trkpt>
      <trkpt lat="47.0508377" lon="10.1095181"><ele>1896.3</ele><time>2024-03-31T09:31:30Z</time></trkpt>
      <trkpt lat="47.0509495" lon="10.1093657"><ele>1896.9</ele><time>2024-03-31T09:32:45Z</time></trkpt>
      <trkpt lat="47.051192" lon="10.1099957"><ele>1915.8</ele><time>2024-03-31T09:35:25Z</time></trkpt>
      <trkpt lat="47.0513711" lon="10.1101509"><ele>1920.4</ele><time>2024-03-31T09:36:25Z</time></trkpt>
      <trkpt lat="47.051482" lon="10.109047"><ele>1950.3</ele><time>2024-03-31T09:38:45Z</time></trkpt>
      <trkpt lat="47.051915" lon="10.1077658"><ele>1965.3</ele><time>2024-03-31T09:44:50Z</time></trkpt>
      <trkpt lat="47.0522101" lon="10.1084733"><ele>1979.0</ele><time>2024-03-31T09:47:40Z</time></trkpt>
      <trkpt lat="47.05254" lon="10.1071088"><ele>1997.2</ele><time>2024-03-31T09:50:55Z</time></trkpt>
      <trkpt lat="47.052679" lon="10.105153"><ele>2037.2</ele><time>2024-03-31T09:56:30Z</time></trkpt>
      <trkpt lat="47.0528165" lon="10.1049574"><ele>2036.8</ele><time>2024-03-31T09:57:45Z</time></trkpt>
      <trkpt lat="47.0529566" lon="10.1042117"><ele>2049.7</ele><time>2024-03-31T10:00:35Z</time></trkpt>
      <trkpt lat="47.0533423" lon="10.1055496"><ele>2074.3</ele><time>2024-03-31T10:04:15Z</time></trkpt>
      <trkpt lat="47.0536083" lon="10.1040441"><ele>2094.6</ele><time>2024-03-31T10:08:30Z</time></trkpt>
      <trkpt lat="47.0539875" lon="10.1034917"><ele>2102.9</ele><time>2024-03-31T10:25:00Z</time></trkpt>
      <trkpt lat="47.0540964" lon="10.1037043"><ele>2105.9</ele><time>2024-03-31T10:25:50Z</time></trkpt>
      <trkpt lat="47.0543586" lon="10.1027836"><ele>2125.8</ele><time>2024-03-31T10:28:10Z</time></trkpt>
      <trkpt lat="47.0550009" lon="10.101678"><ele>2146.4</ele><time>2024-03-31T10:31:25Z</time></trkpt>
      <trkpt lat="47.055363" lon="10.1019359"><ele>2150.2</ele><time>2024-03-31T10:32:35Z</time></trkpt>
      <trkpt lat="47.0557001" lon="10.1013305"><ele>2163.4</ele><time>2024-03-31T10:34:20Z</time></trkpt>
      <trkpt lat="47.0558668" lon="10.1019284"><ele>2166.7</ele><time>2024-03-31T10:35:35Z</time></trkpt>
      <trkpt lat="47.0561462" lon="10.1023367"><ele>2174.8</ele><time>2024-03-31T10:36:40Z</time></trkpt>
      <trkpt lat="47.0571591" lon="10.1011052"><ele>2207.2</ele><time>2024-03-31T10:40:30Z</time></trkpt>
      <trkpt lat="47.0572903" lon="10.101129"><ele>2210.0</ele><time>2024-03-31T10:40:55Z</time></trkpt>
      <trkpt lat="47.0577511" lon="10.0997908"><ele>2235.2</ele><time>2024-03-31T10:44:20Z</time></trkpt>
      <trkpt lat="47.0579378" lon="10.1002484"><ele>2241.9</ele><time>2024-03-31T10:45:25Z</time></trkpt>
      <trkpt lat="47.0580446" lon="10.0995996"><ele>2257.2</ele><time>2024-03-31T10:46:45Z</time></trkpt>
      <trkpt lat="47.058294" lon="10.1002124"><ele>2261.4</ele><time>2024-03-31T10:48:20Z</time></trkpt>
      <trkpt lat="47.0585073" lon="10.1018293"><ele>2280.0</ele><time>2024-03-31T10:50:30Z</time></trkpt>
      <trkpt lat="47.0585851" lon="10.1017752"><ele>2284.6</ele><time>2024-03-31T10:51:40Z</time></trkpt>
      <trkpt lat="47.0587055" lon="10.1021114"><ele>2291.1</ele><time>2024-03-31T10:52:50Z</time></trkpt>
      <trkpt lat="47.0594201" lon="10.1028693"><ele>2295.8</ele><time>2024-03-31T10:54:40Z</time></trkpt>
      <trkpt lat="47.0597615" lon="10.1038692"><ele>2311.7</ele><time>2024-03-31T10:56:30Z</time></trkpt>
      <trkpt lat="47.0599666" lon="10.1048056"><ele>2316.4</ele><time>2024-03-31T10:58:35Z</time></trkpt>
      <trkpt lat="47.0598921" lon="10.1048778"><ele>2316.3</ele><time>2024-03-31T11:05:45Z</time></trkpt>
      <trkpt lat="47.0603219" lon="10.1054449"><ele>2307.6</ele><time>2024-03-31T11:06:20Z</time></trkpt>
      <trkpt lat="47.060478" lon="10.105235"><ele>2289.9</ele><time>2024-03-31T11:06:25Z</time></trkpt>
      <trkpt lat="47.0608623" lon="10.1055627"><ele>2281.3</ele><time>2024-03-31T11:06:30Z</time></trkpt>
      <trkpt lat="47.0609008" lon="10.1052466"><ele>2257.4</ele><time>2024-03-31T11:07:40Z</time></trkpt>
      <trkpt lat="47.0616217" lon="10.1040788"><ele>2172.4</ele><time>2024-03-31T11:07:55Z</time></trkpt>
      <trkpt lat="47.0619837" lon="10.103803"><ele>2144.6</ele><time>2024-03-31T11:08:00Z</time></trkpt>
      <trkpt lat="47.062835" lon="10.1019083"><ele>2049.8</ele><time>2024-03-31T11:13:20Z</time></trkpt>
      <trkpt lat="47.0648575" lon="10.1041355"><ele>1987.6</ele><time>2024-03-31T11:14:10Z</time></trkpt>
      <trkpt lat="47.0650622" lon="10.1040208"><ele>1969.2</ele><time>2024-03-31T11:14:15Z</time></trkpt>
      <trkpt lat="47.0664994" lon="10.1050121"><ele>1917.1</ele><time>2024-03-31T11:14:50Z</time></trkpt>
      <trkpt lat="47.0670194" lon="10.1065185"><ele>1937.9</ele><time>2024-03-31T11:30:10Z</time></trkpt>
      <trkpt lat="47.0679464" lon="10.1084021"><ele>1968.1</ele><time>2024-03-31T11:35:30Z</time></trkpt>
      <trkpt lat="47.0689648" lon="10.1118445"><ele>2032.0</ele><time>2024-03-31T11:45:20Z</time></trkpt>
      <trkpt lat="47.069604" lon="10.1119226"><ele>2046.9</ele><time>2024-03-31T11:47:55Z</time></trkpt>
      <trkpt lat="47.0695496" lon="10.1124321"><ele>2059.9</ele><time>2024-03-31T11:52:15Z</time></trkpt>
      <trkpt lat="47.0697677" lon="10.1124999"><ele>2063.1</ele><time>2024-03-31T11:53:00Z</time></trkpt>
      <trkpt lat="47.0696873" lon="10.1127191"><ele>2072.2</ele><time>2024-03-31T11:53:35Z</time></trkpt>
      <trkpt lat="47.0699555" lon="10.1126005"><ele>2076.3</ele><time>2024-03-31T11:54:40Z</time></trkpt>
      <trkpt lat="47.069967" lon="10.1139716"><ele>2094.8</ele><time>2024-03-31T11:57:35Z</time></trkpt>
      <trkpt lat="47.0698316" lon="10.1146757"><ele>2106.7</ele><time>2024-03-31T11:58:50Z</time></trkpt>
      <trkpt lat="47.0699295" lon="10.1149575"><ele>2110.4</ele><time>2024-03-31T11:59:50Z</time></trkpt>
      <trkpt lat="47.0700858" lon="10.1147914"><ele>2123.8</ele><time>2024-03-31T12:02:55Z</time></trkpt>
      <trkpt lat="47.070225" lon="10.1153603"><ele>2139.6</ele><time>2024-03-31T12:06:50Z</time></trkpt>
      <trkpt lat="47.0703599" lon="10.1152116"><ele>2145.1</ele><time>2024-03-31T12:08:00Z</time></trkpt>
      <trkpt lat="47.0704318" lon="10.1156297"><ele>2156.3</ele><time>2024-03-31T12:09:35Z</time></trkpt>
      <trkpt lat="47.0702789" lon="10.1157241"><ele>2163.2</ele><time>2024-03-31T12:10:20Z</time></trkpt>
      <trkpt lat="47.07032" lon="10.1161959"><ele>2175.5</ele><time>2024-03-31T12:11:50Z</time></trkpt>
      <trkpt lat="47.0709668" lon="10.1159298"><ele>2187.4</ele><time>2024-03-31T12:14:35Z</time></trkpt>
      <trkpt lat="47.0709568" lon="10.1155855"><ele>2193.0</ele><time>2024-03-31T12:16:00Z</time></trkpt>
      <trkpt lat="47.0711376" lon="10.1152913"><ele>2201.9</ele><time>2024-03-31T12:16:55Z</time></trkpt>
      <trkpt lat="47.0714547" lon="10.1160097"><ele>2218.3</ele><time>2024-03-31T12:19:05Z</time></trkpt>
      <trkpt lat="47.0715512" lon="10.1157803"><ele>2220.4</ele><time>2024-03-31T12:19:45Z</time></trkpt>
      <trkpt lat="47.0722067" lon="10.1169253"><ele>2260.9</ele><time>2024-03-31T12:25:55Z</time></trkpt>
      <trkpt lat="47.0724943" lon="10.1167616"><ele>2272.0</ele><time>2024-03-31T12:27:30Z</time></trkpt>
      <trkpt lat="47.0727968" lon="10.1162954"><ele>2282.9</ele><time>2024-03-31T12:29:00Z</time></trkpt>
      <trkpt lat="47.0726313" lon="10.115834"><ele>2294.6</ele><time>2024-03-31T12:30:15Z</time></trkpt>
      <trkpt lat="47.0726507" lon="10.1155387"><ele>2300.7</ele><time>2024-03-31T12:31:05Z</time></trkpt>
      <trkpt lat="47.0733966" lon="10.1151512"><ele>2318.9</ele><time>2024-03-31T12:33:50Z</time></trkpt>
      <trkpt lat="47.0742456" lon="10.115148"><ele>2340.7</ele><time>2024-03-31T12:36:35Z</time></trkpt>
      <trkpt lat="47.0748441" lon="10.1158807"><ele>2369.9</ele><time>2024-03-31T12:39:05Z</time></trkpt>
      <trkpt lat="47.0747953" lon="10.1147337"><ele>2388.0</ele><time>2024-03-31T12:41:10Z</time></trkpt>
      <trkpt lat="47.0751475" lon="10.1155173"><ele>2392.9</ele><time>2024-03-31T12:42:15Z</time></trkpt>
      <trkpt lat="47.0755933" lon="10.1156348"><ele>2397.0</ele><time>2024-03-31T12:43:15Z</time></trkpt>
      <trkpt lat="47.0753682" lon="10.1157045"><ele>2395.8</ele><time>2024-03-31T12:43:35Z</time></trkpt>
      <trkpt lat="47.0752729" lon="10.1155346"><ele>2391.8</ele><time>2024-03-31T12:47:55Z</time></trkpt>
      <trkpt lat="47.0752913" lon="10.1156728"><ele>2394.6</ele><time>2024-04-01T06:07:39Z</time></trkpt>
      <trkpt lat="47.0764211" lon="10.1170816"><ele>2376.3</ele><time>2024-04-01T06:11:36Z</time></trkpt>
      <trkpt lat="47.0767809" lon="10.118098"><ele>2362.1</ele><time>2024-04-01T06:12:06Z</time></trkpt>
      <trkpt lat="47.0772067" lon="10.1187089"><ele>2355.9</ele><time>2024-04-01T06:12:26Z</time></trkpt>
      <trkpt lat="47.0774526" lon="10.1196215"><ele>2346.8</ele><time>2024-04-01T06:12:56Z</time></trkpt>
      <trkpt lat="47.0776975" lon="10.1193447"><ele>2340.2</ele><time>2024-04-01T06:13:11Z</time></trkpt>
      <trkpt lat="47.0784776" lon="10.119832"><ele>2331.7</ele><time>2024-04-01T06:14:11Z</time></trkpt>
      <trkpt lat="47.079208" lon="10.1219748"><ele>2306.5</ele><time>2024-04-01T06:15:11Z</time></trkpt>
      <trkpt lat="47.0797891" lon="10.1226509"><ele>2293.3</ele><time>2024-04-01T06:15:36Z</time></trkpt>
      <trkpt lat="47.0807621" lon="10.1224787"><ele>2284.0</ele><time>2024-04-01T06:16:11Z</time></trkpt>
      <trkpt lat="47.0820976" lon="10.1226957"><ele>2267.0</ele><time>2024-04-01T06:16:51Z</time></trkpt>
      <trkpt lat="47.0827215" lon="10.1225119"><ele>2252.6</ele><time>2024-04-01T06:17:06Z</time></trkpt>
      <trkpt lat="47.0838213" lon="10.1217021"><ele>2244.1</ele><time>2024-04-01T06:18:31Z</time></trkpt>
      <trkpt lat="47.0844394" lon="10.1215863"><ele>2243.2</ele><time>2024-04-01T06:18:56Z</time></trkpt>
      <trkpt lat="47.0853809" lon="10.1219774"><ele>2223.6</ele><time>2024-04-01T06:19:26Z</time></trkpt>
      <trkpt lat="47.0870732" lon="10.1218892"><ele>2192.8</ele><time>2024-04-01T06:20:31Z</time></trkpt>
      <trkpt lat="47.0879215" lon="10.121499"><ele>2170.7</ele><time>2024-04-01T06:20:46Z</time></trkpt>
      <trkpt lat="47.0894091" lon="10.1202547"><ele>2142.1</ele><time>2024-04-01T06:21:26Z</time></trkpt>
      <trkpt lat="47.0898804" lon="10.1201286"><ele>2134.5</ele><time>2024-04-01T06:21:41Z</time></trkpt>
      <trkpt lat="47.0903933" lon="10.1201907"><ele>2128.8</ele><time>2024-04-01T06:22:01Z</time></trkpt>
      <trkpt lat="47.0914168" lon="10.1208682"><ele>2108.6</ele><time>2024-04-01T06:22:41Z</time></trkpt>
      <trkpt lat="47.0923943" lon="10.1206363"><ele>2096.2</ele><time>2024-04-01T06:23:21Z</time></trkpt>
      <trkpt lat="47.0931128" lon="10.1209969"><ele>2089.5</ele><time>2024-04-01T06:24:36Z</time></trkpt>
      <trkpt lat="47.0939905" lon="10.1217389"><ele>2084.5</ele><time>2024-04-01T06:25:46Z</time></trkpt>
      <trkpt lat="47.0954518" lon="10.1222464"><ele>2080.5</ele><time>2024-04-01T06:28:11Z</time></trkpt>
      <trkpt lat="47.0964933" lon="10.1213499"><ele>2067.7</ele><time>2024-04-01T06:30:11Z</time></trkpt>
      <trkpt lat="47.0985954" lon="10.1208224"><ele>2055.6</ele><time>2024-04-01T06:33:21Z</time></trkpt>
      <trkpt lat="47.0991313" lon="10.1202057"><ele>2058.0</ele><time>2024-04-01T06:34:51Z</time></trkpt>
      <trkpt lat="47.0995771" lon="10.1201832"><ele>2049.9</ele><time>2024-04-01T06:35:21Z</time></trkpt>
      <trkpt lat="47.0999826" lon="10.1203663"><ele>2036.2</ele><time>2024-04-01T06:38:41Z</time></trkpt>
      <trkpt lat="47.1005753" lon="10.1198898"><ele>1972.4</ele><time>2024-04-01T06:39:06Z</time></trkpt>
      <trkpt lat="47.1008824" lon="10.1203225"><ele>1949.7</ele><time>2024-04-01T06:42:21Z</time></trkpt>
      <trkpt lat="47.101374" lon="10.1215054"><ele>1922.1</ele><time>2024-04-01T06:42:46Z</time></trkpt>
      <trkpt lat="47.1015944" lon="10.121755"><ele>1913.6</ele><time>2024-04-01T06:42:51Z</time></trkpt>
      <trkpt lat="47.1017999" lon="10.1216616"><ele>1912.2</ele><time>2024-04-01T06:43:06Z</time></trkpt>
      <trkpt lat="47.1022158" lon="10.1221812"><ele>1896.7</ele><time>2024-04-01T06:43:21Z</time></trkpt>
      <trkpt lat="47.1027237" lon="10.1221814"><ele>1891.9</ele><time>2024-04-01T06:43:36Z</time></trkpt>
      <trkpt lat="47.1032863" lon="10.1219298"><ele>1883.4</ele><time>2024-04-01T06:44:16Z</time></trkpt>
      <trkpt lat="47.1036553" lon="10.1222625"><ele>1889.3</ele><time>2024-04-01T06:53:57Z</time></trkpt>
      <trkpt lat="47.1037444" lon="10.1226101"><ele>1895.4</ele><time>2024-04-01T06:54:32Z</time></trkpt>
      <trkpt lat="47.1040151" lon="10.1220155"><ele>1903.5</ele><time>2024-04-01T06:56:02Z</time></trkpt>
      <trkpt lat="47.1046592" lon="10.1220382"><ele>1918.3</ele><time>2024-04-01T06:57:32Z</time></trkpt>
      <trkpt lat="47.1038086" lon="10.1218552"><ele>1891.3</ele><time>2024-04-01T06:58:47Z</time></trkpt>
      <trkpt lat="47.103283" lon="10.1219627"><ele>1883.8</ele><time>2024-04-01T06:59:17Z</time></trkpt>
      <trkpt lat="47.1036115" lon="10.1221927"><ele>1888.9</ele><time>2024-04-01T07:04:22Z</time></trkpt>
      <trkpt lat="47.1037514" lon="10.1225988"><ele>1894.9</ele><time>2024-04-01T07:04:57Z</time></trkpt>
      <trkpt lat="47.1040517" lon="10.1219988"><ele>1904.9</ele><time>2024-04-01T07:05:42Z</time></trkpt>
      <trkpt lat="47.1042041" lon="10.122119"><ele>1907.1</ele><time>2024-04-01T07:06:02Z</time></trkpt>
      <trkpt lat="47.1047374" lon="10.1220334"><ele>1917.2</ele><time>2024-04-01T07:06:57Z</time></trkpt>
      <trkpt lat="47.1047247" lon="10.1222877"><ele>1922.2</ele><time>2024-04-01T07:07:17Z</time></trkpt>
      <trkpt lat="47.1050772" lon="10.1221403"><ele>1931.3</ele><time>2024-04-01T07:08:07Z</time></trkpt>
      <trkpt lat="47.1050201" lon="10.1226349"><ele>1938.1</ele><time>2024-04-01T07:08:57Z</time></trkpt>
      <trkpt lat="47.1051778" lon="10.1227605"><ele>1950.7</ele><time>2024-04-01T07:10:07Z</time></trkpt>
      <trkpt lat="47.105165" lon="10.1233018"><ele>1961.8</ele><time>2024-04-01T07:10:57Z</time></trkpt>
      <trkpt lat="47.1053563" lon="10.1230781"><ele>1971.2</ele><time>2024-04-01T07:11:37Z</time></trkpt>
      <trkpt lat="47.1053685" lon="10.1233456"><ele>1975.5</ele><time>2024-04-01T07:12:07Z</time></trkpt>
      <trkpt lat="47.1056329" lon="10.1230165"><ele>1994.9</ele><time>2024-04-01T07:13:37Z</time></trkpt>
      <trkpt lat="47.1058079" lon="10.1231124"><ele>2001.5</ele><time>2024-04-01T07:15:18Z</time></trkpt>
      <trkpt lat="47.105894" lon="10.1228776"><ele>2011.4</ele><time>2024-04-01T07:15:58Z</time></trkpt>
      <trkpt lat="47.1059304" lon="10.1231526"><ele>2011.3</ele><time>2024-04-01T07:17:38Z</time></trkpt>
      <trkpt lat="47.106236" lon="10.1224775"><ele>2026.1</ele><time>2024-04-01T07:21:29Z</time></trkpt>
      <trkpt lat="47.1066939" lon="10.1223124"><ele>2047.7</ele><time>2024-04-01T07:26:19Z</time></trkpt>
      <trkpt lat="47.1063829" lon="10.1244143"><ele>2083.4</ele><time>2024-04-01T07:38:38Z</time></trkpt>
      <trkpt lat="47.1073173" lon="10.1229085"><ele>2109.4</ele><time>2024-04-01T07:45:13Z</time></trkpt>
      <trkpt lat="47.1078822" lon="10.1224478"><ele>2123.4</ele><time>2024-04-01T07:46:58Z</time></trkpt>
      <trkpt lat="47.1077673" lon="10.1226534"><ele>2123.1</ele><time>2024-04-01T07:50:43Z</time></trkpt>
      <trkpt lat="47.1078474" lon="10.1226224"><ele>2126.6</ele><time>2024-04-01T07:50:58Z</time></trkpt>
      <trkpt lat="47.1082422" lon="10.1221196"><ele>2136.1</ele><time>2024-04-01T07:52:28Z</time></trkpt>
      <trkpt lat="47.1083554" lon="10.1222008"><ele>2137.7</ele><time>2024-04-01T07:54:08Z</time></trkpt>
      <trkpt lat="47.1082163" lon="10.1223857"><ele>2140.7</ele><time>2024-04-01T07:54:48Z</time></trkpt>
      <trkpt lat="47.1084695" lon="10.1222693"><ele>2154.4</ele><time>2024-04-01T07:56:33Z</time></trkpt>
      <trkpt lat="47.1082864" lon="10.1227564"><ele>2165.0</ele><time>2024-04-01T07:58:39Z</time></trkpt>
      <trkpt lat="47.1084039" lon="10.1227164"><ele>2170.3</ele><time>2024-04-01T07:59:04Z</time></trkpt>
      <trkpt lat="47.108544" lon="10.1229911"><ele>2176.0</ele><time>2024-04-01T08:00:14Z</time></trkpt>
      <trkpt lat="47.1083228" lon="10.1232832"><ele>2183.1</ele><time>2024-04-01T08:14:20Z</time></trkpt>
      <trkpt lat="47.1085376" lon="10.1233847"><ele>2198.0</ele><time>2024-04-01T08:15:40Z</time></trkpt>
      <trkpt lat="47.1083532" lon="10.1235368"><ele>2203.4</ele><time>2024-04-01T08:16:10Z</time></trkpt>
      <trkpt lat="47.1085645" lon="10.1235746"><ele>2209.0</ele><time>2024-04-01T08:17:35Z</time></trkpt>
      <trkpt lat="47.1083863" lon="10.1241629"><ele>2234.8</ele><time>2024-04-01T08:19:50Z</time></trkpt>
      <trkpt lat="47.1084431" lon="10.1247934"><ele>2245.5</ele><time>2024-04-01T08:20:50Z</time></trkpt>
      <trkpt lat="47.109569" lon="10.1252625"><ele>2233.9</ele><time>2024-04-01T08:32:13Z</time></trkpt>
      <trkpt lat="47.110537" lon="10.1254841"><ele>2225.5</ele><time>2024-04-01T08:32:53Z</time></trkpt>
      <trkpt lat="47.11144" lon="10.1246409"><ele>2174.6</ele><time>2024-04-01T08:35:28Z</time></trkpt>
      <trkpt lat="47.111779" lon="10.1244854"><ele>2158.4</ele><time>2024-04-01T08:35:53Z</time></trkpt>
      <trkpt lat="47.112205" lon="10.124553"><ele>2154.6</ele><time>2024-04-01T08:37:13Z</time></trkpt>
      <trkpt lat="47.1120639" lon="10.1243022"><ele>2144.4</ele><time>2024-04-01T08:38:33Z</time></trkpt>
      <trkpt lat="47.1129604" lon="10.1244621"><ele>2118.0</ele><time>2024-04-01T08:40:58Z</time></trkpt>
      <trkpt lat="47.113301" lon="10.1242819"><ele>2096.2</ele><time>2024-04-01T08:41:13Z</time></trkpt>
      <trkpt lat="47.1136015" lon="10.1243347"><ele>2081.8</ele><time>2024-04-01T08:41:43Z</time></trkpt>
      <trkpt lat="47.1141585" lon="10.1239306"><ele>2056.1</ele><time>2024-04-01T08:43:58Z</time></trkpt>
      <trkpt lat="47.113987" lon="10.1246698"><ele>2037.5</ele><time>2024-04-01T08:46:23Z</time></trkpt>
      <trkpt lat="47.1141974" lon="10.1244579"><ele>2028.7</ele><time>2024-04-01T08:46:53Z</time></trkpt>
      <trkpt lat="47.114254" lon="10.1250966"><ele>2000.9</ele><time>2024-04-01T08:48:18Z</time></trkpt>
      <trkpt lat="47.1144275" lon="10.1248797"><ele>1994.3</ele><time>2024-04-01T08:48:28Z</time></trkpt>
      <trkpt lat="47.1147564" lon="10.1250158"><ele>1962.9</ele><time>2024-04-01T08:48:43Z</time></trkpt>
      <trkpt lat="47.1147593" lon="10.1252592"><ele>1952.0</ele><time>2024-04-01T08:48:53Z</time></trkpt>
      <trkpt lat="47.1148893" lon="10.1253197"><ele>1938.9</ele><time>2024-04-01T08:48:58Z</time></trkpt>
      <trkpt lat="47.1155359" lon="10.124632"><ele>1900.4</ele><time>2024-04-01T08:51:53Z</time></trkpt>
      <trkpt lat="47.1157174" lon="10.1245942"><ele>1889.2</ele><time>2024-04-01T08:51:58Z</time></trkpt>
      <trkpt lat="47.1157719" lon="10.124856"><ele>1878.1</ele><time>2024-04-01T08:52:38Z</time></trkpt>
      <trkpt lat="47.1162583" lon="10.1246358"><ele>1855.0</ele><time>2024-04-01T08:52:48Z</time></trkpt>
      <trkpt lat="47.1166139" lon="10.1247158"><ele>1825.8</ele><time>2024-04-01T08:53:03Z</time></trkpt>
      <trkpt lat="47.116896" lon="10.1244485"><ele>1818.1</ele><time>2024-04-01T08:54:18Z</time></trkpt>
      <trkpt lat="47.116979" lon="10.1245791"><ele>1803.7</ele><time>2024-04-01T08:54:28Z</time></trkpt>
      <trkpt lat="47.1171872" lon="10.1244216"><ele>1795.1</ele><time>2024-04-01T08:54:38Z</time></trkpt>
      <trkpt lat="47.1175532" lon="10.1246415"><ele>1763.0</ele><time>2024-04-01T08:54:48Z</time></trkpt>
      <trkpt lat="47.1179888" lon="10.1243901"><ele>1742.6</ele><time>2024-04-01T08:55:38Z</time></trkpt>
      <trkpt lat="47.1181713" lon="10.1244531"><ele>1732.7</ele><time>2024-04-01T08:56:03Z</time></trkpt>
      <trkpt lat="47.11841" lon="10.1250964"><ele>1704.7</ele><time>2024-04-01T08:57:33Z</time></trkpt>
      <trkpt lat="47.1181544" lon="10.125595"><ele>1694.7</ele><time>2024-04-01T08:59:08Z</time></trkpt>
      <trkpt lat="47.1182185" lon="10.1260539"><ele>1675.8</ele><time>2024-04-01T08:59:22Z</time></trkpt>
      <trkpt lat="47.118317" lon="10.1261156"><ele>1666.3</ele><time>2024-04-01T09:03:23Z</time></trkpt>
      <trkpt lat="47.1193048" lon="10.1250769"><ele>1628.3</ele><time>2024-04-01T09:03:43Z</time></trkpt>
      <trkpt lat="47.1207481" lon="10.1243248"><ele>1590.0</ele><time>2024-04-01T09:04:33Z</time></trkpt>
      <trkpt lat="47.1210509" lon="10.1249414"><ele>1566.2</ele><time>2024-04-01T09:04:43Z</time></trkpt>
      <trkpt lat="47.1222695" lon="10.125816"><ele>1534.9</ele><time>2024-04-01T09:05:38Z</time></trkpt>
      <trkpt lat="47.1230131" lon="10.1257"><ele>1532.9</ele><time>2024-04-01T09:06:08Z</time></trkpt>
      <trkpt lat="47.1232574" lon="10.1258168"><ele>1529.6</ele><time>2024-04-01T09:08:53Z</time></trkpt>
      <trkpt lat="47.1242462" lon="10.1253289"><ele>1533.4</ele><time>2024-04-01T09:10:03Z</time></trkpt>
      <trkpt lat="47.1252561" lon="10.1259102"><ele>1524.6</ele><time>2024-04-01T09:10:43Z</time></trkpt>
      <trkpt lat="47.1256553" lon="10.126698"><ele>1520.3</ele><time>2024-04-01T09:11:03Z</time></trkpt>
      <trkpt lat="47.1271679" lon="10.1275939"><ele>1504.8</ele><time>2024-04-01T09:11:58Z</time></trkpt>
      <trkpt lat="47.1276866" lon="10.1281128"><ele>1496.3</ele><time>2024-04-01T09:12:08Z</time></trkpt>
      <trkpt lat="47.1279093" lon="10.1286077"><ele>1489.8</ele><time>2024-04-01T09:13:28Z</time></trkpt>
      <trkpt lat="47.1291137" lon="10.1298212"><ele>1464.3</ele><time>2024-04-01T09:13:58Z</time></trkpt>
      <trkpt lat="47.1290145" lon="10.1291922"><ele>1454.0</ele><time>2024-04-01T09:14:08Z</time></trkpt>
      <trkpt lat="47.1292069" lon="10.1293225"><ele>1449.9</ele><time>2024-04-01T09:14:23Z</time></trkpt>
      <trkpt lat="47.1290471" lon="10.1282056"><ele>1436.0</ele><time>2024-04-01T09:14:38Z</time></trkpt>
      <trkpt lat="47.1288216" lon="10.1278781"><ele>1431.8</ele><time>2024-04-01T09:15:13Z</time></trkpt>
      <trkpt lat="47.1281044" lon="10.125448"><ele>1406.4</ele><time>2024-04-01T09:16:03Z</time></trkpt>
      <trkpt lat="47.1280409" lon="10.124226"><ele>1391.6</ele><time>2024-04-01T09:17:17Z</time></trkpt>
      <trkpt lat="47.1282036" lon="10.1243094"><ele>1382.7</ele><time>2024-04-01T09:18:22Z</time></trkpt>
      <trkpt lat="47.1283383" lon="10.1240501"><ele>1373.7</ele><time>2024-04-01T09:19:07Z</time></trkpt>
      <trkpt lat="47.1280648" lon="10.1233036"><ele>1367.2</ele><time>2024-04-01T09:19:58Z</time></trkpt>
      <trkpt lat="47.1284134" lon="10.1235768"><ele>1357.5</ele><time>2024-04-01T09:20:17Z</time></trkpt>
      <trkpt lat="47.1284459" lon="10.1226877"><ele>1345.9</ele><time>2024-04-01T09:20:58Z</time></trkpt>
      <trkpt lat="47.128736" lon="10.1234551"><ele>1332.3</ele><time>2024-04-01T09:21:13Z</time></trkpt>
      <trkpt lat="47.1289715" lon="10.1237465"><ele>1327.7</ele><time>2024-04-01T09:22:09Z</time></trkpt>
      <trkpt lat="47.1291271" lon="10.1237322"><ele>1325.9</ele><time>2024-04-01T09:22:14Z</time></trkpt>
      <trkpt lat="47.1291018" lon="10.1234069"><ele>1322.1</ele><time>2024-04-01T09:22:44Z</time></trkpt>
      <trkpt lat="47.128874" lon="10.1230826"><ele>1316.9</ele><time>2024-04-01T09:23:44Z</time></trkpt>
      <trkpt lat="47.1289191" lon="10.1225162"><ele>1315.1</ele><time>2024-04-01T09:23:54Z</time></trkpt>
      <trkpt lat="47.1292993" lon="10.1229973"><ele>1304.0</ele><time>2024-04-01T09:24:24Z</time></trkpt>
      <trkpt lat="47.129592" lon="10.1245239"><ele>1288.8</ele><time>2024-04-01T09:24:59Z</time></trkpt>
      <trkpt lat="47.1300292" lon="10.1251213"><ele>1281.2</ele><time>2024-04-01T09:25:09Z</time></trkpt>
      <trkpt lat="47.1299253" lon="10.1243043"><ele>1268.4</ele><time>2024-04-01T09:27:29Z</time></trkpt>
      <trkpt lat="47.1309274" lon="10.1261238"><ele>1244.9</ele><time>2024-04-01T09:29:49Z</time></trkpt>
      <trkpt lat="47.131357" lon="10.1264322"><ele>1238.2</ele><time>2024-04-01T09:30:24Z</time></trkpt>
      <trkpt lat="47.1323395" lon="10.1264322"><ele>1222.8</ele><time>2024-04-01T09:31:39Z</time></trkpt>
      <trkpt lat="47.1326391" lon="10.1259837"><ele>1219.1</ele><time>2024-04-01T09:33:10Z</time></trkpt>
      <trkpt lat="47.1326211" lon="10.1255517"><ele>1217.4</ele><time>2024-04-01T09:33:35Z</time></trkpt>
      <trkpt lat="47.1327314" lon="10.1253037"><ele>1220.4</ele><time>2024-04-01T09:34:15Z</time></trkpt>
      <trkpt lat="47.1322059" lon="10.1242765"><ele>1224.9</ele><time>2024-04-01T09:35:27Z</time></trkpt>
      <trkpt lat="47.1319386" lon="10.1234091"><ele>1230.3</ele><time>2024-04-01T09:36:17Z</time></trkpt>
      <trkpt lat="47.1318579" lon="10.1229918"><ele>1233.6</ele><time>2024-04-01T09:36:38Z</time></trkpt>
      <trkpt lat="47.1319897" lon="10.1215257"><ele>1221.0</ele><time>2024-04-01T09:38:09Z</time></trkpt>
      <trkpt lat="47.1318179" lon="10.1212928"><ele>1214.4</ele><time>2024-04-01T09:38:34Z</time></trkpt>
      <trkpt lat="47.1320435" lon="10.1212844"><ele>1217.5</ele><time>2024-04-01T09:39:14Z</time></trkpt>
      <trkpt lat="47.1318355" lon="10.1214039"><ele>1220.6</ele><time>2024-04-01T09:41:09Z</time></trkpt>
      <trkpt lat="47.1319526" lon="10.1213091"><ele>1214.2</ele><time>2024-04-01T09:41:44Z</time></trkpt>
      <trkpt lat="47.1318088" lon="10.121348"><ele>1218.4</ele><time>2024-04-01T09:42:14Z</time></trkpt>
      <trkpt lat="47.1318948" lon="10.1212168"><ele>1216.0</ele><time>2024-04-01T09:43:49Z</time></trkpt>
      <trkpt lat="47.1317854" lon="10.1209379"><ele>1219.1</ele><time>2024-04-01T09:45:54Z</time></trkpt>
    </trkseg>
  </trk>
</gpx>
